{"type":"FeatureCollection","features":[{"type":"Feature","id":"DESNATPU1000HrR3","properties":{"id":"DESNATPU1000HrR3","height_m":2.316,"ground_m":273.473,"height_source":"LoD1 solid top minus bottom","production":"2024","laser":"2016","footprints":"2022"},"geometry":{"type":"Polygon","coordinates":[[[13.597236417420577,51.042317365014824],[13.597135941479726,51.04231996285156],[13.597139789164794,51.04239281634505],[13.597243331669292,51.042388348801346],[13.597236417420577,51.042317365014824]]]}},{"type":"Feature","id":"DESNATPU1000B9K7","properties":{"id":"DESNATPU1000B9K7","height_m":3.145,"ground_m":283.151,"height_source":"LoD1 solid top minus bottom","production":"2024","laser":"2016","footprints":"2022"},"geometry":{"type":"Polygon","coordinates":[[[13.60168373723969,51.044605534206546],[13.601538793565275,51.04462933978848],[13.601556743231738,51.044672810878765],[13.6017016924474,51.04464882548072],[13.601767212701546,51.04463800852127],[13.6017495372351,51.0445949004644],[13.60168373723969,51.044605534206546]]]}},{"type":"Feature","id":"DESNATPU1000GDNe","properties":{"id":"DESNATPU1000GDNe","height_m":2.662,"ground_m":279.422,"height_source":"LoD1 solid top minus bottom","production":"2024","laser":"2016","footprints":"2022"},"geometry":{"type":"Polygon","coordinates":[[[13.60178922940306,51.043851349345644],[13.601837003042792,51.04388978145386],[13.601955748864494,51.04383103906978],[13.601905798239436,51.04379383998247],[13.60178922940306,51.043851349345644]]]}},{"type":"Feature","id":"DESNATP1h600006L","properties":{"id":"DESNATP1h600006L","height_m":4.642,"ground_m":276.863,"height_source":"LoD1 solid top minus bottom","production":"2024","laser":"2016","footprints":"2022"},"geometry":{"type":"Polygon","coordinates":[[[13.597660573945422,51.04282475979442],[13.597664896802954,51.04288662952307],[13.597683537709052,51.0428876985675],[13.597734819378653,51.04289012155719],[13.597738419429744,51.0428067996903],[13.597660573945422,51.04282475979442]]]}},{"type":"Feature","id":"DESNATPU1000ChnV","properties":{"id":"DESNATPU1000ChnV","height_m":6.514,"ground_m":276.489,"height_source":"LoD1 solid top minus bottom","production":"2024","laser":"2016","footprints":"2022"},"geometry":{"type":"Polygon","coordinates":[[[13.597913806457136,51.04274266181619],[13.59791061071863,51.042853237315114],[13.597998310056122,51.04285428955336],[13.59800136569968,51.04274362244214],[13.597913806457136,51.04274266181619]]]}},{"type":"Feature","id":"DESNATPU1000DMVj","properties":{"id":"DESNATPU1000DMVj","height_m":3.266,"ground_m":280.635,"height_source":"LoD1 solid top minus bottom","production":"2024","laser":"2016","footprints":"2022"},"geometry":{"type":"Polygon","coordinates":[[[13.60138684640707,51.043870617238866],[13.601429662010165,51.043917353654734],[13.60150365983302,51.04389027106498],[13.601460841472017,51.043843624573135],[13.60138684640707,51.043870617238866]]]}},{"type":"Feature","id":"DESNATPU1000FZnT","properties":{"id":"DESNATPU1000FZnT","height_m":7.328,"ground_m":276.417,"height_source":"LoD1 solid top minus bottom","production":"2024","laser":"2016","footprints":"2022"},"geometry":{"type":"Polygon","coordinates":[[[13.597616105756765,51.04274787560063],[13.597660573945422,51.04282475979442],[13.597738419429744,51.0428067996903],[13.597865853651289,51.04277740193288],[13.597821239850688,51.04270060600055],[13.597616105756765,51.04274787560063]]]}},{"type":"Feature","id":"UUID_d19bcf1f-4dd6-4de4-964b-df853e4dfadb","properties":{"id":"UUID_d19bcf1f-4dd6-4de4-964b-df853e4dfadb","height_m":6.251,"ground_m":274.63,"height_source":"LoD1 solid top minus bottom","production":"2024","laser":"2016","footprints":"2022"},"geometry":{"type":"Polygon","coordinates":[[[13.597381305418464,51.04244921489681],[13.597306459809307,51.042447686977006],[13.597304872607443,51.042473315950154],[13.597303392403843,51.04249729149625],[13.59737856947099,51.042499183116064],[13.597385354488553,51.04249935448782],[13.597386663802231,51.04247536789666],[13.59738806612303,51.04244971871746],[13.597381281112703,51.04244954734593],[13.597381305418464,51.04244921489681]]]}},{"type":"Feature","id":"UUID_43d08c88-3275-452f-a1a5-db2a4acdade4","properties":{"id":"UUID_43d08c88-3275-452f-a1a5-db2a4acdade4","height_m":5.15,"ground_m":274.63,"height_source":"LoD1 solid top minus bottom","production":"2024","laser":"2016","footprints":"2022"},"geometry":{"type":"Polygon","coordinates":[[[13.597381281112703,51.04244954734593],[13.59738806612303,51.04244971871746],[13.597386909563191,51.042471009243364],[13.597385354488553,51.04249935448782],[13.597383764517017,51.04252838278096],[13.597483406287738,51.042530747844246],[13.597487005628587,51.042473442708044],[13.597488345892781,51.04245220834419],[13.597381305418464,51.04244921489681],[13.597381281112703,51.04244954734593]]]}},{"type":"Feature","id":"DESNATP1h600006I","properties":{"id":"DESNATP1h600006I","height_m":6.827,"ground_m":280.506,"height_source":"LoD1 solid top minus bottom","production":"2024","laser":"2016","footprints":"2022"},"geometry":{"type":"Polygon","coordinates":[[[13.597541801483706,51.04314173137656],[13.59751851764105,51.04328778594363],[13.597607220962162,51.04329340997022],[13.597630504529354,51.04314735538344],[13.597541801483706,51.04314173137656]]]}},{"type":"Feature","id":"DESNATPU1000GPof","properties":{"id":"DESNATPU1000GPof","height_m":6.616,"ground_m":279.069,"height_source":"LoD1 solid top minus bottom","production":"2024","laser":"2016","footprints":"2022"},"geometry":{"type":"Polygon","coordinates":[[[13.601939416522741,51.04372436665968],[13.602058506531838,51.043663649831764],[13.601974322698515,51.04359789317234],[13.601855090148112,51.04365860820937],[13.601939416522741,51.04372436665968]]]}},{"type":"Feature","id":"DESNATP1h600006O","properties":{"id":"DESNATP1h600006O","height_m":2.955,"ground_m":279.906,"height_source":"LoD1 solid top minus bottom","production":"2024","laser":"2016","footprints":"2022"},"geometry":{"type":"Polygon","coordinates":[[[13.601647339999582,51.043764802637014],[13.601529123126419,51.04380502547786],[13.601574944367579,51.04385854255392],[13.601693161339123,51.04381831966784],[13.601647339999582,51.043764802637014]]]}},{"type":"Feature","id":"DESNATPU1000IPFt","properties":{"id":"DESNATPU1000IPFt","height_m":2.959,"ground_m":277.318,"height_source":"LoD1 solid top minus bottom","production":"2024","laser":"2016","footprints":"2022"},"geometry":{"type":"Polygon","coordinates":[[[13.601988838624735,51.043356901793096],[13.60191872113377,51.04338780816957],[13.601967747234173,51.043432010727855],[13.602037864760412,51.04340110432247],[13.601988838624735,51.043356901793096]]]}},{"type":"Feature","id":"DESNATP1h600006H","properties":{"id":"DESNATP1h600006H","height_m":7.065,"ground_m":279.878,"height_source":"LoD1 solid top minus bottom","production":"2024","laser":"2016","footprints":"2022"},"geometry":{"type":"Polygon","coordinates":[[[13.597958435556476,51.043162001077874],[13.597779429530636,51.04315271275541],[13.597769484002649,51.04322886300151],[13.597948490319435,51.04323815134138],[13.597958435556476,51.043162001077874]]]}},{"type":"Feature","id":"UUID_0a171ef2-1730-447b-9824-a9c0ed0b9c1b","properties":{"id":"UUID_0a171ef2-1730-447b-9824-a9c0ed0b9c1b","height_m":6.036,"ground_m":277.319,"height_source":"LoD1 solid top minus bottom","production":"2024","laser":"2016","footprints":"2022"},"geometry":{"type":"Polygon","coordinates":[[[13.597880071926499,51.04297881778616],[13.597889803599148,51.04289745801825],[13.59773778221478,51.04289026502751],[13.597730333716099,51.042953639212804],[13.597728222213213,51.042971599865034],[13.597880071926499,51.04297881778616]]]}},{"type":"Feature","id":"UUID_6505ddfa-2768-4046-8a18-fac2bd83cf27","properties":{"id":"UUID_6505ddfa-2768-4046-8a18-fac2bd83cf27","height_m":5.58,"ground_m":277.319,"height_source":"LoD1 solid top minus bottom","production":"2024","laser":"2016","footprints":"2022"},"geometry":{"type":"Polygon","coordinates":[[[13.597675917201528,51.04295109766443],[13.597730333716099,51.042953639212804],[13.59773778221478,51.04289026502751],[13.597683537709052,51.0428876985675],[13.597675917201528,51.04295109766443]]]}},{"type":"Feature","id":"DESNATPU1000IVYe","properties":{"id":"DESNATPU1000IVYe","height_m":6.172,"ground_m":281.224,"height_source":"LoD1 solid top minus bottom","production":"2024","laser":"2016","footprints":"2022"},"geometry":{"type":"Polygon","coordinates":[[[13.601442137193379,51.04415016961922],[13.601572954045604,51.044079071833785],[13.601471616097072,51.04400501583776],[13.601340939199712,51.04407620511538],[13.601442137193379,51.04415016961922]]]}},{"type":"Feature","id":"UUID_56eee2fa-1d5b-4c96-beea-e4baa887f24c","properties":{"id":"UUID_56eee2fa-1d5b-4c96-beea-e4baa887f24c","height_m":6.029,"ground_m":283.426,"height_source":"LoD1 solid top minus bottom","production":"2024","laser":"2016","footprints":"2022"},"geometry":{"type":"Polygon","coordinates":[[[13.601252878862352,51.04454267866657],[13.60126097669629,51.044562740034344],[13.601383210942956,51.04454314150515],[13.601375141309715,51.04452308947651],[13.601252878862352,51.04454267866657]]]}},{"type":"Feature","id":"UUID_cfbd3b0e-9914-42ac-b59e-6e7f964f8fe7","properties":{"id":"UUID_cfbd3b0e-9914-42ac-b59e-6e7f964f8fe7","height_m":7.653,"ground_m":283.426,"height_source":"LoD1 solid top minus bottom","production":"2024","laser":"2016","footprints":"2022"},"geometry":{"type":"Polygon","coordinates":[[[13.601473790846736,51.0446509184297],[13.601427462991355,51.044536045082424],[13.601383210942956,51.04454314150515],[13.60126097669629,51.044562740034344],[13.601307290173978,51.044677604283656],[13.601473790846736,51.0446509184297]]]}},{"type":"Feature","id":"DESNATPU1000GUaD","properties":{"id":"DESNATPU1000GUaD","height_m":3.795,"ground_m":279.054,"height_source":"LoD1 solid top minus bottom","production":"2024","laser":"2016","footprints":"2022"},"geometry":{"type":"Polygon","coordinates":[[[13.60194574942134,51.04357560842682],[13.601826516891947,51.043636323435074],[13.601855090148112,51.04365860820937],[13.601974322698515,51.04359789317234],[13.60194574942134,51.04357560842682]]]}},{"type":"Feature","id":"DESNATPU1000HBHy","properties":{"id":"DESNATPU1000HBHy","height_m":4.5,"ground_m":279.209,"height_source":"LoD1 solid top minus bottom","production":"2024","laser":"2016","footprints":"2022"},"geometry":{"type":"Polygon","coordinates":[[[13.601955748864494,51.04383103906978],[13.601991744990864,51.043857909110756],[13.602045248043591,51.043829232037936],[13.601925947039433,51.043740572752604],[13.601872589327462,51.04376916158013],[13.601905798239436,51.04379383998247],[13.601955748864494,51.04383103906978]]]}},{"type":"Feature","id":"DESNATPU1000GSED","properties":{"id":"DESNATPU1000GSED","height_m":5.082,"ground_m":282.288,"height_source":"LoD1 solid top minus bottom","production":"2024","laser":"2016","footprints":"2022"},"geometry":{"type":"Polygon","coordinates":[[[13.60171354237253,51.04451396451415],[13.601741537108662,51.04458390523429],[13.601880316003632,51.04456110480218],[13.601860911087599,51.04451383929466],[13.601883995137458,51.04450997870973],[13.601860327289135,51.0444526799792],[13.601807986592517,51.04446167622785],[13.60169936090293,51.04447800271928],[13.601643570538622,51.04448785691456],[13.601657353927202,51.04452282472384],[13.60171354237253,51.04451396451415]]]}},{"type":"Feature","id":"DESNATPU1000GYm3","properties":{"id":"DESNATPU1000GYm3","height_m":6.239,"ground_m":280.338,"height_source":"LoD1 solid top minus bottom","production":"2024","laser":"2016","footprints":"2022"},"geometry":{"type":"Polygon","coordinates":[[[13.60121328986864,51.043897209507655],[13.601375287072091,51.043903914827965],[13.601386486670647,51.04379730206978],[13.601224207337424,51.0437905034563],[13.60121328986864,51.043897209507655]]]}},{"type":"Feature","id":"DESNATP1h600006J","properties":{"id":"DESNATP1h600006J","height_m":3.245,"ground_m":280.436,"height_source":"LoD1 solid top minus bottom","production":"2024","laser":"2016","footprints":"2022"},"geometry":{"type":"Polygon","coordinates":[[[13.597777480540522,51.043167653711684],[13.597629045126132,51.043156474752166],[13.597622338548028,51.0431985804062],[13.59770624555743,51.043204776307064],[13.597704479857791,51.04322545699244],[13.597769484002649,51.04322886300151],[13.597777480540522,51.043167653711684]]]}}]}