{"type":"FeatureCollection","features":[{"type":"Feature","id":"DESNATP1DF00006j","properties":{"id":"DESNATP1DF00006j","height_m":3.0,"ground_m":262.724,"height_source":"LoD1 solid top minus bottom","production":"2024","laser":"2016","footprints":"2022"},"geometry":{"type":"Polygon","coordinates":[[[13.597922821656091,51.0735269578271],[13.597981036970756,51.07356652367952],[13.598043840457395,51.07352984834383],[13.59798562513395,51.07349028252238],[13.597922821656091,51.0735269578271]]]}},{"type":"Feature","id":"DESNATPU1000H0Nr","properties":{"id":"DESNATPU1000H0Nr","height_m":5.283,"ground_m":234.96,"height_source":"LoD1 solid top minus bottom","production":"2024","laser":"2016","footprints":"2022"},"geometry":{"type":"Polygon","coordinates":[[[13.60110514201358,51.081604500248154],[13.60108526143781,51.08156307467213],[13.600896289684037,51.08159903290169],[13.600916170105151,51.081640458508396],[13.60110514201358,51.081604500248154]]]}},{"type":"Feature","id":"DESNATPU1000HznM","properties":{"id":"DESNATPU1000HznM","height_m":3.831,"ground_m":246.967,"height_source":"LoD1 solid top minus bottom","production":"2024","laser":"2016","footprints":"2022"},"geometry":{"type":"Polygon","coordinates":[[[13.601045043636407,51.078055374104046],[13.601148440071636,51.07804465095464],[13.601101967209255,51.077867293539086],[13.600998425740407,51.07787810483959],[13.601045043636407,51.078055374104046]]]}},{"type":"Feature","id":"DESNATP1iE0000Oz","properties":{"id":"DESNATP1iE0000Oz","height_m":3.276,"ground_m":250.44,"height_source":"LoD1 solid top minus bottom","production":"2024","laser":"2016","footprints":"2022"},"geometry":{"type":"Polygon","coordinates":[[[13.601052150398164,51.07682481995087],[13.601117951155388,51.076786811919874],[13.601047490110346,51.07673841393079],[13.600981703636101,51.07677642209332],[13.601052150398164,51.07682481995087]]]}},{"type":"Feature","id":"DESNATP1iE0000Oy","properties":{"id":"DESNATP1iE0000Oy","height_m":4.184,"ground_m":250.3,"height_source":"LoD1 solid top minus bottom","production":"2024","laser":"2016","footprints":"2022"},"geometry":{"type":"Polygon","coordinates":[[[13.60084543213789,51.076835924977914],[13.600931053254648,51.076894756505695],[13.601052150398164,51.07682481995087],[13.600981703636101,51.07677642209332],[13.600966514982916,51.07676598834012],[13.60084543213789,51.076835924977914]]]}},{"type":"Feature","id":"UUID_78f649db-27c7-423b-b47c-2cd000ad4769","properties":{"id":"UUID_78f649db-27c7-423b-b47c-2cd000ad4769","height_m":3.315,"ground_m":254.62,"height_source":"LoD1 solid top minus bottom","production":"2024","laser":"2016","footprints":"2022"},"geometry":{"type":"Polygon","coordinates":[[[13.60039340188801,51.07583926580216],[13.600449628478948,51.075977081479955],[13.600520209682758,51.07596560625386],[13.600463679694366,51.07582790388606],[13.60039340188801,51.07583926580216]]]}},{"type":"Feature","id":"UUID_4f409a83-0051-4483-99c9-39acdeb1f03f","properties":{"id":"UUID_4f409a83-0051-4483-99c9-39acdeb1f03f","height_m":3.66,"ground_m":254.62,"height_source":"LoD1 solid top minus bottom","production":"2024","laser":"2016","footprints":"2022"},"geometry":{"type":"Polygon","coordinates":[[[13.600494278603986,51.075902435085105],[13.6005446301813,51.07589431480164],[13.600514046279487,51.075819756816855],[13.600463679694366,51.07582790388606],[13.600494278603986,51.075902435085105]]]}},{"type":"Feature","id":"DESNATPU1000CYM9","properties":{"id":"DESNATPU1000CYM9","height_m":2.817,"ground_m":229.033,"height_source":"LoD1 solid top minus bottom","production":"2024","laser":"2016","footprints":"2022"},"geometry":{"type":"Polygon","coordinates":[[[13.600471025680937,51.08277627019517],[13.600476097160733,51.08282111573311],[13.600575746380658,51.08281664324306],[13.600570672092,51.08277188760553],[13.600471025680937,51.08277627019517]]]}},{"type":"Feature","id":"DESNATPU1000GKmu","properties":{"id":"DESNATPU1000GKmu","height_m":4.525,"ground_m":262.75,"height_source":"LoD1 solid top minus bottom","production":"2024","laser":"2016","footprints":"2022"},"geometry":{"type":"Polygon","coordinates":[[[13.598099211062513,51.07344437800275],[13.598024829647551,51.073482515238325],[13.59813807073882,51.07357083532447],[13.598212592183499,51.073532789626064],[13.598099211062513,51.07344437800275]]]}}]}