{"type":"FeatureCollection","features":[{"type":"Feature","id":"DESNATPU1000If1T","properties":{"id":"DESNATPU1000If1T","height_m":3.017,"ground_m":133.385,"height_source":"LoD1 solid top minus bottom","production":"2023","laser":"2016","footprints":"2021"},"geometry":{"type":"Polygon","coordinates":[[[13.600340473046092,51.092839142318404],[13.600463566373337,51.09290554496751],[13.60051760682304,51.092865723796116],[13.600394510807751,51.092799411100415],[13.600340473046092,51.092839142318404]]]}},{"type":"Feature","id":"UUID_f54f9ae8-0c6c-418c-b3d1-897d435721d1","properties":{"id":"UUID_f54f9ae8-0c6c-418c-b3d1-897d435721d1","height_m":7.044,"ground_m":109.052,"height_source":"LoD1 solid top minus bottom","production":"2023","laser":"2016","footprints":"2021"},"geometry":{"type":"Polygon","coordinates":[[[13.599680724250433,51.09604387143639],[13.599656904718675,51.096052309238104],[13.599698359795351,51.0960983099705],[13.599721981102904,51.09608981582846],[13.599680724250433,51.09604387143639]]]}},{"type":"Feature","id":"UUID_dd62c701-f98e-4e13-8d1f-d284e7edde29","properties":{"id":"UUID_dd62c701-f98e-4e13-8d1f-d284e7edde29","height_m":9.691,"ground_m":109.052,"height_source":"LoD1 solid top minus bottom","production":"2023","laser":"2016","footprints":"2021"},"geometry":{"type":"Polygon","coordinates":[[[13.599675335691812,51.09603787156393],[13.599680724250433,51.09604387143639],[13.599721981102904,51.09608981582846],[13.599836420567796,51.09604865006298],[13.59979113159819,51.09599671309826],[13.599675335691812,51.09603787156393]]]}},{"type":"Feature","id":"DESNATP1Af0000A2","properties":{"id":"DESNATP1Af0000A2","height_m":7.791,"ground_m":121.657,"height_source":"LoD1 solid top minus bottom","production":"2023","laser":"2016","footprints":"2021"},"geometry":{"type":"Polygon","coordinates":[[[13.599116330172146,51.0914170325742],[13.598509509926123,51.09130552196197],[13.598484978156666,51.091355543257905],[13.59907749228177,51.09147076749071],[13.599116330172146,51.0914170325742]]]}},{"type":"Feature","id":"DESNATPU1000FmXA","properties":{"id":"DESNATPU1000FmXA","height_m":4.885,"ground_m":121.693,"height_source":"LoD1 solid top minus bottom","production":"2023","laser":"2016","footprints":"2021"},"geometry":{"type":"Polygon","coordinates":[[[13.599008439695284,51.09172809079298],[13.59923852380573,51.09177485943461],[13.599267204098101,51.0917189074024],[13.599037105959127,51.091672138647645],[13.599008439695284,51.09172809079298]]]}},{"type":"Feature","id":"DESNATPU1000IxnZ","properties":{"id":"DESNATPU1000IxnZ","height_m":3.744,"ground_m":134.456,"height_source":"LoD1 solid top minus bottom","production":"2023","laser":"2016","footprints":"2021"},"geometry":{"type":"Polygon","coordinates":[[[13.600092167860032,51.09270559182076],[13.600069858442817,51.09272555872687],[13.600059726080742,51.09273479002333],[13.600202244647157,51.092810508430134],[13.6002386237912,51.092783335777696],[13.600222769491289,51.09277491741256],[13.600092167860032,51.09270559182076]]]}},{"type":"Feature","id":"DESNATP1do0000je","properties":{"id":"DESNATP1do0000je","height_m":3.802,"ground_m":121.467,"height_source":"LoD1 solid top minus bottom","production":"2023","laser":"2016","footprints":"2021"},"geometry":{"type":"Polygon","coordinates":[[[13.599247222364081,51.09144112836862],[13.59920811933686,51.09150742326484],[13.599455729848096,51.09156535488338],[13.599494847119946,51.091499051083936],[13.599247222364081,51.09144112836862]]]}},{"type":"Feature","id":"DESNATPU1000GMEr","properties":{"id":"DESNATPU1000GMEr","height_m":3.552,"ground_m":208.777,"height_source":"LoD1 solid top minus bottom","production":"2023","laser":"2016","footprints":"2021"},"geometry":{"type":"Polygon","coordinates":[[[13.593698839737298,51.09279195897246],[13.593620813507389,51.092838934593274],[13.593700531780877,51.09288917487201],[13.593778986278567,51.092842204350134],[13.593698839737298,51.09279195897246]]]}},{"type":"Feature","id":"DESNATPU1000FExX","properties":{"id":"DESNATPU1000FExX","height_m":2.517,"ground_m":135.778,"height_source":"LoD1 solid top minus bottom","production":"2023","laser":"2016","footprints":"2021"},"geometry":{"type":"Polygon","coordinates":[[[13.599616521633237,51.09256483910602],[13.599559631217412,51.09261389742414],[13.599624083299455,51.09264354581072],[13.599680973684695,51.09259448746123],[13.599616521633237,51.09256483910602]]]}},{"type":"Feature","id":"UUID_6d915b45-01df-4c09-9632-6802f72ee226","properties":{"id":"UUID_6d915b45-01df-4c09-9632-6802f72ee226","height_m":9.698,"ground_m":128.74,"height_source":"LoD1 solid top minus bottom","production":"2023","laser":"2016","footprints":"2021"},"geometry":{"type":"Polygon","coordinates":[[[13.599399576294061,51.095730058850414],[13.599440213180989,51.095789413351035],[13.599540074349239,51.095762309004414],[13.59951155571267,51.09572066288414],[13.5994795490463,51.09567392994206],[13.599379702583056,51.09570102541998],[13.599399576294061,51.095730058850414]]]}},{"type":"Feature","id":"UUID_03206697-b236-436d-9320-192ec44810e8","properties":{"id":"UUID_03206697-b236-436d-9320-192ec44810e8","height_m":7.002,"ground_m":128.74,"height_source":"LoD1 solid top minus bottom","production":"2023","laser":"2016","footprints":"2021"},"geometry":{"type":"Polygon","coordinates":[[[13.599671526631075,51.09564536605458],[13.599669740890159,51.095645857259946],[13.599674131303013,51.09565227683678],[13.599509573730254,51.09569692481737],[13.599523579379303,51.09571739861252],[13.599689923025386,51.09567225041753],[13.599671526631075,51.09564536605458]]]}},{"type":"Feature","id":"UUID_aac34f75-09c7-4c77-9f6b-e3bcb31953fe","properties":{"id":"UUID_aac34f75-09c7-4c77-9f6b-e3bcb31953fe","height_m":7.072,"ground_m":128.74,"height_source":"LoD1 solid top minus bottom","production":"2023","laser":"2016","footprints":"2021"},"geometry":{"type":"Polygon","coordinates":[[[13.599399576294061,51.095730058850414],[13.599371368036666,51.095737697600164],[13.599412004350516,51.09579707008962],[13.599440213180989,51.095789413351035],[13.599399576294061,51.095730058850414]]]}},{"type":"Feature","id":"UUID_20d40f7a-73df-469c-9c98-14c78010dd0b","properties":{"id":"UUID_20d40f7a-73df-469c-9c98-14c78010dd0b","height_m":9.305,"ground_m":128.74,"height_source":"LoD1 solid top minus bottom","production":"2023","laser":"2016","footprints":"2021"},"geometry":{"type":"Polygon","coordinates":[[[13.599905878139559,51.09568437853514],[13.599912780880384,51.09566767143134],[13.599913365739232,51.09566627554097],[13.599917512614304,51.095665156127396],[13.599890578058734,51.095625903202134],[13.599874929448239,51.095603080608],[13.599870880441182,51.09559717772405],[13.599751509518237,51.095629543337054],[13.599748117543905,51.09562458358217],[13.599671526359495,51.095645375044256],[13.599675028192179,51.09565048000401],[13.599689923025386,51.09567225041753],[13.599712122053344,51.09570468399198],[13.599735301425287,51.09571695819202],[13.599738095200811,51.09571619128671],[13.599851850648355,51.09568487355117],[13.599880391179822,51.095691762226174],[13.599905878139559,51.09568437853514]]]}},{"type":"Feature","id":"UUID_64b2b6ad-a5bd-40b7-a5b3-a77b722c8cdd","properties":{"id":"UUID_64b2b6ad-a5bd-40b7-a5b3-a77b722c8cdd","height_m":7.199,"ground_m":128.74,"height_source":"LoD1 solid top minus bottom","production":"2023","laser":"2016","footprints":"2021"},"geometry":{"type":"Polygon","coordinates":[[[13.599491601527157,51.09567065702603],[13.5994795490463,51.09567392994206],[13.59951155571267,51.09572066288414],[13.599523579379303,51.09571739861252],[13.599509573730254,51.09569692481737],[13.599491601527157,51.09567065702603]]]}},{"type":"Feature","id":"UUID_4e05d461-885c-4b35-9556-fa5439dee9eb","properties":{"id":"UUID_4e05d461-885c-4b35-9556-fa5439dee9eb","height_m":9.21,"ground_m":128.74,"height_source":"LoD1 solid top minus bottom","production":"2023","laser":"2016","footprints":"2021"},"geometry":{"type":"Polygon","coordinates":[[[13.599962117689556,51.095579439271056],[13.599874929448239,51.095603080608],[13.599917512614304,51.095665156127396],[13.600004586470021,51.09564152238158],[13.599962117689556,51.095579439271056]]]}},{"type":"Feature","id":"UUID_5866a9e8-749e-4bb1-9253-3aa609abe01d","properties":{"id":"UUID_5866a9e8-749e-4bb1-9253-3aa609abe01d","height_m":9.145,"ground_m":128.74,"height_source":"LoD1 solid top minus bottom","production":"2023","laser":"2016","footprints":"2021"},"geometry":{"type":"Polygon","coordinates":[[[13.600062471988691,51.095544966194275],[13.599957918693924,51.095573300778014],[13.599962117689556,51.095579439271056],[13.600004586470021,51.09564152238158],[13.600109227449996,51.0956131258555],[13.600062471988691,51.095544966194275]]]}},{"type":"Feature","id":"DESNATPU1000B9Hp","properties":{"id":"DESNATPU1000B9Hp","height_m":5.798,"ground_m":133.986,"height_source":"LoD1 solid top minus bottom","production":"2023","laser":"2016","footprints":"2021"},"geometry":{"type":"Polygon","coordinates":[[[13.599554231398871,51.092402651953186],[13.599467620593446,51.09237522908826],[13.599433280455331,51.09241998910913],[13.599518291979837,51.092448355081764],[13.599554231398871,51.092402651953186]]]}},{"type":"Feature","id":"UUID_fc1d5687-55e8-4878-8348-85b8e5ef44dd","properties":{"id":"UUID_fc1d5687-55e8-4878-8348-85b8e5ef44dd","height_m":9.414,"ground_m":127.577,"height_source":"LoD1 solid top minus bottom","production":"2023","laser":"2016","footprints":"2021"},"geometry":{"type":"Polygon","coordinates":[[[13.600307960724153,51.09235750586103],[13.600311084916529,51.09235146405392],[13.600314194289941,51.092345440055134],[13.600288846560115,51.09234023540848],[13.600283599145659,51.09233335594274],[13.600270348609161,51.092329042553146],[13.60026309486716,51.09232901864775],[13.600256565464154,51.092331017829565],[13.600252087025591,51.09233461533066],[13.600250595427324,51.09233908493796],[13.600201389670351,51.09232899920922],[13.6001920162384,51.09234715159024],[13.600301654421472,51.09236961576026],[13.600307932445,51.09235749652951],[13.600307960724153,51.09235750586103]]]}},{"type":"Feature","id":"UUID_73810ada-8f0d-4b00-99a4-9dbf70638a49","properties":{"id":"UUID_73810ada-8f0d-4b00-99a4-9dbf70638a49","height_m":12.06,"ground_m":127.577,"height_source":"LoD1 solid top minus bottom","production":"2023","laser":"2016","footprints":"2021"},"geometry":{"type":"Polygon","coordinates":[[[13.600095787941038,51.09240175537111],[13.60013301543092,51.09240937753025],[13.600167690098845,51.09234216598755],[13.600130519486466,51.092334553513226],[13.600095787941038,51.09240175537111]]]}},{"type":"Feature","id":"UUID_9ecd5abc-d147-4fd4-95f5-9b71ffc73b34","properties":{"id":"UUID_9ecd5abc-d147-4fd4-95f5-9b71ffc73b34","height_m":10.453,"ground_m":127.577,"height_source":"LoD1 solid top minus bottom","production":"2023","laser":"2016","footprints":"2021"},"geometry":{"type":"Polygon","coordinates":[[[13.600269548095447,51.09243122852606],[13.60032999461229,51.092443616109925],[13.600337320061957,51.09242944104706],[13.600346783991872,51.09241112786577],[13.600368137282416,51.09236984522869],[13.600307960724153,51.09235750586103],[13.600307932445,51.09235749652951],[13.600301654421472,51.09236961576026],[13.600286465447416,51.09239875980854],[13.60027693066272,51.09241705415082],[13.600269548095447,51.09243122852606]]]}},{"type":"Feature","id":"UUID_9e5b51aa-7d9c-43c7-bcfc-93c984f0555e","properties":{"id":"UUID_9e5b51aa-7d9c-43c7-bcfc-93c984f0555e","height_m":12.398,"ground_m":127.577,"height_source":"LoD1 solid top minus bottom","production":"2023","laser":"2016","footprints":"2021"},"geometry":{"type":"Polygon","coordinates":[[[13.600167690098845,51.09234216598755],[13.600146211311666,51.09238381579585],[13.60013301543092,51.09240937753025],[13.600122989298132,51.0924288080773],[13.60014910385181,51.09243415683621],[13.600143841671493,51.09244431877344],[13.600190081368728,51.09245379346151],[13.600195541334301,51.092443229209195],[13.600256754370415,51.09245576989637],[13.600269462986448,51.09243120952115],[13.600269548095447,51.09243122852606],[13.600280069138593,51.0924110125156],[13.600301654692899,51.0923696067706],[13.6001920162384,51.09234715159024],[13.600167690098845,51.09234216598755]]]}},{"type":"Feature","id":"DESNATP1do0000gv","properties":{"id":"DESNATP1do0000gv","height_m":5.6,"ground_m":127.694,"height_source":"LoD1 solid top minus bottom","production":"2023","laser":"2016","footprints":"2021"},"geometry":{"type":"Polygon","coordinates":[[[13.599540074349239,51.095762309004414],[13.599412004350516,51.09579707008962],[13.599351841641226,51.09581249155501],[13.599373024912785,51.09584308746145],[13.599427902960397,51.09582768360703],[13.599447405720941,51.09585718021577],[13.59952853545341,51.09583602959682],[13.599522257327637,51.095818822878364],[13.599567401803348,51.09580651282157],[13.599540074349239,51.095762309004414]]]}},{"type":"Feature","id":"DESNATPU1000Fcmj","properties":{"id":"DESNATPU1000Fcmj","height_m":3.43,"ground_m":134.44,"height_source":"LoD1 solid top minus bottom","production":"2023","laser":"2016","footprints":"2021"},"geometry":{"type":"Polygon","coordinates":[[[13.599726680131843,51.09248025830849],[13.599674292765082,51.092522077362624],[13.59973732304149,51.0925534083178],[13.599807948055085,51.092588607234234],[13.599860478132264,51.09254678983013],[13.59978986497283,51.09251167202339],[13.599726680131843,51.09248025830849]]]}},{"type":"Feature","id":"UUID_0ca7f86e-0bbf-4752-a85f-97f673215b1f","properties":{"id":"UUID_0ca7f86e-0bbf-4752-a85f-97f673215b1f","height_m":3.837,"ground_m":129.36,"height_source":"LoD1 solid top minus bottom","production":"2023","laser":"2016","footprints":"2021"},"geometry":{"type":"Polygon","coordinates":[[[13.59923129165172,51.09579310625987],[13.599220419284412,51.09577717542586],[13.599179251422036,51.09578832794954],[13.599190138325676,51.09580424996867],[13.59923129165172,51.09579310625987]]]}},{"type":"Feature","id":"UUID_cecfc6e8-8d2b-479b-8142-01c76e40ed04","properties":{"id":"UUID_cecfc6e8-8d2b-479b-8142-01c76e40ed04","height_m":5.833,"ground_m":129.36,"height_source":"LoD1 solid top minus bottom","production":"2023","laser":"2016","footprints":"2021"},"geometry":{"type":"Polygon","coordinates":[[[13.599190138325676,51.09580424996867],[13.599079896947755,51.09583409836436],[13.59912474099492,51.09589978044872],[13.599276150152413,51.09585878845903],[13.59923129165172,51.09579310625987],[13.599190138325676,51.09580424996867]]]}},{"type":"Feature","id":"DESNATP1do0000jc","properties":{"id":"DESNATP1do0000jc","height_m":3.557,"ground_m":123.407,"height_source":"LoD1 solid top minus bottom","production":"2023","laser":"2016","footprints":"2021"},"geometry":{"type":"Polygon","coordinates":[[[13.598941674626401,51.09197726689651],[13.598916994800788,51.09203455278448],[13.599040567276083,51.092055665349214],[13.599065246961262,51.091998379434244],[13.598941674626401,51.09197726689651]]]}},{"type":"Feature","id":"DESNATP1do0000gr","properties":{"id":"DESNATP1do0000gr","height_m":2.621,"ground_m":128.997,"height_source":"LoD1 solid top minus bottom","production":"2023","laser":"2016","footprints":"2021"},"geometry":{"type":"Polygon","coordinates":[[[13.598728945797822,51.09595588289311],[13.598759126146383,51.095988367354636],[13.59890088714313,51.09592404048859],[13.598878334602526,51.0958886708312],[13.598728945797822,51.09595588289311]]]}},{"type":"Feature","id":"DESNATPU1000J28t","properties":{"id":"DESNATPU1000J28t","height_m":7.328,"ground_m":129.7,"height_source":"LoD1 solid top minus bottom","production":"2023","laser":"2016","footprints":"2021"},"geometry":{"type":"Polygon","coordinates":[[[13.600226468505257,51.09258525603813],[13.600289050375139,51.092612534509705],[13.600306381163987,51.092596644693835],[13.6004271658751,51.09264962029236],[13.600460496454287,51.092619353479066],[13.600446402922836,51.09261315948994],[13.60046916209678,51.0925924784634],[13.600469831358533,51.09257504020939],[13.600441712173877,51.09256040481392],[13.600418252275198,51.092571185232664],[13.600298593518382,51.092518762680406],[13.600226468505257,51.09258525603813]]]}},{"type":"Feature","id":"UUID_6de5cfe0-6b5c-413f-a518-d06b8d1f0dd8","properties":{"id":"UUID_6de5cfe0-6b5c-413f-a518-d06b8d1f0dd8","height_m":7.787,"ground_m":131.995,"height_source":"LoD1 solid top minus bottom","production":"2023","laser":"2016","footprints":"2021"},"geometry":{"type":"Polygon","coordinates":[[[13.59958945372863,51.092413775489305],[13.599554231398871,51.092402651953186],[13.599518291979837,51.092448355081764],[13.599553360837241,51.09245935988196],[13.59958945372863,51.092413775489305]]]}},{"type":"Feature","id":"UUID_4ec96a5d-3cee-4edd-88e4-c66d51285d1b","properties":{"id":"UUID_4ec96a5d-3cee-4edd-88e4-c66d51285d1b","height_m":8.154,"ground_m":131.995,"height_source":"LoD1 solid top minus bottom","production":"2023","laser":"2016","footprints":"2021"},"geometry":{"type":"Polygon","coordinates":[[[13.59958945372863,51.092413775489305],[13.599553360837241,51.09245935988196],[13.5996521171603,51.0924903364934],[13.599740314944436,51.09237871168843],[13.599641715010735,51.09234776400241],[13.59958945372863,51.092413775489305]]]}}]}