{"type":"FeatureCollection","features":[{"type":"Feature","id":"UUID_ff391ccc-325b-4874-9b34-21c548053af1","properties":{"id":"UUID_ff391ccc-325b-4874-9b34-21c548053af1","height_m":5.206,"ground_m":282.835,"height_source":"LoD1 solid top minus bottom","production":"2023","laser":"2016","footprints":"2024"},"geometry":{"type":"Polygon","coordinates":[[[13.648674389169955,51.02980617676874],[13.648682083378084,51.02980346893835],[13.648607029082704,51.029718570548326],[13.648599334884448,51.02972127837388],[13.648674389169955,51.02980617676874]]]}},{"type":"Feature","id":"UUID_71d4bf83-c3ab-4efd-a59c-720ea7c5be4c","properties":{"id":"UUID_71d4bf83-c3ab-4efd-a59c-720ea7c5be4c","height_m":3.944,"ground_m":282.835,"height_source":"LoD1 solid top minus bottom","production":"2023","laser":"2016","footprints":"2024"},"geometry":{"type":"Polygon","coordinates":[[[13.648519815866136,51.029931576636166],[13.648450989420413,51.029855653226356],[13.648450544081772,51.029856745217984],[13.648469500925872,51.02987818791187],[13.648437370030054,51.02988948013962],[13.648427070591412,51.02991507191754],[13.648519815866136,51.029931576636166]]]}},{"type":"Feature","id":"UUID_a3267a7c-4198-4f7c-9bef-e7dee348362e","properties":{"id":"UUID_a3267a7c-4198-4f7c-9bef-e7dee348362e","height_m":4.81,"ground_m":282.835,"height_source":"LoD1 solid top minus bottom","production":"2023","laser":"2016","footprints":"2024"},"geometry":{"type":"Polygon","coordinates":[[[13.648674389169955,51.02980617676874],[13.648599334884448,51.02972127837388],[13.648394460636762,51.02979330753319],[13.648450544081772,51.029856745217984],[13.648450989420413,51.029855653226356],[13.648519815866136,51.029931576636166],[13.648692602745902,51.02987083106504],[13.648722313136538,51.029860383093336],[13.648674389169955,51.02980617676874]]]}}]}