{"type":"FeatureCollection","features":[{"type":"Feature","id":"DESNATPU1000C748","properties":{"id":"DESNATPU1000C748","height_m":10.571,"ground_m":205.429,"height_source":"LoD1 solid top minus bottom","production":"2023","laser":"2019","footprints":"2021"},"geometry":{"type":"Polygon","coordinates":[[[13.712960312924478,51.12597161145034],[13.712806781334216,51.12601452568269],[13.713156721602884,51.12650956318619],[13.713310116658697,51.12646646713461],[13.713207130979264,51.12632063997267],[13.712960312924478,51.12597161145034]]]}},{"type":"Feature","id":"DESNATPU1000ItoP","properties":{"id":"DESNATPU1000ItoP","height_m":6.563,"ground_m":205.082,"height_source":"LoD1 solid top minus bottom","production":"2023","laser":"2019","footprints":"2021"},"geometry":{"type":"Polygon","coordinates":[[[13.7133020174808,51.126675640088926],[13.713390018913838,51.126800169243744],[13.713516474069282,51.12676487000318],[13.713428472359784,51.126640340940845],[13.7133020174808,51.126675640088926]]]}},{"type":"Feature","id":"DESNATPU1000B5en","properties":{"id":"DESNATPU1000B5en","height_m":6.899,"ground_m":205.204,"height_source":"LoD1 solid top minus bottom","production":"2023","laser":"2019","footprints":"2021"},"geometry":{"type":"Polygon","coordinates":[[[13.71264932607869,51.12869659845676],[13.712811199091806,51.12866240930578],[13.712702934647325,51.128459599351594],[13.712541059768904,51.12849387825866],[13.71264932607869,51.12869659845676]]]}},{"type":"Feature","id":"DESNATP1bN0000LX","properties":{"id":"DESNATP1bN0000LX","height_m":5.412,"ground_m":202.06,"height_source":"LoD1 solid top minus bottom","production":"2023","laser":"2019","footprints":"2021"},"geometry":{"type":"Polygon","coordinates":[[[13.713466210599845,51.12508409615505],[13.713356069903483,51.124924827078274],[13.713116555553208,51.1249904196229],[13.713226805864831,51.12514983401703],[13.713466210599845,51.12508409615505]]]}},{"type":"Feature","id":"UUID_733c393a-a618-4fe3-993e-34ba3db602bc","properties":{"id":"UUID_733c393a-a618-4fe3-993e-34ba3db602bc","height_m":3.923,"ground_m":213.067,"height_source":"LoD1 solid top minus bottom","production":"2023","laser":"2019","footprints":"2021"},"geometry":{"type":"Polygon","coordinates":[[[13.712831088508295,51.12766527479981],[13.712859485548012,51.1277069002241],[13.713095216755532,51.12764322697141],[13.713066833827673,51.12760160175993],[13.712831088508295,51.12766527479981]]]}},{"type":"Feature","id":"UUID_0cc164da-99b8-44f3-aac7-28abf2171227","properties":{"id":"UUID_0cc164da-99b8-44f3-aac7-28abf2171227","height_m":9.538,"ground_m":204.509,"height_source":"LoD1 solid top minus bottom","production":"2023","laser":"2019","footprints":"2021"},"geometry":{"type":"Polygon","coordinates":[[[13.712100671170393,51.12743026346028],[13.712311621008869,51.127728359291325],[13.712296121849707,51.12773273895968],[13.712375836296886,51.12784535209155],[13.712846343232725,51.12771389582929],[13.71286024553572,51.127728913927875],[13.712878504671151,51.12774194761288],[13.712900489977509,51.127752549294215],[13.712925242692767,51.127760249784906],[13.712951926886193,51.127764788084534],[13.712979660765901,51.127766010601945],[13.713006802586593,51.127763854303176],[13.713033022745105,51.12775835153218],[13.71305728733496,51.12774967975913],[13.713078473731837,51.127738123391936],[13.713095595186136,51.12772422013238],[13.713108051695698,51.12770847596761],[13.713115369093881,51.127691497189936],[13.713117242908984,51.127673954908175],[13.713113626333076,51.12765650508055],[13.713104642750732,51.127639850501424],[13.713665141049557,51.127484066626494],[13.71358598373736,51.127371370578125],[13.713570484316252,51.12737576839745],[13.713400444761259,51.12713367340244],[13.71342563798092,51.12712654054421],[13.71338648789024,51.1270707322266],[13.713165941211217,51.127131686481206],[13.713174119968242,51.12714335919143],[13.712301747600511,51.127387603945884],[13.7122935113755,51.12737594852713],[13.712100671170393,51.12743026346028]]]}},{"type":"Feature","id":"UUID_6daf0874-96b1-49a6-82ed-af82ad9ac368","properties":{"id":"UUID_6daf0874-96b1-49a6-82ed-af82ad9ac368","height_m":33.855,"ground_m":213.067,"height_source":"LoD1 solid top minus bottom","production":"2023","laser":"2019","footprints":"2021"},"geometry":{"type":"Polygon","coordinates":[[[13.713073720112815,51.12732145345221],[13.713075366406418,51.1273280363021],[13.713080506613938,51.12733385724689],[13.71308848800045,51.12733823464373],[13.713098382633948,51.127340618712836],[13.713108954814075,51.1273407350637],[13.713118975880564,51.127338570174466],[13.713127195640645,51.12733437107737],[13.713132656178086,51.12732866679776],[13.713134667277734,51.12732212419881],[13.713133020975881,51.12731554134971],[13.713127880763707,51.12730972040718],[13.71311989937829,51.127305343013],[13.713110004751156,51.12730295894576],[13.713099432579648,51.12730284259504],[13.713089411520038,51.127305007482676],[13.71308119176184,51.127309206577145],[13.713075731220442,51.12731491085434],[13.713073720112815,51.12732145345221]]]}},{"type":"Feature","id":"UUID_60d3b9ee-0f55-4634-820f-ec94435b0eeb","properties":{"id":"UUID_60d3b9ee-0f55-4634-820f-ec94435b0eeb","height_m":33.855,"ground_m":213.067,"height_source":"LoD1 solid top minus bottom","production":"2023","laser":"2019","footprints":"2021"},"geometry":{"type":"Polygon","coordinates":[[[13.712449865692724,51.127495862391655],[13.712451526439992,51.127502436416826],[13.712456652050777,51.12750826622116],[13.712464647944076,51.12751263482753],[13.712474528044833,51.127515027782096],[13.712485114548967,51.12751514434696],[13.712495121644762,51.12751297036439],[13.71250335552867,51.12750878045924],[13.712508802126607,51.1275030670623],[13.71251082735903,51.1274965336223],[13.712509166853506,51.12748995060789],[13.712504041238054,51.1274841208058],[13.712496045345866,51.1274797522021],[13.712486165001469,51.12747736823941],[13.712475578505964,51.12747725167472],[13.712465571667028,51.12747941666564],[13.712457337785018,51.12748360656817],[13.712451891183106,51.127489319962706],[13.712449865692724,51.127495862391655]]]}},{"type":"Feature","id":"DESNATPU1000J0qJ","properties":{"id":"DESNATPU1000J0qJ","height_m":3.683,"ground_m":205.095,"height_source":"LoD1 solid top minus bottom","production":"2023","laser":"2019","footprints":"2021"},"geometry":{"type":"Polygon","coordinates":[[[13.712915004967416,51.12873774237264],[13.712833925523473,51.12875483547469],[13.712861228137402,51.12880603514582],[13.712942453032486,51.12878885369781],[13.712915004967416,51.12873774237264]]]}},{"type":"Feature","id":"UUID_52b73fd1-94fc-4e16-8a5d-81d874735a7f","properties":{"id":"UUID_52b73fd1-94fc-4e16-8a5d-81d874735a7f","height_m":13.585,"ground_m":205.441,"height_source":"LoD1 solid top minus bottom","production":"2023","laser":"2019","footprints":"2021"},"geometry":{"type":"Polygon","coordinates":[[[13.71240899685658,51.12659278870222],[13.712891926578276,51.12645763814437],[13.712585991007439,51.12602477483372],[13.712586019830038,51.12602476615828],[13.712559936270832,51.125987869349586],[13.712559864339363,51.12598788654319],[13.712293950126302,51.125611488102756],[13.711810025036728,51.12574671514417],[13.71240899685658,51.12659278870222]]]}},{"type":"Feature","id":"UUID_4aa3878d-831e-426d-aa4c-000b71e4c1e5","properties":{"id":"UUID_4aa3878d-831e-426d-aa4c-000b71e4c1e5","height_m":3.15,"ground_m":205.441,"height_source":"LoD1 solid top minus bottom","production":"2023","laser":"2019","footprints":"2021"},"geometry":{"type":"Polygon","coordinates":[[[13.712586019830038,51.12602476615828],[13.712625167235736,51.12601378531745],[13.712599040542333,51.12597689703541],[13.712559936270832,51.125987869349586],[13.712586019830038,51.12602476615828]]]}},{"type":"Feature","id":"DESNATPU1000JYhX","properties":{"id":"DESNATPU1000JYhX","height_m":5.804,"ground_m":204.542,"height_source":"LoD1 solid top minus bottom","production":"2023","laser":"2019","footprints":"2021"},"geometry":{"type":"Polygon","coordinates":[[[13.713440170640704,51.12697023501237],[13.713517596901468,51.12707935997689],[13.713640601456131,51.12704483198846],[13.713563174960255,51.12693570710309],[13.713440170640704,51.12697023501237]]]}},{"type":"Feature","id":"DESNATPU1000HWMR","properties":{"id":"DESNATPU1000HWMR","height_m":4.316,"ground_m":204.525,"height_source":"LoD1 solid top minus bottom","production":"2023","laser":"2019","footprints":"2021"},"geometry":{"type":"Polygon","coordinates":[[[13.712549632556897,51.1269829154035],[13.712111330067486,51.12710614604696],[13.71221364465272,51.127250348070305],[13.712955996159131,51.12704206494389],[13.712853679698622,51.12689786355182],[13.712549632556897,51.1269829154035]]]}},{"type":"Feature","id":"DESNATP17K0001Yz","properties":{"id":"DESNATP17K0001Yz","height_m":3.691,"ground_m":205.179,"height_source":"LoD1 solid top minus bottom","production":"2023","laser":"2019","footprints":"2021"},"geometry":{"type":"Polygon","coordinates":[[[13.712815438239343,51.12882144833415],[13.712785945603034,51.1287719151874],[13.712699170246301,51.128792371745185],[13.712728662802007,51.128841904913074],[13.712815438239343,51.12882144833415]]]}},{"type":"Feature","id":"DESNATPU1000I15p","properties":{"id":"DESNATPU1000I15p","height_m":6.067,"ground_m":202.194,"height_source":"LoD1 solid top minus bottom","production":"2023","laser":"2019","footprints":"2021"},"geometry":{"type":"Polygon","coordinates":[[[13.713564761973261,51.12528401990199],[13.713667267496566,51.125426514165575],[13.71423394005568,51.12526503116344],[13.71413157349205,51.125122628854236],[13.713564761973261,51.12528401990199]]]}},{"type":"Feature","id":"DESNATP1bN0000LV","properties":{"id":"DESNATP1bN0000LV","height_m":6.714,"ground_m":202.177,"height_source":"LoD1 solid top minus bottom","production":"2023","laser":"2019","footprints":"2021"},"geometry":{"type":"Polygon","coordinates":[[[13.713979243591076,51.12489447031604],[13.713887356018068,51.124762263939836],[13.713429673566575,51.12488852371979],[13.713521747037387,51.1250206875384],[13.713979243591076,51.12489447031604]]]}},{"type":"Feature","id":"DESNATPU1000Dfgd","properties":{"id":"DESNATPU1000Dfgd","height_m":2.88,"ground_m":202.093,"height_source":"LoD1 solid top minus bottom","production":"2023","laser":"2019","footprints":"2021"},"geometry":{"type":"Polygon","coordinates":[[[13.713837326262269,51.12592550594148],[13.713871425348561,51.12597381253944],[13.713968210892908,51.12594672962262],[13.713934109227631,51.12589851295245],[13.713837326262269,51.12592550594148]]]}},{"type":"Feature","id":"DESNATP1bN0000Lb","properties":{"id":"DESNATP1bN0000Lb","height_m":3.591,"ground_m":202.143,"height_source":"LoD1 solid top minus bottom","production":"2023","laser":"2019","footprints":"2021"},"geometry":{"type":"Polygon","coordinates":[[[13.713181930037768,51.12517671421176],[13.713222144246187,51.12516536721585],[13.713132197174035,51.125038469358216],[13.713091941446082,51.125049770902216],[13.713181930037768,51.12517671421176]]]}},{"type":"Feature","id":"UUID_a9116fde-5fcb-4c72-9c29-f33e15be2bb2","properties":{"id":"UUID_a9116fde-5fcb-4c72-9c29-f33e15be2bb2","height_m":13.578,"ground_m":204.498,"height_source":"LoD1 solid top minus bottom","production":"2023","laser":"2019","footprints":"2021"},"geometry":{"type":"Polygon","coordinates":[[[13.713671930567457,51.12794750338409],[13.713799680728298,51.12791199325874],[13.713781232193279,51.127885702276195],[13.713781149968236,51.127885575472824],[13.713653302855612,51.127920976597956],[13.713671930567457,51.12794750338409]]]}},{"type":"Feature","id":"UUID_4470aae4-6d81-4814-b38e-2b156d7cf6c3","properties":{"id":"UUID_4470aae4-6d81-4814-b38e-2b156d7cf6c3","height_m":16.029,"ground_m":204.498,"height_source":"LoD1 solid top minus bottom","production":"2023","laser":"2019","footprints":"2021"},"geometry":{"type":"Polygon","coordinates":[[[13.713919999971726,51.12784712976362],[13.713665141049557,51.127484066626494],[13.713341389710973,51.127574056643596],[13.713596040253334,51.12793683042761],[13.713653261493471,51.12792092218625],[13.713653302855612,51.127920976597956],[13.713781149968236,51.127885575472824],[13.713781232193279,51.127885702276195],[13.713919999971726,51.12784712976362]]]}},{"type":"Feature","id":"DESNATPU1000H8sW","properties":{"id":"DESNATPU1000H8sW","height_m":5.914,"ground_m":204.399,"height_source":"LoD1 solid top minus bottom","production":"2023","laser":"2019","footprints":"2021"},"geometry":{"type":"Polygon","coordinates":[[[13.712920488428994,51.126869642170874],[13.71301537305838,51.12700872575026],[13.713094854909185,51.126987298411294],[13.712999970082622,51.126848214894515],[13.712920488428994,51.126869642170874]]]}},{"type":"Feature","id":"DESNATP1bN0000LZ","properties":{"id":"DESNATP1bN0000LZ","height_m":4.481,"ground_m":202.75,"height_source":"LoD1 solid top minus bottom","production":"2023","laser":"2019","footprints":"2021"},"geometry":{"type":"Polygon","coordinates":[[[13.713574123818375,51.125203718402794],[13.713527051626476,51.12513734635836],[13.713430946969016,51.12516414863054],[13.713478286238361,51.12523067652963],[13.713574123818375,51.125203718402794]]]}},{"type":"Feature","id":"DESNATPU1000BlmI","properties":{"id":"DESNATPU1000BlmI","height_m":3.064,"ground_m":205.391,"height_source":"LoD1 solid top minus bottom","production":"2023","laser":"2019","footprints":"2021"},"geometry":{"type":"Polygon","coordinates":[[[13.712588690908268,51.12553652329389],[13.712559283302737,51.12549429313265],[13.71243788107857,51.125527848416574],[13.712467288593583,51.125570078607474],[13.712588690908268,51.12553652329389]]]}}]}