{"type":"FeatureCollection","features":[{"type":"Feature","id":"DESNATPU1000CzJL","properties":{"id":"DESNATPU1000CzJL","height_m":3.481,"ground_m":190.12,"height_source":"LoD1 solid top minus bottom","production":"2023","laser":"2019","footprints":"2021"},"geometry":{"type":"Polygon","coordinates":[[[13.72136425611097,51.138721041776535],[13.721208261728654,51.13877940770398],[13.721247146903295,51.13882066003954],[13.72140328924764,51.13876211582279],[13.72136425611097,51.138721041776535]]]}},{"type":"Feature","id":"DESNATPU1000DBA4","properties":{"id":"DESNATPU1000DBA4","height_m":2.785,"ground_m":186.53,"height_source":"LoD1 solid top minus bottom","production":"2023","laser":"2019","footprints":"2021"},"geometry":{"type":"Polygon","coordinates":[[[13.72137073828311,51.13979806748328],[13.72135859761995,51.1397356149266],[13.721287828179078,51.1397411360629],[13.7212998258417,51.139803587063625],[13.72137073828311,51.13979806748328]]]}},{"type":"Feature","id":"DESNATPU1000Io2y","properties":{"id":"DESNATPU1000Io2y","height_m":3.093,"ground_m":187.703,"height_source":"LoD1 solid top minus bottom","production":"2023","laser":"2019","footprints":"2021"},"geometry":{"type":"Polygon","coordinates":[[[13.721385743135244,51.139405517776375],[13.721488974432773,51.139374164567116],[13.72145468570102,51.13932950035884],[13.721351454480974,51.139360853538626],[13.721385743135244,51.139405517776375]]]}},{"type":"Feature","id":"DESNATP1bN0000RO","properties":{"id":"DESNATP1bN0000RO","height_m":2.453,"ground_m":194.758,"height_source":"LoD1 solid top minus bottom","production":"2023","laser":"2019","footprints":"2021"},"geometry":{"type":"Polygon","coordinates":[[[13.722154799315115,51.13874506032745],[13.722024778601384,51.138805518696216],[13.722058841854617,51.13883920011765],[13.722193784592367,51.13878271633548],[13.722154799315115,51.13874506032745]]]}},{"type":"Feature","id":"DESNATPU1000EjrN","properties":{"id":"DESNATPU1000EjrN","height_m":2.645,"ground_m":194.78,"height_source":"LoD1 solid top minus bottom","production":"2023","laser":"2019","footprints":"2021"},"geometry":{"type":"Polygon","coordinates":[[[13.722250331474628,51.138836661250956],[13.722333350672919,51.13880159726728],[13.722293500401719,51.13876420163842],[13.722210476277318,51.13879944539523],[13.722250331474628,51.138836661250956]]]}},{"type":"Feature","id":"DESNATPU1000JIND","properties":{"id":"DESNATPU1000JIND","height_m":3.165,"ground_m":185.445,"height_source":"LoD1 solid top minus bottom","production":"2023","laser":"2019","footprints":"2021"},"geometry":{"type":"Polygon","coordinates":[[[13.721148536808052,51.13978723857169],[13.72112535294111,51.13972610406725],[13.721055880879685,51.139736405413004],[13.721079062175232,51.13979762983092],[13.721148536808052,51.13978723857169]]]}},{"type":"Feature","id":"DESNATP1bN0000RQ","properties":{"id":"DESNATP1bN0000RQ","height_m":2.577,"ground_m":194.841,"height_source":"LoD1 solid top minus bottom","production":"2023","laser":"2019","footprints":"2021"},"geometry":{"type":"Polygon","coordinates":[[[13.722210476277318,51.13879944539523],[13.722072673071898,51.13885184220405],[13.722119840035624,51.13888983044705],[13.722250331474628,51.138836661250956],[13.722210476277318,51.13879944539523]]]}},{"type":"Feature","id":"DESNATPU1000IwXT","properties":{"id":"DESNATPU1000IwXT","height_m":3.091,"ground_m":192.207,"height_source":"LoD1 solid top minus bottom","production":"2023","laser":"2019","footprints":"2021"},"geometry":{"type":"Polygon","coordinates":[[[13.722548908066155,51.139065929175636],[13.722520632443635,51.13904213121577],[13.722467133515723,51.139067284064765],[13.722423989405632,51.139087577017285],[13.722414964274764,51.1390799964454],[13.72238051002416,51.139096193690605],[13.722649157808004,51.13932227466728],[13.7227267708777,51.139285775463165],[13.722763672988787,51.139268417807216],[13.722532325456042,51.1390737246095],[13.722548908066155,51.139065929175636]]]}},{"type":"Feature","id":"DESNATP17K0001b3","properties":{"id":"DESNATP17K0001b3","height_m":2.528,"ground_m":194.769,"height_source":"LoD1 solid top minus bottom","production":"2023","laser":"2019","footprints":"2021"},"geometry":{"type":"Polygon","coordinates":[[[13.722092856032337,51.13869501320902],[13.72200109537131,51.13874432494451],[13.722038719117824,51.13877899851496],[13.72212981575436,51.13873354638063],[13.722092856032337,51.13869501320902]]]}},{"type":"Feature","id":"DESNATPU1000CBTx","properties":{"id":"DESNATPU1000CBTx","height_m":2.437,"ground_m":183.841,"height_source":"LoD1 solid top minus bottom","production":"2023","laser":"2019","footprints":"2021"},"geometry":{"type":"Polygon","coordinates":[[[13.720805477412018,51.13980206557795],[13.720736445132307,51.139827479379555],[13.720794896608368,51.13989007887391],[13.720863783559492,51.13986475337582],[13.720805477412018,51.13980206557795]]]}},{"type":"Feature","id":"DESNATPU1000GJhx","properties":{"id":"DESNATPU1000GJhx","height_m":4.17,"ground_m":185.516,"height_source":"LoD1 solid top minus bottom","production":"2023","laser":"2019","footprints":"2021"},"geometry":{"type":"Polygon","coordinates":[[[13.720504726052967,51.13897269156258],[13.720620720700248,51.13912496703618],[13.720754144215109,51.139084754175755],[13.720639721416566,51.13893455537282],[13.720504726052967,51.13897269156258]]]}},{"type":"Feature","id":"DESNATPU1000BPXG","properties":{"id":"DESNATPU1000BPXG","height_m":4.901,"ground_m":185.68,"height_source":"LoD1 solid top minus bottom","production":"2023","laser":"2019","footprints":"2021"},"geometry":{"type":"Polygon","coordinates":[[[13.720818391193736,51.13901831700813],[13.720839368966706,51.13905580347304],[13.720910685477413,51.13915044995116],[13.720984007158936,51.139128581144696],[13.721065400212893,51.13910430956912],[13.720918368863359,51.13890915932628],[13.720841415522816,51.13893210346959],[13.720763049476004,51.138955472754276],[13.720790268456078,51.13899160664422],[13.720818391193736,51.13901831700813]]]}},{"type":"Feature","id":"DESNATPU1000GheZ","properties":{"id":"DESNATPU1000GheZ","height_m":2.549,"ground_m":194.699,"height_source":"LoD1 solid top minus bottom","production":"2023","laser":"2019","footprints":"2021"},"geometry":{"type":"Polygon","coordinates":[[[13.722178377843564,51.13866249465503],[13.722092856032337,51.13869501320902],[13.72212981575436,51.13873354638063],[13.722215480514665,51.13870102936158],[13.722178377843564,51.13866249465503]]]}},{"type":"Feature","id":"DESNATPU1000DTkM","properties":{"id":"DESNATPU1000DTkM","height_m":2.912,"ground_m":194.667,"height_source":"LoD1 solid top minus bottom","production":"2023","laser":"2019","footprints":"2021"},"geometry":{"type":"Polygon","coordinates":[[[13.721980171534845,51.13873281036763],[13.722180475969251,51.138643452931106],[13.722139179555779,51.138606670939176],[13.721938732300542,51.138696026744284],[13.721980171534845,51.13873281036763]]]}},{"type":"Feature","id":"DESNATPU1000Jf4c","properties":{"id":"DESNATPU1000Jf4c","height_m":2.629,"ground_m":194.751,"height_source":"LoD1 solid top minus bottom","production":"2023","laser":"2019","footprints":"2021"},"geometry":{"type":"Polygon","coordinates":[[[13.722193784592367,51.13878271633548],[13.72227749591349,51.138748469302264],[13.722238655980815,51.13871072498257],[13.722154799315115,51.13874506032745],[13.722193784592367,51.13878271633548]]]}},{"type":"Feature","id":"DESNATPU1000EiZ2","properties":{"id":"DESNATPU1000EiZ2","height_m":2.626,"ground_m":194.771,"height_source":"LoD1 solid top minus bottom","production":"2023","laser":"2019","footprints":"2021"},"geometry":{"type":"Polygon","coordinates":[[[13.722358988867795,51.13880493491156],[13.72227722106591,51.1388412715723],[13.722318660699372,51.138878055077626],[13.722400145209765,51.13884162536548],[13.722358988867795,51.13880493491156]]]}},{"type":"Feature","id":"DESNATPU1000BpEE","properties":{"id":"DESNATPU1000BpEE","height_m":3.914,"ground_m":188.524,"height_source":"LoD1 solid top minus bottom","production":"2023","laser":"2019","footprints":"2021"},"geometry":{"type":"Polygon","coordinates":[[[13.721501037867856,51.13951341442765],[13.721539513005542,51.13955660461076],[13.721637442925598,51.1395220818201],[13.721598967724063,51.13947889166852],[13.721501037867856,51.13951341442765]]]}}]}