{"type":"FeatureCollection","features":[{"type":"Feature","id":"DESNATP130000rnD","properties":{"id":"DESNATP130000rnD","height_m":3.301,"ground_m":192.86,"height_source":"LoD1 solid top minus bottom","production":"2024","laser":"2016","footprints":"2022"},"geometry":{"type":"Polygon","coordinates":[[[13.774303073084326,50.9917153726428],[13.774402905090058,50.991764010734066],[13.774470724542438,50.99170857035682],[13.774370892582759,50.9916599323234],[13.774303073084326,50.9917153726428]]]}}]}