{"type":"FeatureCollection","features":[{"type":"Feature","id":"DESNATP16D0002Ac","properties":{"id":"DESNATP16D0002Ac","height_m":3.583,"ground_m":218.67,"height_source":"LoD1 solid top minus bottom","production":"2023","laser":"2019","footprints":"2021"},"geometry":{"type":"Polygon","coordinates":[[[13.761437323847803,51.14037335479787],[13.761524023506562,51.14041234819848],[13.761687081857078,51.14026884233208],[13.761600367794026,51.140229857891185],[13.761437323847803,51.14037335479787]]]}},{"type":"Feature","id":"DESNATPU1000FIZW","properties":{"id":"DESNATPU1000FIZW","height_m":3.703,"ground_m":218.463,"height_source":"LoD1 solid top minus bottom","production":"2023","laser":"2019","footprints":"2021"},"geometry":{"type":"Polygon","coordinates":[[[13.761721485717867,51.14043195700955],[13.761662085408165,51.14040273116521],[13.761549016584295,51.140493349585945],[13.761608416936907,51.14052257548758],[13.761721485717867,51.14043195700955]]]}}]}