{"type":"FeatureCollection","features":[{"type":"Feature","id":"DESNATPU1000EH53","properties":{"id":"DESNATPU1000EH53","height_m":7.311,"ground_m":169.0,"height_source":"LoD1 solid top minus bottom","production":"2024","laser":"2016","footprints":"2022"},"geometry":{"type":"Polygon","coordinates":[[[13.772673833087707,51.09456962934295],[13.77245200404704,51.09439718370754],[13.772181770121877,51.094535100968116],[13.772403827231452,51.09470754950865],[13.772673833087707,51.09456962934295]]]}},{"type":"Feature","id":"UUID_0ca148b6-a050-4638-a983-34fe75aaf228","properties":{"id":"UUID_0ca148b6-a050-4638-a983-34fe75aaf228","height_m":14.456,"ground_m":168.955,"height_source":"LoD1 solid top minus bottom","production":"2024","laser":"2016","footprints":"2022"},"geometry":{"type":"Polygon","coordinates":[[[13.772701139948008,51.095227099910645],[13.772722313761006,51.09521758300639],[13.772722429406372,51.095217530263696],[13.772666514733086,51.09517399371108],[13.772647535309627,51.09518531421509],[13.772701139948008,51.095227099910645]]]}},{"type":"Feature","id":"UUID_9db905a6-9938-4726-af75-be0a29162f11","properties":{"id":"UUID_9db905a6-9938-4726-af75-be0a29162f11","height_m":16.354,"ground_m":168.955,"height_source":"LoD1 solid top minus bottom","production":"2024","laser":"2016","footprints":"2022"},"geometry":{"type":"Polygon","coordinates":[[[13.77261503305961,51.09478126878474],[13.772341355604642,51.094920804931526],[13.77266673246067,51.09517386110509],[13.772666514733086,51.09517399371108],[13.772722429406372,51.095217530263696],[13.772722313761006,51.09521758300639],[13.772885878060045,51.0953448033107],[13.77315994761687,51.09520505418339],[13.77261503305961,51.09478126878474]]]}},{"type":"Feature","id":"DESNATPU1000Hfig","properties":{"id":"DESNATPU1000Hfig","height_m":4.881,"ground_m":169.063,"height_source":"LoD1 solid top minus bottom","production":"2024","laser":"2016","footprints":"2022"},"geometry":{"type":"Polygon","coordinates":[[[13.773138310836915,51.09458778705134],[13.77318073189554,51.09455569632483],[13.773150384297525,51.09454007212646],[13.773107984885678,51.09457188429281],[13.773138310836915,51.09458778705134]]]}},{"type":"Feature","id":"UUID_088ae21e-f249-4177-8cc8-0d839b62d4e5","properties":{"id":"UUID_088ae21e-f249-4177-8cc8-0d839b62d4e5","height_m":2.893,"ground_m":168.879,"height_source":"LoD1 solid top minus bottom","production":"2024","laser":"2016","footprints":"2022"},"geometry":{"type":"Polygon","coordinates":[[[13.773524622123855,51.095017523088174],[13.77297919335834,51.0945942375798],[13.772669404962924,51.094752523131035],[13.773214818434987,51.09517580991708],[13.773524622123855,51.095017523088174]]]}},{"type":"Feature","id":"UUID_132f5318-5b40-4b8f-b32a-e0ae68dbdf11","properties":{"id":"UUID_132f5318-5b40-4b8f-b32a-e0ae68dbdf11","height_m":5.087,"ground_m":168.879,"height_source":"LoD1 solid top minus bottom","production":"2024","laser":"2016","footprints":"2022"},"geometry":{"type":"Polygon","coordinates":[[[13.773373240503926,51.09488754481489],[13.773403292683975,51.09491056691725],[13.773525418654279,51.09500415017849],[13.773535494314814,51.0950119627008],[13.773589941368806,51.094984143666466],[13.773458680549986,51.09488227220442],[13.773415467936866,51.09484874335389],[13.773359848559766,51.094877152523445],[13.773373240503926,51.09488754481489]]]}},{"type":"Feature","id":"UUID_a536168c-9b31-40a6-9c6b-5e448a92c40f","properties":{"id":"UUID_a536168c-9b31-40a6-9c6b-5e448a92c40f","height_m":7.169,"ground_m":168.879,"height_source":"LoD1 solid top minus bottom","production":"2024","laser":"2016","footprints":"2022"},"geometry":{"type":"Polygon","coordinates":[[[13.773514546463975,51.095009710564945],[13.773525418654279,51.09500415017849],[13.773373240503926,51.09488754481489],[13.773363526664658,51.09489250583177],[13.773514546463975,51.095009710564945]]]}},{"type":"Feature","id":"DESNATPU1000HIvE","properties":{"id":"DESNATPU1000HIvE","height_m":3.877,"ground_m":213.364,"height_source":"LoD1 solid top minus bottom","production":"2024","laser":"2016","footprints":"2022"},"geometry":{"type":"Polygon","coordinates":[[[13.778054625966293,51.10254572799382],[13.778088758952912,51.10259464570699],[13.778189614045084,51.10256701280289],[13.778155916465193,51.10251782988649],[13.778054625966293,51.10254572799382]]]}},{"type":"Feature","id":"DESNATPU1000HIQG","properties":{"id":"DESNATPU1000HIQG","height_m":24.477,"ground_m":211.484,"height_source":"LoD1 solid top minus bottom","production":"2024","laser":"2016","footprints":"2022"},"geometry":{"type":"Polygon","coordinates":[[[13.776853135504462,51.102814745845286],[13.776937413159395,51.102791275100124],[13.776920997885208,51.10276705670038],[13.777202798098985,51.10268902447742],[13.777219564029886,51.10271294974345],[13.777305779247094,51.10268911230916],[13.7772894628223,51.10266493096619],[13.777301443962905,51.102661782898565],[13.776913985047015,51.10210893716876],[13.776905317728028,51.102111544327],[13.776887514163008,51.102085818594716],[13.776795128247285,51.10211132676374],[13.776813197619614,51.10213726212491],[13.776534462796844,51.10221506469411],[13.77651755531583,51.10219111086627],[13.776431680727043,51.10221505020465],[13.776448042708854,51.10223910624929],[13.776291737431313,51.10228250614032],[13.776678645465356,51.1028343499768],[13.776770562617068,51.10280880102175],[13.776858710917523,51.10293524437632],[13.776925340176737,51.10291696667949],[13.776853135504462,51.102814745845286]]]}},{"type":"Feature","id":"DESNATPU1000HK0z","properties":{"id":"DESNATPU1000HK0z","height_m":14.447,"ground_m":168.892,"height_source":"LoD1 solid top minus bottom","production":"2024","laser":"2016","footprints":"2022"},"geometry":{"type":"Polygon","coordinates":[[[13.772053203039016,51.0935019809545],[13.772040399549878,51.09336858231658],[13.771925754658605,51.09337291759578],[13.771936589311867,51.0934862866079],[13.772015471997719,51.09348317638779],[13.772015519374039,51.09350349159738],[13.772053203039016,51.0935019809545]]]}},{"type":"Feature","id":"DESNATPU1000D3we","properties":{"id":"DESNATPU1000D3we","height_m":3.385,"ground_m":197.125,"height_source":"LoD1 solid top minus bottom","production":"2024","laser":"2016","footprints":"2022"},"geometry":{"type":"Polygon","coordinates":[[[13.773681047753795,51.10312897922555],[13.773745039443666,51.10313432666708],[13.773760943612992,51.10305688583583],[13.773696949648938,51.10305162830645],[13.773681047753795,51.10312897922555]]]}},{"type":"Feature","id":"DESNATPU1000CtTi","properties":{"id":"DESNATPU1000CtTi","height_m":4.209,"ground_m":169.505,"height_source":"LoD1 solid top minus bottom","production":"2024","laser":"2016","footprints":"2022"},"geometry":{"type":"Polygon","coordinates":[[[13.773918482217,51.09470479362692],[13.77364567095711,51.09456073638171],[13.773617947973923,51.094581389762155],[13.77355705769423,51.094627135781465],[13.773830226701381,51.094771170005394],[13.773918482217,51.09470479362692]]]}},{"type":"Feature","id":"DESNATP18o0001bq","properties":{"id":"DESNATP18o0001bq","height_m":3.506,"ground_m":168.966,"height_source":"LoD1 solid top minus bottom","production":"2024","laser":"2016","footprints":"2022"},"geometry":{"type":"Polygon","coordinates":[[[13.77222926289112,51.09513921364512],[13.7722050121521,51.09510529895455],[13.772085352504382,51.09513920397879],[13.772109588657457,51.095173127533855],[13.77222926289112,51.09513921364512]]]}},{"type":"Feature","id":"DESNATP18o0001a8","properties":{"id":"DESNATP18o0001a8","height_m":11.391,"ground_m":213.3,"height_source":"LoD1 solid top minus bottom","production":"2024","laser":"2016","footprints":"2022"},"geometry":{"type":"Polygon","coordinates":[[[13.77829528684801,51.10289627232766],[13.778466358177115,51.10314073875986],[13.778553983445134,51.10326554765376],[13.778817694672078,51.10319208872667],[13.778858462148897,51.10318116566612],[13.778600067945417,51.10281172331232],[13.77829528684801,51.10289627232766]]]}},{"type":"Feature","id":"DESNATPU1000IQrH","properties":{"id":"DESNATPU1000IQrH","height_m":3.624,"ground_m":172.142,"height_source":"LoD1 solid top minus bottom","production":"2024","laser":"2016","footprints":"2022"},"geometry":{"type":"Polygon","coordinates":[[[13.774119787174822,51.09522752405472],[13.774021437818275,51.09528890265469],[13.774151047028335,51.09537123281383],[13.774249396391705,51.095309854105714],[13.774119787174822,51.09522752405472]]]}},{"type":"Feature","id":"UUID_3acadc75-bf7a-47f1-af41-b34588a368c9","properties":{"id":"UUID_3acadc75-bf7a-47f1-af41-b34588a368c9","height_m":21.717,"ground_m":211.459,"height_source":"LoD1 solid top minus bottom","production":"2024","laser":"2016","footprints":"2022"},"geometry":{"type":"Polygon","coordinates":[[[13.777235771253727,51.10201965056092],[13.777219005131576,51.10199628284356],[13.777135129791079,51.102019182459586],[13.777151799528259,51.10204295385568],[13.777235771253727,51.10201965056092]]]}},{"type":"Feature","id":"UUID_27dd9b4e-a81f-4875-b8f2-1358e22ac5e9","properties":{"id":"UUID_27dd9b4e-a81f-4875-b8f2-1358e22ac5e9","height_m":21.717,"ground_m":211.459,"height_source":"LoD1 solid top minus bottom","production":"2024","laser":"2016","footprints":"2022"},"geometry":{"type":"Polygon","coordinates":[[[13.77753595229308,51.102596681487995],[13.777553095796014,51.10262037684192],[13.777639328272114,51.10259641344416],[13.77762264428428,51.10257262398683],[13.77753595229308,51.102596681487995]]]}},{"type":"Feature","id":"UUID_ed5a860c-de88-4d53-9f05-5ca68f0cd3b6","properties":{"id":"UUID_ed5a860c-de88-4d53-9f05-5ca68f0cd3b6","height_m":15.918,"ground_m":211.459,"height_source":"LoD1 solid top minus bottom","production":"2024","laser":"2016","footprints":"2022"},"geometry":{"type":"Polygon","coordinates":[[[13.777065602201215,51.10192001131147],[13.777020722900915,51.101932518426295],[13.777107111929654,51.10205522919677],[13.777107180716568,51.10205532883677],[13.777151799528259,51.10204295385568],[13.777135129791079,51.102019182459586],[13.777065602201215,51.10192001131147]]]}},{"type":"Feature","id":"UUID_8814d389-31f4-4216-948b-54639e4549f4","properties":{"id":"UUID_8814d389-31f4-4216-948b-54639e4549f4","height_m":26.125,"ground_m":211.459,"height_source":"LoD1 solid top minus bottom","production":"2024","laser":"2016","footprints":"2022"},"geometry":{"type":"Polygon","coordinates":[[[13.777151799528259,51.10204295385568],[13.777107180716568,51.10205532883677],[13.777107111929654,51.10205522919677],[13.776913985047015,51.10210893716876],[13.777301443962905,51.102661782898565],[13.777524479316469,51.10260005971237],[13.777535869699303,51.10259656371832],[13.77753595229308,51.102596681487995],[13.77762264428428,51.10257262398683],[13.777622602868735,51.10257256959718],[13.777834259363605,51.10251387432085],[13.777447239584479,51.10196097200502],[13.777235991894422,51.102019949630076],[13.777235771253727,51.10201965056092],[13.777151799528259,51.10204295385568]]]}},{"type":"Feature","id":"DESNATP18o0001aE","properties":{"id":"DESNATP18o0001aE","height_m":10.351,"ground_m":213.351,"height_source":"LoD1 solid top minus bottom","production":"2024","laser":"2016","footprints":"2022"},"geometry":{"type":"Polygon","coordinates":[[[13.777456187215723,51.10294020764752],[13.77740081013087,51.10295536591633],[13.777566692288712,51.103192783038224],[13.777622101010621,51.10317751710811],[13.777645697458967,51.103171019237344],[13.777480576293053,51.10293343932264],[13.777456187215723,51.10294020764752]]]}},{"type":"Feature","id":"DESNATGMkv0001Ub","properties":{"id":"DESNATGMkv0001Ub","height_m":2.88,"ground_m":169.095,"height_source":"LoD1 solid top minus bottom","production":"2024","laser":"2016","footprints":"2022"},"geometry":{"type":"Polygon","coordinates":[[[13.772680199439897,51.09547376803283],[13.77262827213969,51.095379949692315],[13.772564248947445,51.09539399870287],[13.772616176132827,51.09548781707082],[13.772680199439897,51.09547376803283]]]}},{"type":"Feature","id":"DESNATPU1000DWhN","properties":{"id":"DESNATPU1000DWhN","height_m":3.498,"ground_m":168.939,"height_source":"LoD1 solid top minus bottom","production":"2024","laser":"2016","footprints":"2022"},"geometry":{"type":"Polygon","coordinates":[[[13.7722050121521,51.09510529895455],[13.772106152869242,51.09496694978342],[13.771986493271688,51.0950008636995],[13.772085352504382,51.09513920397879],[13.7722050121521,51.09510529895455]]]}},{"type":"Feature","id":"DESNATGMkv0001Ud","properties":{"id":"DESNATGMkv0001Ud","height_m":4.459,"ground_m":169.088,"height_source":"LoD1 solid top minus bottom","production":"2024","laser":"2016","footprints":"2022"},"geometry":{"type":"Polygon","coordinates":[[[13.77229107463302,51.095303018920795],[13.772190199617935,51.09533132996607],[13.77222296360037,51.095371655995436],[13.772320217736127,51.09534417919794],[13.77229107463302,51.095303018920795]]]}},{"type":"Feature","id":"DESNATPU1000ICcq","properties":{"id":"DESNATPU1000ICcq","height_m":6.068,"ground_m":168.767,"height_source":"LoD1 solid top minus bottom","production":"2024","laser":"2016","footprints":"2022"},"geometry":{"type":"Polygon","coordinates":[[[13.773105313815366,51.095782186396114],[13.773049840251613,51.09570467991967],[13.772731085844663,51.09579516484822],[13.772786573255852,51.09587267162173],[13.773105313815366,51.095782186396114]]]}},{"type":"Feature","id":"DESNATPU1000ERC0","properties":{"id":"DESNATPU1000ERC0","height_m":6.052,"ground_m":169.04,"height_source":"LoD1 solid top minus bottom","production":"2024","laser":"2016","footprints":"2022"},"geometry":{"type":"Polygon","coordinates":[[[13.772355082920859,51.09538767473059],[13.772360982288852,51.09538601006517],[13.772331915501072,51.09534520131879],[13.772349872960307,51.095340120120845],[13.772347311926262,51.09533652309071],[13.772320217736127,51.09534417919794],[13.77227708017321,51.09535636105112],[13.77222296360037,51.095371655995436],[13.772210574730304,51.09537515897004],[13.772212791446119,51.09537827576933],[13.772220705341972,51.09537603874422],[13.772344669651968,51.09555007402535],[13.772404170585219,51.09553477261443],[13.7724461575171,51.095523981506936],[13.772451041310148,51.09552237811541],[13.772355082920859,51.09538767473059]]]}},{"type":"Feature","id":"DESNATP18o0001ae","properties":{"id":"DESNATP18o0001ae","height_m":20.632,"ground_m":213.34,"height_source":"LoD1 solid top minus bottom","production":"2024","laser":"2016","footprints":"2022"},"geometry":{"type":"Polygon","coordinates":[[[13.778303228094503,51.103187784045915],[13.777918937624014,51.10264145865208],[13.777615010837895,51.1027261047542],[13.777915213590523,51.103154790080445],[13.777955561457702,51.103213952606744],[13.778121931870741,51.103453037682996],[13.778128342132815,51.10346073953939],[13.778153868885733,51.10349750797372],[13.778155627117902,51.1035012493557],[13.778327380516576,51.10374536337892],[13.778370761540414,51.103807084415116],[13.778666800056929,51.104229537147205],[13.778970868200506,51.10414524948944],[13.778588987677715,51.103598483986815],[13.77846105901627,51.10341601505392],[13.778427733652318,51.1033662246066],[13.778303228094503,51.103187784045915]]]}},{"type":"Feature","id":"DESNATP18o0001aG","properties":{"id":"DESNATP18o0001aG","height_m":19.92,"ground_m":213.352,"height_source":"LoD1 solid top minus bottom","production":"2024","laser":"2016","footprints":"2022"},"geometry":{"type":"Polygon","coordinates":[[[13.777456187215723,51.10294020764752],[13.777429154130456,51.10290101323963],[13.777373763041671,51.102916162356365],[13.77740081013087,51.10295536591633],[13.777456187215723,51.10294020764752]]]}},{"type":"Feature","id":"DESNATPU1000FlJB","properties":{"id":"DESNATPU1000FlJB","height_m":9.033,"ground_m":169.01,"height_source":"LoD1 solid top minus bottom","production":"2024","laser":"2016","footprints":"2022"},"geometry":{"type":"Polygon","coordinates":[[[13.772111430387456,51.095220053255524],[13.772190199617935,51.09533132996607],[13.77229107463302,51.095303018920795],[13.772435373002699,51.095262510908775],[13.77235661757203,51.09515123450884],[13.772111430387456,51.095220053255524]]]}},{"type":"Feature","id":"DESNATPU1000DyPa","properties":{"id":"DESNATPU1000DyPa","height_m":18.637,"ground_m":245.909,"height_source":"LoD1 solid top minus bottom","production":"2024","laser":"2016","footprints":"2022"},"geometry":{"type":"Polygon","coordinates":[[[13.799543266581866,51.08937332353434],[13.799495847287021,51.089313124542706],[13.79937722793393,51.0893501256415],[13.799424359272866,51.089410411651784],[13.799543266581866,51.08937332353434]]]}},{"type":"Feature","id":"DESNATPU1000IykE","properties":{"id":"DESNATPU1000IykE","height_m":3.477,"ground_m":168.98,"height_source":"LoD1 solid top minus bottom","production":"2024","laser":"2016","footprints":"2022"},"geometry":{"type":"Polygon","coordinates":[[[13.77258842177268,51.09572373919347],[13.7724461575171,51.095523981506936],[13.772344669651968,51.09555007402535],[13.772280293896909,51.0955682558606],[13.772424086400134,51.095770143101724],[13.77258842177268,51.09572373919347]]]}},{"type":"Feature","id":"DESNATPU1000ECp2","properties":{"id":"DESNATPU1000ECp2","height_m":4.186,"ground_m":169.552,"height_source":"LoD1 solid top minus bottom","production":"2024","laser":"2016","footprints":"2022"},"geometry":{"type":"Polygon","coordinates":[[[13.77355705769423,51.094627135781465],[13.773617947973923,51.094581389762155],[13.773415142432388,51.094474064461465],[13.773354413429042,51.09452018976542],[13.77355705769423,51.094627135781465]]]}},{"type":"Feature","id":"UUID_3fd1a72c-b725-42a9-a229-2635cb855fcf","properties":{"id":"UUID_3fd1a72c-b725-42a9-a229-2635cb855fcf","height_m":7.296,"ground_m":207.353,"height_source":"LoD1 solid top minus bottom","production":"2024","laser":"2016","footprints":"2022"},"geometry":{"type":"Polygon","coordinates":[[[13.777341786058363,51.10183214486853],[13.777342556995666,51.10183324105653],[13.777350140015008,51.101831126121944],[13.77745151493416,51.1018021503759],[13.777532021733093,51.10177914336948],[13.777497635031754,51.101730141894905],[13.777416788634959,51.10175248885384],[13.777315093872756,51.101780597918456],[13.777309237172451,51.101782245295155],[13.777341786058363,51.10183214486853]]]}},{"type":"Feature","id":"UUID_f3c552dc-5724-4cb9-8bc3-93314ba52b93","properties":{"id":"UUID_f3c552dc-5724-4cb9-8bc3-93314ba52b93","height_m":31.457,"ground_m":207.353,"height_source":"LoD1 solid top minus bottom","production":"2024","laser":"2016","footprints":"2022"},"geometry":{"type":"Polygon","coordinates":[[[13.776905531542264,51.101964352844966],[13.777020722900915,51.101932518426295],[13.777065602201215,51.10192001131147],[13.777130812474255,51.10190186254147],[13.77712569194541,51.10189347268095],[13.777125117125992,51.101892522427235],[13.776899210123617,51.10195546480144],[13.776899692102395,51.10195614430179],[13.776905531542264,51.101964352844966]]]}},{"type":"Feature","id":"UUID_29a76e4e-27c8-4519-8ad0-ee56ab3d59b7","properties":{"id":"UUID_29a76e4e-27c8-4519-8ad0-ee56ab3d59b7","height_m":4.762,"ground_m":207.353,"height_source":"LoD1 solid top minus bottom","production":"2024","laser":"2016","footprints":"2022"},"geometry":{"type":"Polygon","coordinates":[[[13.775988517856629,51.102149449358095],[13.776022916178684,51.1021995844891],[13.77610622833309,51.10217640998976],[13.776071412750936,51.10212638742121],[13.775988517856629,51.102149449358095]]]}},{"type":"Feature","id":"UUID_4e0102e8-4b13-43af-a151-21ec679e8281","properties":{"id":"UUID_4e0102e8-4b13-43af-a151-21ec679e8281","height_m":28.406,"ground_m":207.353,"height_source":"LoD1 solid top minus bottom","production":"2024","laser":"2016","footprints":"2022"},"geometry":{"type":"Polygon","coordinates":[[[13.777125117125992,51.101892522427235],[13.77712569194541,51.10189347268095],[13.777342513920834,51.10183324959883],[13.777226429423852,51.10165534552121],[13.777216545268734,51.10164019723248],[13.777063779833675,51.1016827089176],[13.77597369446268,51.101986030347796],[13.776072103380834,51.102126196810204],[13.776071412750936,51.10212638742121],[13.77610622833309,51.10217640998976],[13.776252434569802,51.10213573736226],[13.776252393156255,51.10213568297214],[13.776462718516933,51.1020770841561],[13.776462951533341,51.10207745529842],[13.776899692102395,51.10195614430179],[13.776899210123617,51.10195546480144],[13.777125117125992,51.101892522427235]]]}},{"type":"Feature","id":"UUID_c3962f1e-700d-4924-aa05-ec782d8a871f","properties":{"id":"UUID_c3962f1e-700d-4924-aa05-ec782d8a871f","height_m":31.474,"ground_m":207.353,"height_source":"LoD1 solid top minus bottom","production":"2024","laser":"2016","footprints":"2022"},"geometry":{"type":"Polygon","coordinates":[[[13.776252393156255,51.10213568297214],[13.776252434569802,51.10213573736226],[13.776258204656552,51.10214386427698],[13.776468216653187,51.102085774759104],[13.776462951533341,51.10207745529842],[13.776462718516933,51.1020770841561],[13.776252393156255,51.10213568297214]]]}},{"type":"Feature","id":"UUID_346044e4-7865-4774-b739-fc9aa24ebba7","properties":{"id":"UUID_346044e4-7865-4774-b739-fc9aa24ebba7","height_m":6.918,"ground_m":207.353,"height_source":"LoD1 solid top minus bottom","production":"2024","laser":"2016","footprints":"2022"},"geometry":{"type":"Polygon","coordinates":[[[13.777294533035292,51.10175110241729],[13.777377965345137,51.10172764949567],[13.777336615717564,51.101669177708146],[13.777328023578562,51.10165702854182],[13.77727730071784,51.10165445670976],[13.777275728824053,51.10165448523402],[13.777226429423852,51.10165534552121],[13.777289784374679,51.101752437641366],[13.777309237172451,51.101782245295155],[13.777315093872756,51.101780597918456],[13.777294533035292,51.10175110241729]]]}},{"type":"Feature","id":"DESNATPU1000HwRI","properties":{"id":"DESNATPU1000HwRI","height_m":4.337,"ground_m":163.075,"height_source":"LoD1 solid top minus bottom","production":"2024","laser":"2016","footprints":"2022"},"geometry":{"type":"Polygon","coordinates":[[[13.777928561715349,51.08533629382],[13.777948879416288,51.085488538457284],[13.778023515293516,51.085484588466635],[13.77809461974933,51.08548081734242],[13.778076699719545,51.0853464754761],[13.778074315846546,51.08532857287623],[13.777928561715349,51.08533629382]]]}},{"type":"Feature","id":"UUID_460e8f1d-2ed3-4d5d-ab2f-0685f74d59fb","properties":{"id":"UUID_460e8f1d-2ed3-4d5d-ab2f-0685f74d59fb","height_m":23.112,"ground_m":213.355,"height_source":"LoD1 solid top minus bottom","production":"2024","laser":"2016","footprints":"2022"},"geometry":{"type":"Polygon","coordinates":[[[13.776083243811053,51.103739526965505],[13.776130596674301,51.10372646157044],[13.77579119949759,51.10325933981175],[13.775754825312754,51.10326992111988],[13.77581057719178,51.10334821145225],[13.775837221436491,51.10338694353281],[13.775933231519865,51.1035239284902],[13.776001781252333,51.10362172314709],[13.77603049718864,51.10366206859028],[13.776041254913753,51.10367875489063],[13.776074558554992,51.10372711594617],[13.776083243811053,51.103739526965505]]]}},{"type":"Feature","id":"UUID_8b3ea776-256b-4536-a78e-bb8deb477601","properties":{"id":"UUID_8b3ea776-256b-4536-a78e-bb8deb477601","height_m":23.641,"ground_m":213.355,"height_source":"LoD1 solid top minus bottom","production":"2024","laser":"2016","footprints":"2022"},"geometry":{"type":"Polygon","coordinates":[[[13.776665032762136,51.103606506804006],[13.777147686214917,51.10347253682494],[13.777221155225007,51.10345219921161],[13.777286755054833,51.103433982483686],[13.777660767265969,51.10333020496201],[13.777640574014265,51.103301360855156],[13.777600373304864,51.1032420468813],[13.77759212220258,51.103231034393744],[13.777566692288712,51.103192783038224],[13.77740081013087,51.10295536591633],[13.777373763041671,51.102916162356365],[13.777299321611624,51.10281314503193],[13.776925340176737,51.10291696667949],[13.776858710917523,51.10293524437632],[13.775791752617023,51.10323407591237],[13.7758068459207,51.103254791432384],[13.776164320066385,51.10374541163761],[13.776585043742836,51.10362870029546],[13.776665032762136,51.103606506804006]]]}},{"type":"Feature","id":"UUID_b5814f3d-414d-47e8-8b14-05024f02ebf9","properties":{"id":"UUID_b5814f3d-414d-47e8-8b14-05024f02ebf9","height_m":24.066,"ground_m":213.355,"height_source":"LoD1 solid top minus bottom","production":"2024","laser":"2016","footprints":"2022"},"geometry":{"type":"Polygon","coordinates":[[[13.776164320066385,51.10374541163761],[13.7758068459207,51.103254791432384],[13.77579119949759,51.10325933981175],[13.776130596674301,51.10372646157044],[13.776147714864917,51.10375002197065],[13.776164320066385,51.10374541163761]]]}},{"type":"Feature","id":"DESNATPU1000Jd5F","properties":{"id":"DESNATPU1000Jd5F","height_m":5.773,"ground_m":169.177,"height_source":"LoD1 solid top minus bottom","production":"2024","laser":"2016","footprints":"2022"},"geometry":{"type":"Polygon","coordinates":[[[13.77393436771691,51.094918422000056],[13.773207960598967,51.094535379586375],[13.77318073189554,51.09455569632483],[13.773138310836915,51.09458778705134],[13.77309376221359,51.09462148312856],[13.77381998672626,51.095004425409165],[13.77393436771691,51.094918422000056]]]}},{"type":"Feature","id":"UUID_b7849327-78cd-46fd-bc66-e248c6573d5f","properties":{"id":"UUID_b7849327-78cd-46fd-bc66-e248c6573d5f","height_m":11.216,"ground_m":195.454,"height_source":"LoD1 solid top minus bottom","production":"2024","laser":"2016","footprints":"2022"},"geometry":{"type":"Polygon","coordinates":[[[13.773075295468118,51.10295150932795],[13.77306449450107,51.103003940762804],[13.773093141902118,51.103006300742145],[13.773097342045705,51.10298522978354],[13.773168310929288,51.10299084860225],[13.773174757454907,51.10295937858727],[13.773075295468118,51.10295150932795]]]}},{"type":"Feature","id":"UUID_d41bdcd8-ad31-46b2-b038-cd38b199fc39","properties":{"id":"UUID_d41bdcd8-ad31-46b2-b038-cd38b199fc39","height_m":7.266,"ground_m":195.454,"height_source":"LoD1 solid top minus bottom","production":"2024","laser":"2016","footprints":"2022"},"geometry":{"type":"Polygon","coordinates":[[[13.77359070457408,51.103130585518244],[13.773607855329788,51.103048688374486],[13.773342458026459,51.10302691138132],[13.773093109296754,51.103006453277146],[13.773093141902118,51.103006300742145],[13.77306449450107,51.103003940762804],[13.773064493548988,51.10300397672391],[13.772915045940147,51.10299153599977],[13.772625975522029,51.10296782726031],[13.77253081249181,51.10342913775574],[13.772807831510024,51.103508898082445],[13.77321778726633,51.10362598785953],[13.773373389068226,51.10367042609529],[13.773471823664847,51.103698284244544],[13.77359070457408,51.103130585518244]]]}},{"type":"Feature","id":"UUID_4d2d938b-fd22-44f1-8007-12fd97392cfc","properties":{"id":"UUID_4d2d938b-fd22-44f1-8007-12fd97392cfc","height_m":14.435,"ground_m":195.454,"height_source":"LoD1 solid top minus bottom","production":"2024","laser":"2016","footprints":"2022"},"geometry":{"type":"Polygon","coordinates":[[[13.773687070338976,51.10368190015028],[13.773628930230768,51.10367724355481],[13.77362003475305,51.103716520607605],[13.773620658542823,51.1037166980136],[13.773615771250242,51.10373999198772],[13.773608350104762,51.103775372648045],[13.773666476053872,51.103780029104705],[13.773687070338976,51.10368190015028]]]}},{"type":"Feature","id":"UUID_d33a29a8-ba29-4611-bc4f-32cf02800c32","properties":{"id":"UUID_d33a29a8-ba29-4611-bc4f-32cf02800c32","height_m":11.296,"ground_m":195.454,"height_source":"LoD1 solid top minus bottom","production":"2024","laser":"2016","footprints":"2022"},"geometry":{"type":"Polygon","coordinates":[[[13.77362003475305,51.103716520607605],[13.773554847201826,51.10369804009967],[13.77355011243135,51.10372096696751],[13.773581127226816,51.10372996134818],[13.773615771250242,51.10373999198772],[13.773620658542823,51.1037166980136],[13.77362003475305,51.103716520607605]]]}},{"type":"Feature","id":"UUID_5737deaf-f9b1-4d48-835e-84f4c4e1df0e","properties":{"id":"UUID_5737deaf-f9b1-4d48-835e-84f4c4e1df0e","height_m":10.366,"ground_m":195.454,"height_source":"LoD1 solid top minus bottom","production":"2024","laser":"2016","footprints":"2022"},"geometry":{"type":"Polygon","coordinates":[[[13.77359070457408,51.103130585518244],[13.773471823664847,51.103698284244544],[13.773472022153962,51.103698340283515],[13.77355011243135,51.10372096696751],[13.773554847201826,51.10369804009967],[13.77367077057415,51.103137351612716],[13.77359070457408,51.103130585518244]]]}},{"type":"Feature","id":"UUID_ff745bdd-afeb-463f-b564-d8fb01ad0315","properties":{"id":"UUID_ff745bdd-afeb-463f-b564-d8fb01ad0315","height_m":5.137,"ground_m":168.87,"height_source":"LoD1 solid top minus bottom","production":"2024","laser":"2016","footprints":"2022"},"geometry":{"type":"Polygon","coordinates":[[[13.771983680343514,51.09442347918109],[13.772029762812188,51.09445859446572],[13.77221489480256,51.09436390243315],[13.772168699033076,51.09432821049269],[13.772020469986199,51.09440453113133],[13.771983680343514,51.09442347918109]]]}},{"type":"Feature","id":"UUID_f1b36f39-8ab2-4a0f-b42c-b3277b3d4273","properties":{"id":"UUID_f1b36f39-8ab2-4a0f-b42c-b3277b3d4273","height_m":3.547,"ground_m":168.87,"height_source":"LoD1 solid top minus bottom","production":"2024","laser":"2016","footprints":"2022"},"geometry":{"type":"Polygon","coordinates":[[[13.772020469986199,51.09440453113133],[13.771982127432045,51.094374820876354],[13.771945045114807,51.094394035623296],[13.771983680343514,51.09442347918109],[13.772020469986199,51.09440453113133]]]}},{"type":"Feature","id":"DESNATPU1000Bnp7","properties":{"id":"DESNATPU1000Bnp7","height_m":4.581,"ground_m":170.221,"height_source":"LoD1 solid top minus bottom","production":"2024","laser":"2016","footprints":"2022"},"geometry":{"type":"Polygon","coordinates":[[[13.773827633074626,51.09477312121511],[13.773830704563977,51.09477470018979],[13.773833085699941,51.09477268380177],[13.773971109994502,51.094845633031085],[13.774059417557467,51.09477890637439],[13.773921693621638,51.09470648198006],[13.77392406523879,51.09470482520183],[13.773920755084077,51.09470309084916],[13.773918482217,51.09470479362692],[13.773830226701381,51.094771170005394],[13.773827633074626,51.09477312121511]]]}}]}