{"type":"FeatureCollection","features":[{"type":"Feature","id":"DESNATPU1000HReR","properties":{"id":"DESNATPU1000HReR","height_m":5.152,"ground_m":182.708,"height_source":"LoD1 solid top minus bottom","production":"2023","laser":"2019","footprints":"2024"},"geometry":{"type":"Polygon","coordinates":[[[13.799587732227499,51.161554573800274],[13.79959200708843,51.161555175217956],[13.799799180237937,51.16158436015539],[13.799911738035624,51.16126730044966],[13.799700559317788,51.161237660937715],[13.799587732227499,51.161554573800274]]]}},{"type":"Feature","id":"DESNATPU1000JCHS","properties":{"id":"DESNATPU1000JCHS","height_m":8.272,"ground_m":184.173,"height_source":"LoD1 solid top minus bottom","production":"2023","laser":"2019","footprints":"2024"},"geometry":{"type":"Polygon","coordinates":[[[13.802211520154067,51.16401529200185],[13.802177437207991,51.164069420540514],[13.802543259031134,51.1641606917637],[13.802577489494391,51.16410637578473],[13.802211520154067,51.16401529200185]]]}},{"type":"Feature","id":"DESNATPU1000CzSb","properties":{"id":"DESNATPU1000CzSb","height_m":7.141,"ground_m":183.151,"height_source":"LoD1 solid top minus bottom","production":"2023","laser":"2019","footprints":"2024"},"geometry":{"type":"Polygon","coordinates":[[[13.800442105367422,51.16269157712984],[13.800855542744765,51.16243466033075],[13.800619580079838,51.16228453644991],[13.800206142761835,51.16254145242163],[13.800442105367422,51.16269157712984]]]}},{"type":"Feature","id":"UUID_07b289dd-1f59-4b84-b855-8dce8979f1b0","properties":{"id":"UUID_07b289dd-1f59-4b84-b855-8dce8979f1b0","height_m":4.17,"ground_m":180.472,"height_source":"LoD1 solid top minus bottom","production":"2023","laser":"2019","footprints":"2024"},"geometry":{"type":"Polygon","coordinates":[[[13.808526333488514,51.157494188377406],[13.808543738198093,51.15745250479625],[13.808473379680038,51.15744088894702],[13.808455989208323,51.157482572663056],[13.808526333488514,51.157494188377406]]]}},{"type":"Feature","id":"UUID_a3119365-d5f2-49de-b60e-713a84440cec","properties":{"id":"UUID_a3119365-d5f2-49de-b60e-713a84440cec","height_m":2.896,"ground_m":180.472,"height_source":"LoD1 solid top minus bottom","production":"2023","laser":"2019","footprints":"2024"},"geometry":{"type":"Polygon","coordinates":[[[13.808455989208323,51.157482572663056],[13.808473379680038,51.15744088894702],[13.8084605923406,51.15743878029207],[13.808447515751228,51.15747010343481],[13.808360482454265,51.15745573674768],[13.808341355750855,51.15750153039333],[13.808441204848263,51.157518015035286],[13.808455989208323,51.157482572663056]]]}},{"type":"Feature","id":"DESNATGMwk00029C","properties":{"id":"DESNATGMwk00029C","height_m":5.197,"ground_m":184.13,"height_source":"LoD1 solid top minus bottom","production":"2023","laser":"2019","footprints":"2024"},"geometry":{"type":"Polygon","coordinates":[[[13.802374268304993,51.16375677370579],[13.80230979483586,51.1637407181127],[13.80218899042544,51.16393260755091],[13.80225347864932,51.16394865436773],[13.802374268304993,51.16375677370579]]]}},{"type":"Feature","id":"DESNATGMwk0002Jg","properties":{"id":"DESNATGMwk0002Jg","height_m":3.445,"ground_m":179.379,"height_source":"LoD1 solid top minus bottom","production":"2023","laser":"2019","footprints":"2024"},"geometry":{"type":"Polygon","coordinates":[[[13.807857605357583,51.159334063788314],[13.807987718588288,51.15935056049804],[13.808000563754383,51.159310494182414],[13.807870450631338,51.15929399748757],[13.807857605357583,51.159334063788314]]]}},{"type":"Feature","id":"UUID_c5406b2f-512a-432f-970e-12586451b8b1","properties":{"id":"UUID_c5406b2f-512a-432f-970e-12586451b8b1","height_m":7.492,"ground_m":179.001,"height_source":"LoD1 solid top minus bottom","production":"2023","laser":"2019","footprints":"2024"},"geometry":{"type":"Polygon","coordinates":[[[13.807563211568901,51.15863945475796],[13.807563140642182,51.1586682755374],[13.807660092263104,51.158668544492606],[13.807660266684291,51.15863958987832],[13.807563211568901,51.15863945475796]]]}},{"type":"Feature","id":"UUID_f14dd3d1-7629-42d4-8690-87a1ed946fb0","properties":{"id":"UUID_f14dd3d1-7629-42d4-8690-87a1ed946fb0","height_m":7.189,"ground_m":179.001,"height_source":"LoD1 solid top minus bottom","production":"2023","laser":"2019","footprints":"2024"},"geometry":{"type":"Polygon","coordinates":[[[13.807746568068302,51.15859422031241],[13.807563339583496,51.15859399812352],[13.807563211568901,51.15863945475796],[13.807749242195628,51.158639714502115],[13.807746568068302,51.15859422031241]]]}},{"type":"Feature","id":"DESNATGMwk0002IY","properties":{"id":"DESNATGMwk0002IY","height_m":7.701,"ground_m":179.264,"height_source":"LoD1 solid top minus bottom","production":"2023","laser":"2019","footprints":"2024"},"geometry":{"type":"Polygon","coordinates":[[[13.80771325383058,51.15823505525718],[13.807742497413276,51.15823731375326],[13.807755297768699,51.15817179774738],[13.807726054226698,51.15816953925474],[13.80771325383058,51.15823505525718]]]}},{"type":"Feature","id":"DESNATGMwk0002Ja","properties":{"id":"DESNATGMwk0002Ja","height_m":2.363,"ground_m":180.835,"height_source":"LoD1 solid top minus bottom","production":"2023","laser":"2019","footprints":"2024"},"geometry":{"type":"Polygon","coordinates":[[[13.807890593629532,51.15861183015973],[13.8078888792747,51.15863839501442],[13.808061304037066,51.15864276912131],[13.808063018293106,51.15861620426346],[13.807890593629532,51.15861183015973]]]}},{"type":"Feature","id":"DESNATPU1000EkRr","properties":{"id":"DESNATPU1000EkRr","height_m":7.862,"ground_m":176.215,"height_source":"LoD1 solid top minus bottom","production":"2023","laser":"2019","footprints":"2024"},"geometry":{"type":"Polygon","coordinates":[[[13.807402985225721,51.15938933843273],[13.80771912886848,51.15942785768176],[13.807738703801135,51.15935973992333],[13.80742383521128,51.15932059524626],[13.807402985225721,51.15938933843273]]]}},{"type":"Feature","id":"DESNATGMwk0002IU","properties":{"id":"DESNATGMwk0002IU","height_m":4.574,"ground_m":178.443,"height_source":"LoD1 solid top minus bottom","production":"2023","laser":"2019","footprints":"2024"},"geometry":{"type":"Polygon","coordinates":[[[13.807665386699082,51.1583133970445],[13.807666865755914,51.15828486939079],[13.807591012826098,51.15828331375843],[13.80758953349078,51.158311850401205],[13.807665386699082,51.1583133970445]]]}},{"type":"Feature","id":"UUID_e35683f0-6673-440b-bb8b-c8d627f43632","properties":{"id":"UUID_e35683f0-6673-440b-bb8b-c8d627f43632","height_m":5.774,"ground_m":184.238,"height_source":"LoD1 solid top minus bottom","production":"2023","laser":"2019","footprints":"2024"},"geometry":{"type":"Polygon","coordinates":[[[13.799855920013304,51.16364905641547],[13.799789275395902,51.16360703330892],[13.799789092550128,51.16360691452809],[13.799738286582016,51.16363849701883],[13.799805424642116,51.16368079499736],[13.799855920013304,51.16364905641547]]]}},{"type":"Feature","id":"UUID_ddab4880-7f48-4ddd-b497-8057195dea12","properties":{"id":"UUID_ddab4880-7f48-4ddd-b497-8057195dea12","height_m":6.169,"ground_m":184.238,"height_source":"LoD1 solid top minus bottom","production":"2023","laser":"2019","footprints":"2024"},"geometry":{"type":"Polygon","coordinates":[[[13.79961004009722,51.16361805355912],[13.799689806095918,51.163668646539286],[13.799738188126604,51.16363843305989],[13.799738286582016,51.16363849701883],[13.799789092550128,51.16360691452809],[13.799789275395902,51.16360703330892],[13.799888756796848,51.16354494350711],[13.799810623499452,51.16349536560045],[13.79961004009722,51.16361805355912]]]}},{"type":"Feature","id":"DESNATGMwk00029R","properties":{"id":"DESNATGMwk00029R","height_m":2.654,"ground_m":182.623,"height_source":"LoD1 solid top minus bottom","production":"2023","laser":"2019","footprints":"2024"},"geometry":{"type":"Polygon","coordinates":[[[13.799983023161557,51.161802214374724],[13.79995624264111,51.161871407987114],[13.800099520120819,51.16189332720778],[13.800106434056918,51.16187544876663],[13.800143528312985,51.16188112596981],[13.800163380593641,51.16182980162123],[13.799983023161557,51.161802214374724]]]}},{"type":"Feature","id":"DESNATP1WD0001r1","properties":{"id":"DESNATP1WD0001r1","height_m":2.784,"ground_m":181.47,"height_source":"LoD1 solid top minus bottom","production":"2023","laser":"2019","footprints":"2024"},"geometry":{"type":"Polygon","coordinates":[[[13.808414269452383,51.15800734650519],[13.808322972282376,51.15799025654074],[13.808310155382193,51.158017041014176],[13.808300663267307,51.15803689004276],[13.808293151728895,51.158052577658935],[13.808224432285334,51.15803947658838],[13.808158530426573,51.15802691677014],[13.808139003108353,51.15806770637382],[13.80836492187184,51.15811045728953],[13.808414269452383,51.15800734650519]]]}},{"type":"Feature","id":"DESNATGMwk0002JG","properties":{"id":"DESNATGMwk0002JG","height_m":3.022,"ground_m":179.595,"height_source":"LoD1 solid top minus bottom","production":"2023","laser":"2019","footprints":"2024"},"geometry":{"type":"Polygon","coordinates":[[[13.808030539385928,51.157566419813996],[13.807923187788218,51.157548626361276],[13.807909490118739,51.157581283022544],[13.808016856083142,51.157599076633886],[13.808030539385928,51.157566419813996]]]}},{"type":"Feature","id":"DESNATGMwk00029V","properties":{"id":"DESNATGMwk00029V","height_m":4.683,"ground_m":182.719,"height_source":"LoD1 solid top minus bottom","production":"2023","laser":"2019","footprints":"2024"},"geometry":{"type":"Polygon","coordinates":[[[13.799982215600687,51.1617021626448],[13.800068055873346,51.16171586683432],[13.80008546542067,51.16166884291208],[13.799998646115952,51.161656495576466],[13.799982215600687,51.1617021626448]]]}},{"type":"Feature","id":"DESNATGMwk0002Io","properties":{"id":"DESNATGMwk0002Io","height_m":4.873,"ground_m":179.899,"height_source":"LoD1 solid top minus bottom","production":"2023","laser":"2019","footprints":"2024"},"geometry":{"type":"Polygon","coordinates":[[[13.80795197719259,51.157889202393825],[13.80792977007596,51.157885262093124],[13.807922305591237,51.15790189439611],[13.807954548777479,51.1579076096185],[13.807932364512823,51.157957157948324],[13.80794352515891,51.157959133177],[13.807956960438338,51.15792889286735],[13.8079895525806,51.15785559305106],[13.807993955103086,51.15784568303332],[13.807973157117031,51.15784199990366],[13.80795197719259,51.157889202393825]]]}},{"type":"Feature","id":"DESNATPU1000DdgC","properties":{"id":"DESNATPU1000DdgC","height_m":5.578,"ground_m":182.701,"height_source":"LoD1 solid top minus bottom","production":"2023","laser":"2019","footprints":"2024"},"geometry":{"type":"Polygon","coordinates":[[[13.80070358880377,51.161797033006614],[13.800680860038323,51.161858930307275],[13.800961633827802,51.16189795940296],[13.800982640588872,51.16183572066125],[13.80070358880377,51.161797033006614]]]}},{"type":"Feature","id":"DESNATP140000who","properties":{"id":"DESNATP140000who","height_m":2.347,"ground_m":177.653,"height_source":"LoD1 solid top minus bottom","production":"2023","laser":"2019","footprints":"2024"},"geometry":{"type":"Polygon","coordinates":[[[13.807646004174702,51.15906357468535],[13.807644596439417,51.159005018066836],[13.807519921889703,51.159005033001606],[13.807521315170074,51.159063589474805],[13.807646004174702,51.15906357468535]]]}},{"type":"Feature","id":"DESNATP1WD0001mg","properties":{"id":"DESNATP1WD0001mg","height_m":4.33,"ground_m":181.46,"height_source":"LoD1 solid top minus bottom","production":"2023","laser":"2019","footprints":"2024"},"geometry":{"type":"Polygon","coordinates":[[[13.800942869945551,51.16062709389421],[13.80104532391929,51.16067675851315],[13.801228550183252,51.16052731686252],[13.801126110635852,51.16047765255027],[13.800942869945551,51.16062709389421]]]}},{"type":"Feature","id":"DESNATPU1000I21M","properties":{"id":"DESNATPU1000I21M","height_m":3.0,"ground_m":180.2,"height_source":"LoD1 solid top minus bottom","production":"2023","laser":"2019","footprints":"2024"},"geometry":{"type":"Polygon","coordinates":[[[13.807794964683199,51.15839936588452],[13.80782736881072,51.15840051450508],[13.807882633042759,51.15840247164345],[13.807887166874728,51.15835196106956],[13.80782975957064,51.15834992813362],[13.807799498610494,51.15834885531462],[13.807794964683199,51.15839936588452]]]}},{"type":"Feature","id":"UUID_9dd2912a-9303-4eb5-bbb4-7057c94c3d5d","properties":{"id":"UUID_9dd2912a-9303-4eb5-bbb4-7057c94c3d5d","height_m":5.133,"ground_m":179.498,"height_source":"LoD1 solid top minus bottom","production":"2023","laser":"2019","footprints":"2024"},"geometry":{"type":"Polygon","coordinates":[[[13.807881042500494,51.15787661810312],[13.807873577768024,51.157893259393205],[13.807922305591237,51.15790189439611],[13.80792977007596,51.157885262093124],[13.807881042500494,51.15787661810312]]]}},{"type":"Feature","id":"UUID_fa4959c7-2116-4593-8b29-d3ae503acfc6","properties":{"id":"UUID_fa4959c7-2116-4593-8b29-d3ae503acfc6","height_m":5.107,"ground_m":179.498,"height_source":"LoD1 solid top minus bottom","production":"2023","laser":"2019","footprints":"2024"},"geometry":{"type":"Polygon","coordinates":[[[13.807881042500494,51.15787661810312],[13.80792977007596,51.157885262093124],[13.80795197719259,51.157889202393825],[13.807973157117031,51.15784199990366],[13.807902208426198,51.15782940649012],[13.807881042500494,51.15787661810312]]]}},{"type":"Feature","id":"UUID_ddf6ea94-fa86-4660-991c-6a911b628444","properties":{"id":"UUID_ddf6ea94-fa86-4660-991c-6a911b628444","height_m":4.613,"ground_m":179.498,"height_source":"LoD1 solid top minus bottom","production":"2023","laser":"2019","footprints":"2024"},"geometry":{"type":"Polygon","coordinates":[[[13.807851365062364,51.15794279842551],[13.807932364512823,51.157957157948324],[13.807954548777479,51.1579076096185],[13.807922305591237,51.15790189439611],[13.807873577768024,51.157893259393205],[13.807851365062364,51.15794279842551]]]}},{"type":"Feature","id":"DESNATPU1000GSxC","properties":{"id":"DESNATPU1000GSxC","height_m":3.329,"ground_m":182.802,"height_source":"LoD1 solid top minus bottom","production":"2023","laser":"2019","footprints":"2024"},"geometry":{"type":"Polygon","coordinates":[[[13.799183411696362,51.16068987000103],[13.79915990250862,51.16070851325441],[13.79918455781756,51.160711823885514],[13.799161428473719,51.16077642358886],[13.799187656546414,51.160779750366],[13.799234810372118,51.16080334561791],[13.799303010653015,51.16074892066287],[13.799183411696362,51.16068987000103]]]}},{"type":"Feature","id":"DESNATGMwk00029N","properties":{"id":"DESNATGMwk00029N","height_m":4.75,"ground_m":182.649,"height_source":"LoD1 solid top minus bottom","production":"2023","laser":"2019","footprints":"2024"},"geometry":{"type":"Polygon","coordinates":[[[13.800051738882859,51.161759916395994],[13.800041188519934,51.161788413841286],[13.800300465204845,51.16182636968518],[13.800311015417442,51.16179787221568],[13.800051738882859,51.161759916395994]]]}},{"type":"Feature","id":"DESNATGMwk0002J0","properties":{"id":"DESNATGMwk0002J0","height_m":4.74,"ground_m":179.767,"height_source":"LoD1 solid top minus bottom","production":"2023","laser":"2019","footprints":"2024"},"geometry":{"type":"Polygon","coordinates":[[[13.807916236228186,51.15779615068659],[13.807941902557037,51.157800701776196],[13.807947121822457,51.1577890644989],[13.80798484550891,51.15779575282082],[13.80798006634205,51.15780640539133],[13.808034573513156,51.157816070455446],[13.808047500989376,51.157787218823835],[13.807929603631077,51.157766323350394],[13.807916236228186,51.15779615068659]]]}},{"type":"Feature","id":"DESNATPU1000DXIt","properties":{"id":"DESNATPU1000DXIt","height_m":8.492,"ground_m":183.914,"height_source":"LoD1 solid top minus bottom","production":"2023","laser":"2019","footprints":"2024"},"geometry":{"type":"Polygon","coordinates":[[[13.80210165187126,51.16392079604099],[13.802233701932192,51.16371219657224],[13.801968103426177,51.16364562860867],[13.801902182839964,51.16375002370783],[13.801852846718013,51.163828150215274],[13.801836262185704,51.16385440977575],[13.80210165187126,51.16392079604099]]]}},{"type":"Feature","id":"DESNATPU1000EEEg","properties":{"id":"DESNATPU1000EEEg","height_m":2.6,"ground_m":182.688,"height_source":"LoD1 solid top minus bottom","production":"2023","laser":"2019","footprints":"2024"},"geometry":{"type":"Polygon","coordinates":[[[13.8084805932504,51.15818449429963],[13.808578370049306,51.15819765739722],[13.808593418120338,51.15815364768429],[13.808495498210611,51.15814049213368],[13.8084805932504,51.15818449429963]]]}},{"type":"Feature","id":"DESNATGMwk0002Jc","properties":{"id":"DESNATGMwk0002Jc","height_m":3.019,"ground_m":179.678,"height_source":"LoD1 solid top minus bottom","production":"2023","laser":"2019","footprints":"2024"},"geometry":{"type":"Polygon","coordinates":[[[13.807895585926977,51.15868057603445],[13.807748901305075,51.15867790288985],[13.807747422315177,51.15870975783057],[13.807954684913017,51.158713533977775],[13.807956377446962,51.15867671725846],[13.80789581391698,51.15867561440527],[13.807895585926977,51.15868057603445]]]}},{"type":"Feature","id":"DESNATGMwk0002JK","properties":{"id":"DESNATGMwk0002JK","height_m":2.562,"ground_m":181.647,"height_source":"LoD1 solid top minus bottom","production":"2023","laser":"2019","footprints":"2024"},"geometry":{"type":"Polygon","coordinates":[[[13.80826313910542,51.15772274449816],[13.80825079272164,51.157756799837045],[13.808341642232621,51.15777237453093],[13.808356372552725,51.15773903590623],[13.80826313910542,51.15772274449816]]]}},{"type":"Feature","id":"DESNATP140000whh","properties":{"id":"DESNATP140000whh","height_m":5.883,"ground_m":182.687,"height_source":"LoD1 solid top minus bottom","production":"2023","laser":"2019","footprints":"2024"},"geometry":{"type":"Polygon","coordinates":[[[13.800101198674989,51.16162634308885],[13.80008546542067,51.16166884291208],[13.800068055873346,51.16171586683432],[13.800051738882859,51.161759916395994],[13.800311015417442,51.16179787221568],[13.80047222653421,51.16182146770065],[13.800521671118986,51.16168788507252],[13.800101198674989,51.16162634308885]]]}},{"type":"Feature","id":"DESNATGMwk0002J8","properties":{"id":"DESNATGMwk0002J8","height_m":2.702,"ground_m":181.296,"height_source":"LoD1 solid top minus bottom","production":"2023","laser":"2019","footprints":"2024"},"geometry":{"type":"Polygon","coordinates":[[[13.808262148621521,51.1578710774786],[13.808129341186806,51.15784774615088],[13.808115981929395,51.15787781639422],[13.808249131636945,51.15790118719481],[13.808259110986947,51.15790294352571],[13.808269282310697,51.15788004391299],[13.808258975299964,51.15787823928107],[13.808262148621521,51.1578710774786]]]}},{"type":"Feature","id":"DESNATPU1000Fbsc","properties":{"id":"DESNATPU1000Fbsc","height_m":3.704,"ground_m":183.073,"height_source":"LoD1 solid top minus bottom","production":"2023","laser":"2019","footprints":"2024"},"geometry":{"type":"Polygon","coordinates":[[[13.800637856029814,51.16222173920275],[13.80090963582279,51.16225967800397],[13.800951299016331,51.16214100621301],[13.80067967669438,51.16210308710546],[13.800637856029814,51.16222173920275]]]}},{"type":"Feature","id":"DESNATGMwk0002IR","properties":{"id":"DESNATGMwk0002IR","height_m":4.155,"ground_m":179.963,"height_source":"LoD1 solid top minus bottom","production":"2023","laser":"2019","footprints":"2024"},"geometry":{"type":"Polygon","coordinates":[[[13.80772102094992,51.15834371191657],[13.807733970387584,51.158343978806535],[13.807765143397663,51.1583446202984],[13.807766652681584,51.15831547245775],[13.807722544326648,51.15831457321272],[13.80772102094992,51.15834371191657]]]}},{"type":"Feature","id":"DESNATP1WD0001qs","properties":{"id":"DESNATP1WD0001qs","height_m":5.836,"ground_m":181.488,"height_source":"LoD1 solid top minus bottom","production":"2023","laser":"2019","footprints":"2024"},"geometry":{"type":"Polygon","coordinates":[[[13.80823257073288,51.15764315366034],[13.808202122298745,51.157712086965645],[13.80826313910542,51.15772274449816],[13.808356372552725,51.15773903590623],[13.80835912075975,51.15773283198554],[13.80838449720188,51.15767536657693],[13.808386820544426,51.157670111550004],[13.80823257073288,51.15764315366034]]]}},{"type":"Feature","id":"DESNATGMwk0002JS","properties":{"id":"DESNATGMwk0002JS","height_m":2.863,"ground_m":180.199,"height_source":"LoD1 solid top minus bottom","production":"2023","laser":"2019","footprints":"2024"},"geometry":{"type":"Polygon","coordinates":[[[13.808071659769368,51.1579490453006],[13.807992635943103,51.15793515564191],[13.807982389279507,51.15795819834579],[13.808061413373519,51.15797207902127],[13.808071659769368,51.1579490453006]]]}},{"type":"Feature","id":"DESNATGMwk000299","properties":{"id":"DESNATGMwk000299","height_m":4.13,"ground_m":183.703,"height_source":"LoD1 solid top minus bottom","production":"2023","laser":"2019","footprints":"2024"},"geometry":{"type":"Polygon","coordinates":[[[13.801821916085014,51.16370044328818],[13.801898771061134,51.16371941370061],[13.801949697762572,51.16363785028121],[13.80187284313293,51.16361887091248],[13.801821916085014,51.16370044328818]]]}},{"type":"Feature","id":"DESNATPU1000FIjy","properties":{"id":"DESNATPU1000FIjy","height_m":5.226,"ground_m":182.743,"height_source":"LoD1 solid top minus bottom","production":"2023","laser":"2019","footprints":"2024"},"geometry":{"type":"Polygon","coordinates":[[[13.80087258881632,51.1615902976445],[13.800855616183835,51.161573622095],[13.800828799764172,51.161584138372625],[13.80082563559711,51.16159309860168],[13.80077769801751,51.16158642916004],[13.80070358880377,51.161797033006614],[13.800982640588872,51.16183572066125],[13.801056774165295,51.161625233797956],[13.800869454884648,51.161599195235965],[13.80087258881632,51.1615902976445]]]}},{"type":"Feature","id":"UUID_b527090b-dc29-47ce-8f5f-4d638e56e767","properties":{"id":"UUID_b527090b-dc29-47ce-8f5f-4d638e56e767","height_m":5.169,"ground_m":184.2,"height_source":"LoD1 solid top minus bottom","production":"2023","laser":"2019","footprints":"2024"},"geometry":{"type":"Polygon","coordinates":[[[13.799859244399315,51.16371494382114],[13.799859331589882,51.16371489075976],[13.799909841260513,51.163683152301495],[13.799855920013304,51.16364905641547],[13.799805424642116,51.16368079499736],[13.799805322686453,51.16368086589255],[13.799859244399315,51.16371494382114]]]}},{"type":"Feature","id":"UUID_a97dbc70-de0b-4b14-8444-b659873ef100","properties":{"id":"UUID_a97dbc70-de0b-4b14-8444-b659873ef100","height_m":7.009,"ground_m":184.2,"height_source":"LoD1 solid top minus bottom","production":"2023","laser":"2019","footprints":"2024"},"geometry":{"type":"Polygon","coordinates":[[[13.800555237191318,51.16415484591738],[13.800457407479614,51.16409315119649],[13.80045752373376,51.16409308044739],[13.800403572775224,51.16405899350731],[13.800403485584615,51.16405904656911],[13.799859331589882,51.16371489075976],[13.799859244399315,51.16371494382114],[13.799805322686453,51.16368086589255],[13.799805424642116,51.16368079499736],[13.799738188126604,51.16363843305989],[13.799689806095918,51.163668646539286],[13.799487413864052,51.16379926524335],[13.79948665634019,51.16379979702848],[13.800300479284727,51.164314317059016],[13.800555237191318,51.16415484591738]]]}},{"type":"Feature","id":"UUID_ad459c01-0387-4fda-9c7a-c4d147beb2c3","properties":{"id":"UUID_ad459c01-0387-4fda-9c7a-c4d147beb2c3","height_m":5.174,"ground_m":184.2,"height_source":"LoD1 solid top minus bottom","production":"2023","laser":"2019","footprints":"2024"},"geometry":{"type":"Polygon","coordinates":[[[13.800454348064665,51.16402749134906],[13.800403572775224,51.16405899350731],[13.80045752373376,51.16409308044739],[13.80050827019437,51.1640615869629],[13.800454348064665,51.16402749134906]]]}},{"type":"Feature","id":"DESNATPU1000BxZa","properties":{"id":"DESNATPU1000BxZa","height_m":8.428,"ground_m":184.173,"height_source":"LoD1 solid top minus bottom","production":"2023","laser":"2019","footprints":"2024"},"geometry":{"type":"Polygon","coordinates":[[[13.802374268304993,51.16375677370579],[13.80225347864932,51.16394865436773],[13.802211520154067,51.16401529200185],[13.802577489494391,51.16410637578473],[13.802780795793833,51.16378383069197],[13.802414615504789,51.163692691416976],[13.802374268304993,51.16375677370579]]]}},{"type":"Feature","id":"DESNATPU1000Ii88","properties":{"id":"DESNATPU1000Ii88","height_m":10.248,"ground_m":183.707,"height_source":"LoD1 solid top minus bottom","production":"2023","laser":"2019","footprints":"2024"},"geometry":{"type":"Polygon","coordinates":[[[13.801430224956759,51.16269324446367],[13.801096332959013,51.162900637686114],[13.800915663710146,51.16301285769424],[13.801072859008606,51.16311208445089],[13.80160201687304,51.16344887787423],[13.802116679581399,51.163129217721966],[13.801777608562466,51.1629138685676],[13.80165713738212,51.16283736578023],[13.801430224956759,51.16269324446367]]]}},{"type":"Feature","id":"DESNATPU1000DBsP","properties":{"id":"DESNATPU1000DBsP","height_m":8.569,"ground_m":178.85,"height_source":"LoD1 solid top minus bottom","production":"2023","laser":"2019","footprints":"2024"},"geometry":{"type":"Polygon","coordinates":[[[13.807726054226698,51.15816953925474],[13.807610450027626,51.1581606180965],[13.807597649470642,51.158226134085325],[13.80771325383058,51.15823505525718],[13.807726054226698,51.15816953925474]]]}},{"type":"Feature","id":"UUID_33ba3ab0-88cb-44ef-80fd-4413035df2fe","properties":{"id":"UUID_33ba3ab0-88cb-44ef-80fd-4413035df2fe","height_m":8.868,"ground_m":184.312,"height_source":"LoD1 solid top minus bottom","production":"2023","laser":"2019","footprints":"2024"},"geometry":{"type":"Polygon","coordinates":[[[13.799888616146239,51.16354485213736],[13.799888756796848,51.16354494350711],[13.799789275395902,51.16360703330892],[13.799855920013304,51.16364905641547],[13.799909841260513,51.163683152301495],[13.800454348064665,51.16402749134906],[13.80050825566262,51.16406159580656],[13.8005804009138,51.16410720002479],[13.800940540795294,51.16388191216524],[13.800417526631115,51.16355141969108],[13.80014960600012,51.16338210953039],[13.800145650605241,51.163384622873636],[13.800145129964612,51.16338429379693],[13.799888616146239,51.16354485213736]]]}},{"type":"Feature","id":"UUID_5bec8b4c-5eb7-42f5-aaf4-1d449635895f","properties":{"id":"UUID_5bec8b4c-5eb7-42f5-aaf4-1d449635895f","height_m":6.296,"ground_m":184.312,"height_source":"LoD1 solid top minus bottom","production":"2023","laser":"2019","footprints":"2024"},"geometry":{"type":"Polygon","coordinates":[[[13.80021404095396,51.163341170403626],[13.80014960600012,51.16338210953039],[13.800417526631115,51.16355141969108],[13.800482511063105,51.16351080079608],[13.80021404095396,51.163341170403626]]]}},{"type":"Feature","id":"UUID_5571b9b1-ff4d-4840-aae8-c63168e138b3","properties":{"id":"UUID_5571b9b1-ff4d-4840-aae8-c63168e138b3","height_m":6.501,"ground_m":184.312,"height_source":"LoD1 solid top minus bottom","production":"2023","laser":"2019","footprints":"2024"},"geometry":{"type":"Polygon","coordinates":[[[13.80006754122847,51.163335225236025],[13.800003198575812,51.163374807336794],[13.799840390179343,51.163476480675335],[13.799810623499452,51.16349536560045],[13.799888616146239,51.16354485213736],[13.800145129964612,51.16338429379693],[13.80006754122847,51.163335225236025]]]}},{"type":"Feature","id":"DESNATPU1000JbFq","properties":{"id":"DESNATPU1000JbFq","height_m":2.328,"ground_m":179.986,"height_source":"LoD1 solid top minus bottom","production":"2023","laser":"2019","footprints":"2024"},"geometry":{"type":"Polygon","coordinates":[[[13.80800991387638,51.15896768107393],[13.807927303190922,51.15895972595715],[13.807910744526986,51.15903290139272],[13.807995728484222,51.15904033215428],[13.80800991387638,51.15896768107393]]]}},{"type":"Feature","id":"UUID_d7393dfb-704d-4be6-9a71-59b16a681d74","properties":{"id":"UUID_d7393dfb-704d-4be6-9a71-59b16a681d74","height_m":3.795,"ground_m":182.442,"height_source":"LoD1 solid top minus bottom","production":"2023","laser":"2019","footprints":"2024"},"geometry":{"type":"Polygon","coordinates":[[[13.799085611516071,51.160179080337194],[13.799085582221053,51.16017910701442],[13.799018139774674,51.16023300905931],[13.799095658302761,51.16027132240766],[13.799163253551766,51.16021759274807],[13.799085611516071,51.160179080337194]]]}},{"type":"Feature","id":"UUID_6b12f393-1737-44e2-be5d-5e7bf3cc4564","properties":{"id":"UUID_6b12f393-1737-44e2-be5d-5e7bf3cc4564","height_m":9.093,"ground_m":182.442,"height_source":"LoD1 solid top minus bottom","production":"2023","laser":"2019","footprints":"2024"},"geometry":{"type":"Polygon","coordinates":[[[13.799085582221053,51.16017910701442],[13.799085611516071,51.160179080337194],[13.799163253551766,51.16021759274807],[13.799163355734112,51.16021751286308],[13.799178243121906,51.16022522854186],[13.799177273352417,51.16022622576503],[13.799232971009413,51.16025397342418],[13.799321468165122,51.16029798377698],[13.799487803099773,51.160380706102266],[13.799543479536094,51.160408183613534],[13.799544821967716,51.16040715424143],[13.799578927840253,51.160423781010685],[13.79964705440481,51.160457564212365],[13.800421460084674,51.15984027547313],[13.800353348378973,51.159806483877645],[13.800097307592745,51.15967951585453],[13.799841183599556,51.159552501445965],[13.799066861140199,51.16016977824402],[13.799085582221053,51.16017910701442]]]}},{"type":"Feature","id":"DESNATPU1000HxLC","properties":{"id":"DESNATPU1000HxLC","height_m":4.486,"ground_m":182.892,"height_source":"LoD1 solid top minus bottom","production":"2023","laser":"2019","footprints":"2024"},"geometry":{"type":"Polygon","coordinates":[[[13.798902165906117,51.16067265696345],[13.798870903638885,51.1607623975391],[13.798872442633712,51.16076261118185],[13.799152318292334,51.16080231887811],[13.799161428473719,51.16077642358886],[13.79918455781756,51.160711823885514],[13.79915990250862,51.16070851325441],[13.798903476838767,51.16067284128588],[13.798902165906117,51.16067265696345]]]}},{"type":"Feature","id":"DESNATPU1000Hfu9","properties":{"id":"DESNATPU1000Hfu9","height_m":9.204,"ground_m":183.296,"height_source":"LoD1 solid top minus bottom","production":"2023","laser":"2019","footprints":"2024"},"geometry":{"type":"Polygon","coordinates":[[[13.80059777230126,51.162598201899435],[13.800517897719228,51.162647768744485],[13.800530869772015,51.16265603114101],[13.800496783135333,51.16267718305607],[13.800596844707082,51.162740941990194],[13.800820580420366,51.162602105069254],[13.800720462108105,51.162538327758035],[13.800610716224865,51.16260644601338],[13.80059777230126,51.162598201899435]]]}},{"type":"Feature","id":"UUID_423cf265-60af-4ea3-8683-da6c3068f728","properties":{"id":"UUID_423cf265-60af-4ea3-8683-da6c3068f728","height_m":8.352,"ground_m":183.703,"height_source":"LoD1 solid top minus bottom","production":"2023","laser":"2019","footprints":"2024"},"geometry":{"type":"Polygon","coordinates":[[[13.800976411506394,51.16317199415944],[13.801072859008606,51.16311208445089],[13.800915663710146,51.16301285769424],[13.800856478182306,51.162975497917394],[13.800761002427588,51.16303488684451],[13.800976411506394,51.16317199415944]]]}},{"type":"Feature","id":"UUID_4d20b8df-cbf7-45cb-bcc9-486f5223f1c3","properties":{"id":"UUID_4d20b8df-cbf7-45cb-bcc9-486f5223f1c3","height_m":8.124,"ground_m":183.703,"height_source":"LoD1 solid top minus bottom","production":"2023","laser":"2019","footprints":"2024"},"geometry":{"type":"Polygon","coordinates":[[[13.801037254039574,51.162863027298116],[13.800856478182306,51.162975497917394],[13.800915663710146,51.16301285769424],[13.801096332959013,51.162900637686114],[13.801037254039574,51.162863027298116]]]}},{"type":"Feature","id":"DESNATGMwk0002IN","properties":{"id":"DESNATGMwk0002IN","height_m":2.992,"ground_m":180.721,"height_source":"LoD1 solid top minus bottom","production":"2023","laser":"2019","footprints":"2024"},"geometry":{"type":"Polygon","coordinates":[[[13.807824441200355,51.15843309208159],[13.807879719767994,51.15843504936729],[13.807882633042759,51.15840247164345],[13.80782736881072,51.15840051450508],[13.807824441200355,51.15843309208159]]]}},{"type":"Feature","id":"DESNATP140000whV","properties":{"id":"DESNATP140000whV","height_m":6.36,"ground_m":184.298,"height_source":"LoD1 solid top minus bottom","production":"2023","laser":"2019","footprints":"2024"},"geometry":{"type":"Polygon","coordinates":[[[13.799487413864052,51.16379926524335],[13.799689806095918,51.163668646539286],[13.79961004009722,51.16361805355912],[13.799404337916908,51.163746704728844],[13.799487413864052,51.16379926524335]]]}},{"type":"Feature","id":"DESNATPU1000CigJ","properties":{"id":"DESNATPU1000CigJ","height_m":3.443,"ground_m":183.66,"height_source":"LoD1 solid top minus bottom","production":"2023","laser":"2019","footprints":"2024"},"geometry":{"type":"Polygon","coordinates":[[[13.801777608562466,51.1629138685676],[13.80180406478653,51.16289740423057],[13.801683491653495,51.16282097236708],[13.80165713738212,51.16283736578023],[13.801777608562466,51.1629138685676]]]}},{"type":"Feature","id":"DESNATP1WD0001r0","properties":{"id":"DESNATP1WD0001r0","height_m":4.135,"ground_m":179.365,"height_source":"LoD1 solid top minus bottom","production":"2023","laser":"2019","footprints":"2024"},"geometry":{"type":"Polygon","coordinates":[[[13.807815085367102,51.15809312779208],[13.807765575713294,51.15808763221028],[13.807748644992051,51.15814972487239],[13.807820491290876,51.158157471484614],[13.80783742191885,51.15809537881154],[13.807815085367102,51.15809312779208]]]}},{"type":"Feature","id":"DESNATGMwk0002J4","properties":{"id":"DESNATGMwk0002J4","height_m":2.246,"ground_m":182.26,"height_source":"LoD1 solid top minus bottom","production":"2023","laser":"2019","footprints":"2024"},"geometry":{"type":"Polygon","coordinates":[[[13.808424337812736,51.15783301827728],[13.808374288649947,51.15782460383115],[13.808356340073097,51.15786684838274],[13.808406389509695,51.15787525384648],[13.808424337812736,51.15783301827728]]]}},{"type":"Feature","id":"DESNATPU1000Iv1k","properties":{"id":"DESNATPU1000Iv1k","height_m":2.797,"ground_m":183.196,"height_source":"LoD1 solid top minus bottom","production":"2023","laser":"2019","footprints":"2024"},"geometry":{"type":"Polygon","coordinates":[[[13.800289050252369,51.16277852220746],[13.80034894118431,51.1628167797841],[13.800409787698438,51.16277905909081],[13.80034951708282,51.16274110340165],[13.800289050252369,51.16277852220746]]]}},{"type":"Feature","id":"UUID_5734a5fb-a21b-4525-b107-48ac0434153e","properties":{"id":"UUID_5734a5fb-a21b-4525-b107-48ac0434153e","height_m":7.459,"ground_m":178.963,"height_source":"LoD1 solid top minus bottom","production":"2023","laser":"2019","footprints":"2024"},"geometry":{"type":"Polygon","coordinates":[[[13.80766651552723,51.15859412369859],[13.80766646988596,51.15853210079827],[13.807563649879873,51.15853204180009],[13.807563339583496,51.15859399812352],[13.80766651552723,51.15859412369859]]]}},{"type":"Feature","id":"UUID_a8cd4b9e-11ac-4afa-958b-683c6feef5fa","properties":{"id":"UUID_a8cd4b9e-11ac-4afa-958b-683c6feef5fa","height_m":6.716,"ground_m":178.963,"height_source":"LoD1 solid top minus bottom","production":"2023","laser":"2019","footprints":"2024"},"geometry":{"type":"Polygon","coordinates":[[[13.807666501879877,51.15856969047906],[13.80766651552723,51.15859412369859],[13.807746568068302,51.15859422031241],[13.807747269686386,51.15856977639864],[13.807697490412439,51.15856972759905],[13.807666501879877,51.15856969047906]]]}},{"type":"Feature","id":"DESNATPU1000Dy80","properties":{"id":"DESNATPU1000Dy80","height_m":4.632,"ground_m":183.128,"height_source":"LoD1 solid top minus bottom","production":"2023","laser":"2019","footprints":"2024"},"geometry":{"type":"Polygon","coordinates":[[[13.80020247308008,51.162646512088436],[13.800201251979539,51.16264727293241],[13.79998592013183,51.16251067753522],[13.799883085522847,51.16257476536008],[13.800098403060716,51.162711360798426],[13.800096876797388,51.162712307356855],[13.800099184132993,51.162713778845905],[13.800090739056927,51.16271900687942],[13.800116052699574,51.16273502170916],[13.800124381291306,51.162729873412914],[13.800244048935555,51.16280636954876],[13.800289050252369,51.16277852220746],[13.80034951708282,51.16274110340165],[13.800350331072172,51.16274059916806],[13.80020247308008,51.162646512088436]]]}},{"type":"Feature","id":"DESNATGMwk0002JO","properties":{"id":"DESNATGMwk0002JO","height_m":5.895,"ground_m":181.717,"height_source":"LoD1 solid top minus bottom","production":"2023","laser":"2019","footprints":"2024"},"geometry":{"type":"Polygon","coordinates":[[[13.80835912075975,51.15773283198554],[13.808417019870772,51.157742945091826],[13.808442396246932,51.157685479670306],[13.80838449720188,51.15767536657693],[13.80835912075975,51.15773283198554]]]}},{"type":"Feature","id":"DESNATPU1000IwMu","properties":{"id":"DESNATPU1000IwMu","height_m":3.043,"ground_m":179.225,"height_source":"LoD1 solid top minus bottom","production":"2023","laser":"2019","footprints":"2024"},"geometry":{"type":"Polygon","coordinates":[[[13.807881079794722,51.15912241781448],[13.80787465215998,51.15906164280395],[13.807832669126576,51.15906314832167],[13.807832123695526,51.15905823276577],[13.807755981977177,51.15906172818097],[13.807763260145274,51.15912778157142],[13.807881079794722,51.15912241781448]]]}},{"type":"Feature","id":"DESNATP140000whT","properties":{"id":"DESNATP140000whT","height_m":6.315,"ground_m":184.358,"height_source":"LoD1 solid top minus bottom","production":"2023","laser":"2019","footprints":"2024"},"geometry":{"type":"Polygon","coordinates":[[[13.799840390179343,51.163476480675335],[13.800003198575812,51.163374807336794],[13.799740613898525,51.1632088512762],[13.799577948504389,51.16331052571952],[13.799840390179343,51.163476480675335]]]}},{"type":"Feature","id":"DESNATPU1000GP4R","properties":{"id":"DESNATPU1000GP4R","height_m":3.509,"ground_m":182.701,"height_source":"LoD1 solid top minus bottom","production":"2023","laser":"2019","footprints":"2024"},"geometry":{"type":"Polygon","coordinates":[[[13.800680860038323,51.161858930307275],[13.800661879157348,51.161912520836246],[13.800735410724757,51.161922744058444],[13.800942809365981,51.16195159654286],[13.800961633827802,51.16189795940296],[13.800754263077444,51.16186914320749],[13.800680860038323,51.161858930307275]]]}},{"type":"Feature","id":"UUID_a8be43db-1a48-4884-8542-ae5b0f273408","properties":{"id":"UUID_a8be43db-1a48-4884-8542-ae5b0f273408","height_m":6.345,"ground_m":183.183,"height_source":"LoD1 solid top minus bottom","production":"2023","laser":"2019","footprints":"2024"},"geometry":{"type":"Polygon","coordinates":[[[13.799751532463903,51.16187786857056],[13.799466724246582,51.16189457668477],[13.79951886761323,51.1622510506984],[13.799537183140654,51.1623763087121],[13.799570229999597,51.1623759374535],[13.799822537359026,51.16236126966308],[13.799751532463903,51.16187786857056]]]}},{"type":"Feature","id":"UUID_d9978c52-1c38-42f2-83fc-3e54ab9f0f44","properties":{"id":"UUID_d9978c52-1c38-42f2-83fc-3e54ab9f0f44","height_m":6.264,"ground_m":183.183,"height_source":"LoD1 solid top minus bottom","production":"2023","laser":"2019","footprints":"2024"},"geometry":{"type":"Polygon","coordinates":[[[13.799531718263745,51.162376369529476],[13.799537183140654,51.1623763087121],[13.79951886761323,51.1622510506984],[13.79946194568465,51.16225438727689],[13.799473992123659,51.162336856787],[13.799479991110786,51.16236139640308],[13.799531718263745,51.162376369529476]]]}},{"type":"Feature","id":"DESNATPU1000EVhH","properties":{"id":"DESNATPU1000EVhH","height_m":6.245,"ground_m":182.633,"height_source":"LoD1 solid top minus bottom","production":"2023","laser":"2019","footprints":"2024"},"geometry":{"type":"Polygon","coordinates":[[[13.799700559317788,51.161237660937715],[13.799911738035624,51.16126730044966],[13.79996949047678,51.16110459508573],[13.799758485432765,51.16107490350086],[13.799700559317788,51.161237660937715]]]}},{"type":"Feature","id":"UUID_baedd607-23d9-4e1a-bff3-22702c07540a","properties":{"id":"UUID_baedd607-23d9-4e1a-bff3-22702c07540a","height_m":6.847,"ground_m":178.845,"height_source":"LoD1 solid top minus bottom","production":"2023","laser":"2019","footprints":"2024"},"geometry":{"type":"Polygon","coordinates":[[[13.80775288758672,51.158060587818234],[13.807791312449606,51.15806560171974],[13.807803674906433,51.15802816534979],[13.807765264601633,51.15802314260793],[13.80775288758672,51.158060587818234]]]}},{"type":"Feature","id":"UUID_85f86744-c708-4798-864e-7422163f5560","properties":{"id":"UUID_85f86744-c708-4798-864e-7422163f5560","height_m":8.419,"ground_m":178.845,"height_source":"LoD1 solid top minus bottom","production":"2023","laser":"2019","footprints":"2024"},"geometry":{"type":"Polygon","coordinates":[[[13.807632653214423,51.1580615383983],[13.807747599428614,51.158076558850944],[13.807772322544595,51.15800175804173],[13.8076573762757,51.157986746604664],[13.807632653214423,51.1580615383983]]]}},{"type":"Feature","id":"DESNATPU1000Hl2v","properties":{"id":"DESNATPU1000Hl2v","height_m":5.323,"ground_m":178.78,"height_source":"LoD1 solid top minus bottom","production":"2023","laser":"2019","footprints":"2024"},"geometry":{"type":"Polygon","coordinates":[[[13.80771912886848,51.15942785768176],[13.807781985625766,51.15943545871793],[13.80780190058785,51.159367461319924],[13.807738703801135,51.15935973992333],[13.80771912886848,51.15942785768176]]]}},{"type":"Feature","id":"DESNATPU1000F9Os","properties":{"id":"DESNATPU1000F9Os","height_m":9.666,"ground_m":178.407,"height_source":"LoD1 solid top minus bottom","production":"2023","laser":"2019","footprints":"2024"},"geometry":{"type":"Polygon","coordinates":[[[13.807719315379682,51.15837658971332],[13.80773227912336,51.158376856749264],[13.80773316891283,51.15835953694649],[13.807733970387584,51.158343978806535],[13.80772102094992,51.15834371191657],[13.807722544326648,51.15831457321272],[13.807665386699082,51.1583133970445],[13.80758953372256,51.1583118414109],[13.807586517792275,51.15831178368643],[13.807585185729568,51.15833738122767],[13.807583257214537,51.15837446531899],[13.807582600415754,51.158387183249594],[13.80771861287467,51.15838997263611],[13.807719315379682,51.15837658971332]]]}},{"type":"Feature","id":"DESNATGMwk0002Je","properties":{"id":"DESNATGMwk0002Je","height_m":5.601,"ground_m":179.452,"height_source":"LoD1 solid top minus bottom","production":"2023","laser":"2019","footprints":"2024"},"geometry":{"type":"Polygon","coordinates":[[[13.80766646988596,51.15853210079827],[13.807666501879877,51.15856969047906],[13.807697490412439,51.15856972759905],[13.807697526231989,51.158556688594814],[13.807714886816239,51.158556703694536],[13.807714947640228,51.1585321543294],[13.80766646988596,51.15853210079827]]]}},{"type":"Feature","id":"UUID_524c8c4f-d065-42b8-9200-a8798142c2ff","properties":{"id":"UUID_524c8c4f-d065-42b8-9200-a8798142c2ff","height_m":3.492,"ground_m":179.501,"height_source":"LoD1 solid top minus bottom","production":"2023","laser":"2019","footprints":"2024"},"geometry":{"type":"Polygon","coordinates":[[[13.807888106407306,51.158154608541835],[13.807892569000224,51.1581368215624],[13.807836825675492,51.158131271469365],[13.807832362366547,51.15814908541747],[13.807848152724599,51.158150649217674],[13.807888106407306,51.158154608541835]]]}},{"type":"Feature","id":"UUID_56d8a907-af9d-4004-bae6-1907638ec4e6","properties":{"id":"UUID_56d8a907-af9d-4004-bae6-1907638ec4e6","height_m":3.0,"ground_m":179.501,"height_source":"LoD1 solid top minus bottom","production":"2023","laser":"2019","footprints":"2024"},"geometry":{"type":"Polygon","coordinates":[[[13.807815085367102,51.15809312779208],[13.80783742191885,51.15809537881154],[13.807834478089323,51.1581069493495],[13.807900961575383,51.15811358910916],[13.807901807355671,51.15811018051513],[13.807861157340747,51.15810605223017],[13.807868286258303,51.15807747424666],[13.807820076155892,51.15807260343482],[13.807815085367102,51.15809312779208]]]}},{"type":"Feature","id":"UUID_8b3b5386-79f1-4a6f-9735-9c38bb4cf653","properties":{"id":"UUID_8b3b5386-79f1-4a6f-9735-9c38bb4cf653","height_m":3.21,"ground_m":179.501,"height_source":"LoD1 solid top minus bottom","production":"2023","laser":"2019","footprints":"2024"},"geometry":{"type":"Polygon","coordinates":[[[13.807828495607648,51.15813044017276],[13.807836825675492,51.158131271469365],[13.807892569000224,51.1581368215624],[13.807940139067654,51.158141559923635],[13.807946063612139,51.158118095482465],[13.807900961575383,51.15811358910916],[13.807834478089323,51.1581069493495],[13.807828495607648,51.15813044017276]]]}},{"type":"Feature","id":"DESNATP1WD0001r2","properties":{"id":"DESNATP1WD0001r2","height_m":3.0,"ground_m":180.043,"height_source":"LoD1 solid top minus bottom","production":"2023","laser":"2019","footprints":"2024"},"geometry":{"type":"Polygon","coordinates":[[[13.807752003486732,51.158430519222414],[13.807824441200355,51.15843309208159],[13.80782736881072,51.15840051450508],[13.807794964683199,51.15839936588452],[13.807754916619318,51.15839795049262],[13.807752003486732,51.158430519222414]]]}},{"type":"Feature","id":"DESNATPU1000D4N8","properties":{"id":"DESNATPU1000D4N8","height_m":2.614,"ground_m":182.866,"height_source":"LoD1 solid top minus bottom","production":"2023","laser":"2019","footprints":"2024"},"geometry":{"type":"Polygon","coordinates":[[[13.808530273520674,51.158067906846995],[13.808611790856522,51.15808438445001],[13.808637996420707,51.158033033457556],[13.808556333882336,51.158016644319986],[13.808530273520674,51.158067906846995]]]}},{"type":"Feature","id":"UUID_faa185e7-edcb-41c4-b1c1-4fc3fd880b56","properties":{"id":"UUID_faa185e7-edcb-41c4-b1c1-4fc3fd880b56","height_m":2.201,"ground_m":182.481,"height_source":"LoD1 solid top minus bottom","production":"2023","laser":"2019","footprints":"2024"},"geometry":{"type":"Polygon","coordinates":[[[13.808401898133088,51.15833433778403],[13.808370003082983,51.15833008304574],[13.808295795414907,51.15834958747699],[13.808392421412877,51.158362469223505],[13.808401898133088,51.15833433778403]]]}},{"type":"Feature","id":"UUID_0f840976-27fe-4db6-93d7-fc39de11b0d8","properties":{"id":"UUID_0f840976-27fe-4db6-93d7-fc39de11b0d8","height_m":2.106,"ground_m":182.481,"height_source":"LoD1 solid top minus bottom","production":"2023","laser":"2019","footprints":"2024"},"geometry":{"type":"Polygon","coordinates":[[[13.80831620334643,51.158289049928506],[13.808295795414907,51.15834958747699],[13.808370003082983,51.15833008304574],[13.808380919898509,51.15829767677663],[13.80831620334643,51.158289049928506]]]}},{"type":"Feature","id":"DESNATGMwk00029G","properties":{"id":"DESNATGMwk00029G","height_m":2.729,"ground_m":182.773,"height_source":"LoD1 solid top minus bottom","production":"2023","laser":"2019","footprints":"2024"},"geometry":{"type":"Polygon","coordinates":[[[13.801040522228694,51.16196303866622],[13.801146271129662,51.16197840294252],[13.801165121025587,51.16192708613996],[13.801059372235134,51.16191172188131],[13.801040522228694,51.16196303866622]]]}},{"type":"Feature","id":"DESNATGMwk0002Ig","properties":{"id":"DESNATGMwk0002Ig","height_m":2.233,"ground_m":179.789,"height_source":"LoD1 solid top minus bottom","production":"2023","laser":"2019","footprints":"2024"},"geometry":{"type":"Polygon","coordinates":[[[13.80785556578096,51.158531042721854],[13.807777759489941,51.158529800031495],[13.807776390444483,51.15856404814376],[13.807854197024781,51.15856528184509],[13.80785556578096,51.158531042721854]]]}},{"type":"Feature","id":"DESNATGMwk0002Iw","properties":{"id":"DESNATGMwk0002Iw","height_m":5.04,"ground_m":179.686,"height_source":"LoD1 solid top minus bottom","production":"2023","laser":"2019","footprints":"2024"},"geometry":{"type":"Polygon","coordinates":[[[13.807993955334783,51.15784567404301],[13.808025685896459,51.15785130308764],[13.808026717846024,51.157848993495506],[13.808040965371127,51.15781719672908],[13.808034573513156,51.157816070455446],[13.80798006634205,51.15780640539133],[13.80798484550891,51.15779575282082],[13.807947121822457,51.1577890644989],[13.807941902557037,51.157800701776196],[13.807916236228186,51.15779615068659],[13.807905460009945,51.15779424232188],[13.80789142529694,51.15782554664442],[13.807890620767218,51.15782735496379],[13.807902208426198,51.15782940649012],[13.807993955334783,51.15784567404301]]]}},{"type":"Feature","id":"DESNATGMwk00029J","properties":{"id":"DESNATGMwk00029J","height_m":4.776,"ground_m":182.664,"height_source":"LoD1 solid top minus bottom","production":"2023","laser":"2019","footprints":"2024"},"geometry":{"type":"Polygon","coordinates":[[[13.79995526803484,51.16177724474241],[13.799965862140358,51.1617476146771],[13.799662251657516,51.16170467982187],[13.799651643070407,51.16173430971194],[13.79995526803484,51.16177724474241]]]}},{"type":"Feature","id":"DESNATPU1000DHPY","properties":{"id":"DESNATPU1000DHPY","height_m":9.178,"ground_m":173.421,"height_source":"LoD1 solid top minus bottom","production":"2023","laser":"2019","footprints":"2024"},"geometry":{"type":"Polygon","coordinates":[[[13.807391186413481,51.159328355755186],[13.807401317629006,51.15924492616549],[13.807430986880412,51.15924678440703],[13.807440478078938,51.15917708009133],[13.807428654709122,51.15917639300305],[13.80731017674491,51.15917012207238],[13.80729002635396,51.15932319662011],[13.807391186413481,51.159328355755186]]]}},{"type":"Feature","id":"DESNATGMwk0002Is","properties":{"id":"DESNATGMwk0002Is","height_m":3.036,"ground_m":180.19,"height_source":"LoD1 solid top minus bottom","production":"2023","laser":"2019","footprints":"2024"},"geometry":{"type":"Polygon","coordinates":[[[13.808115981929395,51.15787781639422],[13.807989538283932,51.15785559290536],[13.807956960438338,51.15792889286735],[13.807992635943103,51.15793515564191],[13.808071659769368,51.1579490453006],[13.808083418795732,51.15795110754779],[13.80810656984633,51.157898997138275],[13.808115981929395,51.15787781639422]]]}},{"type":"Feature","id":"DESNATPU1000Bi1V","properties":{"id":"DESNATPU1000Bi1V","height_m":3.203,"ground_m":181.478,"height_source":"LoD1 solid top minus bottom","production":"2023","laser":"2019","footprints":"2024"},"geometry":{"type":"Polygon","coordinates":[[[13.801658341312354,51.160650568079454],[13.801559421959617,51.16060245098404],[13.801528705847387,51.160623305005636],[13.801514808826838,51.160616535013865],[13.801282372716873,51.16080458191681],[13.801254209328995,51.160827359481196],[13.801385112913614,51.16089234211527],[13.801414078720713,51.16086895224813],[13.801646376311522,51.160680723813584],[13.801630332826132,51.160672897687505],[13.801658341312354,51.160650568079454]]]}},{"type":"Feature","id":"DESNATPU1000DoeJ","properties":{"id":"DESNATPU1000DoeJ","height_m":6.97,"ground_m":180.047,"height_source":"LoD1 solid top minus bottom","production":"2023","laser":"2019","footprints":"2024"},"geometry":{"type":"Polygon","coordinates":[[[13.80800991387638,51.15896768107393],[13.808014921004734,51.15896816374963],[13.808025359548195,51.158926031567766],[13.808026635840536,51.15892090076835],[13.808048951854346,51.15892285477832],[13.80805423900127,51.15890192876397],[13.808031462549966,51.158899529421994],[13.808031676678118,51.15889843449866],[13.807919045504212,51.15888783534397],[13.807912474670438,51.15891528593887],[13.807902395769275,51.15895733184987],[13.807927303190922,51.15895972595715],[13.80800991387638,51.15896768107393]]]}},{"type":"Feature","id":"DESNATGMwk0002Ik","properties":{"id":"DESNATGMwk0002Ik","height_m":2.118,"ground_m":179.875,"height_source":"LoD1 solid top minus bottom","production":"2023","laser":"2019","footprints":"2024"},"geometry":{"type":"Polygon","coordinates":[[[13.807855834383123,51.15850397752738],[13.807777951394495,51.158502383341165],[13.807777759489941,51.158529800031495],[13.80785556578096,51.158531042721854],[13.807855834383123,51.15850397752738]]]}},{"type":"Feature","id":"DESNATPU1000HenQ","properties":{"id":"DESNATPU1000HenQ","height_m":7.679,"ground_m":182.454,"height_source":"LoD1 solid top minus bottom","production":"2023","laser":"2019","footprints":"2024"},"geometry":{"type":"Polygon","coordinates":[[[13.800678330942235,51.161068035095454],[13.801013739651513,51.16123527521881],[13.801159492616415,51.16111916306609],[13.800824434887286,51.160952187742225],[13.800678330942235,51.161068035095454]]]}},{"type":"Feature","id":"DESNATPU1000DUH9","properties":{"id":"DESNATPU1000DUH9","height_m":7.047,"ground_m":183.283,"height_source":"LoD1 solid top minus bottom","production":"2023","laser":"2019","footprints":"2024"},"geometry":{"type":"Polygon","coordinates":[[[13.799031615716409,51.16177705414158],[13.799060636527022,51.16169488932889],[13.799056180297548,51.16169025731352],[13.798926933518477,51.1616722038501],[13.79891956225408,51.16167518566597],[13.798900588989238,51.16172840729647],[13.79884299193273,51.16189211191419],[13.79897836636171,51.161911037726945],[13.798985735325406,51.16190814581045],[13.799014615659852,51.16182588964126],[13.799044681386908,51.16183015511866],[13.799052052668243,51.161827173295116],[13.799066425943407,51.161785864662875],[13.799061826726417,51.16178123117974],[13.799031615716409,51.16177705414158]]]}},{"type":"Feature","id":"DESNATGMwk0002JC","properties":{"id":"DESNATGMwk0002JC","height_m":2.392,"ground_m":181.302,"height_source":"LoD1 solid top minus bottom","production":"2023","laser":"2019","footprints":"2024"},"geometry":{"type":"Polygon","coordinates":[[[13.80810656984633,51.157898997138275],[13.808239662588987,51.157922915921695],[13.808249131636945,51.15790118719481],[13.808115981929395,51.15787781639422],[13.80810656984633,51.157898997138275]]]}},{"type":"Feature","id":"DESNATP1WD0001qu","properties":{"id":"DESNATP1WD0001qu","height_m":3.434,"ground_m":179.864,"height_source":"LoD1 solid top minus bottom","production":"2023","laser":"2019","footprints":"2024"},"geometry":{"type":"Polygon","coordinates":[[[13.808004407707378,51.1576287604711],[13.808100866178295,51.15764475222209],[13.808126997736592,51.157582411542805],[13.808030539385928,51.157566419813996],[13.808016856083142,51.157599076633886],[13.808004407707378,51.1576287604711]]]}},{"type":"Feature","id":"UUID_a9eb8986-327a-4197-b10b-1b1503d3f3c3","properties":{"id":"UUID_a9eb8986-327a-4197-b10b-1b1503d3f3c3","height_m":2.468,"ground_m":181.545,"height_source":"LoD1 solid top minus bottom","production":"2023","laser":"2019","footprints":"2024"},"geometry":{"type":"Polygon","coordinates":[[[13.808316112904892,51.15779913739932],[13.808328386030123,51.15777014418033],[13.80825079272164,51.157756799837045],[13.808235758251469,51.15775420963559],[13.808220982335685,51.157788204245605],[13.808313980731683,51.15780418754112],[13.808316155563205,51.15779914682662],[13.808316112904892,51.15779913739932]]]}},{"type":"Feature","id":"UUID_52c2eb69-c085-42d8-9ba2-385b123825c4","properties":{"id":"UUID_52c2eb69-c085-42d8-9ba2-385b123825c4","height_m":3.053,"ground_m":181.545,"height_source":"LoD1 solid top minus bottom","production":"2023","laser":"2019","footprints":"2024"},"geometry":{"type":"Polygon","coordinates":[[[13.808316112904892,51.15779913739932],[13.808316155563205,51.15779914682662],[13.808380514222483,51.157809982228336],[13.808430548842404,51.15781840551641],[13.808436485620708,51.1578044464261],[13.808453500868488,51.15780730857519],[13.808459894562285,51.15779226602545],[13.808341642232621,51.15777237453093],[13.808328386030123,51.15777014418033],[13.808316112904892,51.15779913739932]]]}},{"type":"Feature","id":"UUID_96d9c7b1-3454-4e8a-b6ad-47315a072470","properties":{"id":"UUID_96d9c7b1-3454-4e8a-b6ad-47315a072470","height_m":2.886,"ground_m":181.545,"height_source":"LoD1 solid top minus bottom","production":"2023","laser":"2019","footprints":"2024"},"geometry":{"type":"Polygon","coordinates":[[[13.808424337812736,51.15783301827728],[13.808430548842404,51.15781840551641],[13.808380514222483,51.157809982228336],[13.808374288649947,51.15782460383115],[13.808424337812736,51.15783301827728]]]}},{"type":"Feature","id":"DESNATP140000whg","properties":{"id":"DESNATP140000whg","height_m":5.939,"ground_m":182.72,"height_source":"LoD1 solid top minus bottom","production":"2023","laser":"2019","footprints":"2024"},"geometry":{"type":"Polygon","coordinates":[[[13.799799180237937,51.16158436015539],[13.79959200708843,51.161555175217956],[13.79954468065376,51.161688050797835],[13.799965862140358,51.1617476146771],[13.800013797969582,51.16161435849931],[13.799799180237937,51.16158436015539]]]}},{"type":"Feature","id":"DESNATP140000whl","properties":{"id":"DESNATP140000whl","height_m":6.078,"ground_m":182.539,"height_source":"LoD1 solid top minus bottom","production":"2023","laser":"2019","footprints":"2024"},"geometry":{"type":"Polygon","coordinates":[[[13.799232971009413,51.16025397342418],[13.799104472706501,51.16035650156803],[13.799358614228776,51.16048284974242],[13.799487803099773,51.160380706102266],[13.799232971009413,51.16025397342418]]]}},{"type":"Feature","id":"DESNATPU1000Ewfm","properties":{"id":"DESNATPU1000Ewfm","height_m":5.987,"ground_m":183.914,"height_source":"LoD1 solid top minus bottom","production":"2023","laser":"2019","footprints":"2024"},"geometry":{"type":"Polygon","coordinates":[[[13.801902182839964,51.16375002370783],[13.801799501454378,51.16372595068755],[13.801767062973779,51.16377676866961],[13.801751535944929,51.16380250848426],[13.801770327258046,51.16380754803038],[13.801852832419536,51.1638281500688],[13.801902182839964,51.16375002370783]]]}},{"type":"Feature","id":"UUID_6c2d8dc3-983e-421c-b7a4-ced093205dc3","properties":{"id":"UUID_6c2d8dc3-983e-421c-b7a4-ced093205dc3","height_m":5.052,"ground_m":180.242,"height_source":"LoD1 solid top minus bottom","production":"2023","laser":"2019","footprints":"2024"},"geometry":{"type":"Polygon","coordinates":[[[13.808289828210091,51.15753052833829],[13.80830241034467,51.157502860191805],[13.808194539740791,51.157483011371184],[13.808182116596626,51.157511166730586],[13.808289828210091,51.15753052833829]]]}},{"type":"Feature","id":"UUID_b9bf8b94-5fd2-4404-b8a4-d7f61dffba54","properties":{"id":"UUID_b9bf8b94-5fd2-4404-b8a4-d7f61dffba54","height_m":4.246,"ground_m":180.242,"height_source":"LoD1 solid top minus bottom","production":"2023","laser":"2019","footprints":"2024"},"geometry":{"type":"Polygon","coordinates":[[[13.808289828210091,51.15753052833829],[13.808124296492757,51.157500775538736],[13.808098957261963,51.15755567836168],[13.808264648208567,51.157585918422726],[13.808289828210091,51.15753052833829]]]}}]}