{"type":"FeatureCollection","features":[{"type":"Feature","id":"DESNATP18R0003Mr","properties":{"id":"DESNATP18R0003Mr","height_m":24.605,"ground_m":205.907,"height_source":"LoD1 solid top minus bottom","production":"2023","laser":"2016","footprints":"2021"},"geometry":{"type":"Polygon","coordinates":[[[13.813870481877641,51.105527527917616],[13.813802002905337,51.1055453941942],[13.81384810229738,51.10560438666364],[13.813916986585744,51.1055807331455],[13.813870481877641,51.105527527917616]]]}},{"type":"Feature","id":"DESNATP18R0003N0","properties":{"id":"DESNATP18R0003N0","height_m":3.479,"ground_m":173.357,"height_source":"LoD1 solid top minus bottom","production":"2023","laser":"2016","footprints":"2021"},"geometry":{"type":"Polygon","coordinates":[[[13.800168359339548,51.11272319823964],[13.800132526383132,51.11268357720845],[13.800045650278133,51.11271777532722],[13.800080603088746,51.112754419747816],[13.800168359339548,51.11272319823964]]]}}]}