{"type":"FeatureCollection","features":[{"type":"Feature","id":"DESNATP13q0001Cf","properties":{"id":"DESNATP13q0001Cf","height_m":22.288,"ground_m":234.523,"height_source":"LoD1 solid top minus bottom","production":"2021","laser":"2016","footprints":"2023"},"geometry":{"type":"Polygon","coordinates":[[[13.822120639766336,51.06788360628202],[13.82202339492472,51.0678838133157],[13.822022907655413,51.06793673998427],[13.822118438738652,51.06793770272903],[13.822120639766336,51.06788360628202]]]}}]}