{"type":"FeatureCollection","features":[{"type":"Feature","id":"DESNATPU1000GRVg","properties":{"id":"DESNATPU1000GRVg","height_m":26.689,"ground_m":236.294,"height_source":"LoD1 solid top minus bottom","production":"2023","laser":"2016","footprints":"2021"},"geometry":{"type":"Polygon","coordinates":[[[13.825868383029995,51.091879912358024],[13.825953834951905,51.09188328853277],[13.825959193812842,51.091829565676576],[13.825873744266298,51.09182609960169],[13.825868383029995,51.091879912358024]]]}},{"type":"Feature","id":"DESNATPU1000BkH8","properties":{"id":"DESNATPU1000BkH8","height_m":6.545,"ground_m":252.465,"height_source":"LoD1 solid top minus bottom","production":"2023","laser":"2016","footprints":"2021"},"geometry":{"type":"Polygon","coordinates":[[[13.806694415044003,51.093572268630126],[13.806711542762663,51.09351713795109],[13.806634386938184,51.09350762739303],[13.806582355943052,51.093675980388],[13.806656665920562,51.09368510221901],[13.80667550997776,51.09362432362371],[13.8067808531708,51.09363726932395],[13.806797195236774,51.09358491837157],[13.806694415044003,51.093572268630126]]]}},{"type":"Feature","id":"DESNATP18R0003Mw","properties":{"id":"DESNATP18R0003Mw","height_m":22.096,"ground_m":196.889,"height_source":"LoD1 solid top minus bottom","production":"2023","laser":"2016","footprints":"2021"},"geometry":{"type":"Polygon","coordinates":[[[13.817875312330866,51.10334944436858],[13.817792765403105,51.1033260109448],[13.817759224040568,51.10338157966544],[13.817849355167013,51.10340391174865],[13.817875312330866,51.10334944436858]]]}},{"type":"Feature","id":"DESNATP18R0003N2","properties":{"id":"DESNATP18R0003N2","height_m":23.192,"ground_m":232.807,"height_source":"LoD1 solid top minus bottom","production":"2023","laser":"2016","footprints":"2021"},"geometry":{"type":"Polygon","coordinates":[[[13.808306085801997,51.10100798628841],[13.808221783634815,51.1009792853984],[13.808186683894734,51.10102176007912],[13.80826977050281,51.10105329930621],[13.808306085801997,51.10100798628841]]]}},{"type":"Feature","id":"DESNATP18R0003N4","properties":{"id":"DESNATP18R0003N4","height_m":2.874,"ground_m":256.847,"height_source":"LoD1 solid top minus bottom","production":"2023","laser":"2016","footprints":"2021"},"geometry":{"type":"Polygon","coordinates":[[[13.806749660678497,51.0933172851131],[13.80668032205207,51.09330867271513],[13.806664432871763,51.09337560554982],[13.806734551153928,51.09338167196935],[13.806749660678497,51.0933172851131]]]}},{"type":"Feature","id":"DESNATP18R0003OV","properties":{"id":"DESNATP18R0003OV","height_m":3.0,"ground_m":257.345,"height_source":"LoD1 solid top minus bottom","production":"2023","laser":"2016","footprints":"2021"},"geometry":{"type":"Polygon","coordinates":[[[13.806580144638415,51.09382456325943],[13.806653193967596,51.093829409651775],[13.80666638175478,51.093769787344534],[13.806591194066163,51.093764244673736],[13.806580144638415,51.09382456325943]]]}}]}