{"type":"FeatureCollection","features":[{"type":"Feature","id":"DESNATPU1000HEAz","properties":{"id":"DESNATPU1000HEAz","height_m":6.044,"ground_m":212.628,"height_source":"LoD1 solid top minus bottom","production":"2023","laser":"2017","footprints":"2021"},"geometry":{"type":"Polygon","coordinates":[[[13.843399085610335,51.09406310555504],[13.843265470726141,51.09406672959129],[13.843269384856539,51.09412162403265],[13.843403002141851,51.09411791008775],[13.843399085610335,51.09406310555504]]]}},{"type":"Feature","id":"DESNATPU1000HU9o","properties":{"id":"DESNATPU1000HU9o","height_m":7.997,"ground_m":212.893,"height_source":"LoD1 solid top minus bottom","production":"2023","laser":"2017","footprints":"2021"},"geometry":{"type":"Polygon","coordinates":[[[13.84359981372614,51.094118687977726],[13.843916201288065,51.09409870578665],[13.843904601309859,51.09402557003048],[13.84358821424311,51.09404555219359],[13.84359981372614,51.094118687977726]]]}},{"type":"Feature","id":"DESNATPU1000Fsuq","properties":{"id":"DESNATPU1000Fsuq","height_m":9.25,"ground_m":215.804,"height_source":"LoD1 solid top minus bottom","production":"2023","laser":"2017","footprints":"2021"},"geometry":{"type":"Polygon","coordinates":[[[13.842328548928684,51.09421231948413],[13.84213291027214,51.094337809146424],[13.842278044354574,51.09442764511819],[13.842473680760415,51.09430224512],[13.842328548928684,51.09421231948413]]]}},{"type":"Feature","id":"UUID_d1e8a75f-59c0-45d4-a90c-a1b241832eaa","properties":{"id":"UUID_d1e8a75f-59c0-45d4-a90c-a1b241832eaa","height_m":7.661,"ground_m":213.824,"height_source":"LoD1 solid top minus bottom","production":"2023","laser":"2017","footprints":"2021"},"geometry":{"type":"Polygon","coordinates":[[[13.844040061074708,51.093801911167354],[13.843894805235996,51.09383658065942],[13.84394498896162,51.09390924365662],[13.844037472810365,51.094043160778796],[13.844177875255756,51.09400785859697],[13.844040061074708,51.093801911167354]]]}},{"type":"Feature","id":"UUID_4dd8b008-debe-4f4d-9f23-43508f9aa199","properties":{"id":"UUID_4dd8b008-debe-4f4d-9f23-43508f9aa199","height_m":10.128,"ground_m":213.824,"height_source":"LoD1 solid top minus bottom","production":"2023","laser":"2017","footprints":"2021"},"geometry":{"type":"Polygon","coordinates":[[[13.843544953013454,51.09367021692629],[13.84375700794024,51.09396268997522],[13.84389217593731,51.09392426084903],[13.843697076060804,51.09362873634501],[13.843544953013454,51.09367021692629]]]}},{"type":"Feature","id":"UUID_5117c208-d91f-406f-95d1-ef271962df1a","properties":{"id":"UUID_5117c208-d91f-406f-95d1-ef271962df1a","height_m":5.106,"ground_m":213.824,"height_source":"LoD1 solid top minus bottom","production":"2023","laser":"2017","footprints":"2021"},"geometry":{"type":"Polygon","coordinates":[[[13.84389217593731,51.09392426084903],[13.84394498896162,51.09390924365662],[13.843894805235996,51.09383658065942],[13.843842526877195,51.093849058171344],[13.84389217593731,51.09392426084903]]]}},{"type":"Feature","id":"DESNATPU1000DQDQ","properties":{"id":"DESNATPU1000DQDQ","height_m":5.243,"ground_m":215.497,"height_source":"LoD1 solid top minus bottom","production":"2023","laser":"2017","footprints":"2021"},"geometry":{"type":"Polygon","coordinates":[[[13.84210337700083,51.09423777815801],[13.841995473390243,51.09429830966102],[13.84204536258428,51.09433063811907],[13.842147069557088,51.09426662795755],[13.84210337700083,51.09423777815801]]]}},{"type":"Feature","id":"DESNATPU1000ITnt","properties":{"id":"DESNATPU1000ITnt","height_m":5.567,"ground_m":215.559,"height_source":"LoD1 solid top minus bottom","production":"2023","laser":"2017","footprints":"2021"},"geometry":{"type":"Polygon","coordinates":[[[13.842700709647746,51.09410058238002],[13.84251895771404,51.09420759518123],[13.842579912938396,51.09424857607618],[13.842761809911327,51.09414147468915],[13.842700709647746,51.09410058238002]]]}},{"type":"Feature","id":"UUID_9723335c-1169-4e07-9d64-6192880e9fcb","properties":{"id":"UUID_9723335c-1169-4e07-9d64-6192880e9fcb","height_m":7.303,"ground_m":215.67,"height_source":"LoD1 solid top minus bottom","production":"2023","laser":"2017","footprints":"2021"},"geometry":{"type":"Polygon","coordinates":[[[13.841482673000892,51.09469229993405],[13.84159657874937,51.09472310468868],[13.841676787508884,51.09460507835001],[13.841563164620196,51.094574393380626],[13.841482673000892,51.09469229993405]]]}},{"type":"Feature","id":"UUID_b58a887a-a4d8-42f3-ace9-3a3538f807a4","properties":{"id":"UUID_b58a887a-a4d8-42f3-ace9-3a3538f807a4","height_m":7.471,"ground_m":215.67,"height_source":"LoD1 solid top minus bottom","production":"2023","laser":"2017","footprints":"2021"},"geometry":{"type":"Polygon","coordinates":[[[13.841632457666867,51.09467031310239],[13.841697425581158,51.094687863162775],[13.841741897448744,51.09462265677155],[13.841676787508884,51.09460507835001],[13.841632457666867,51.09467031310239]]]}},{"type":"Feature","id":"DESNATPU1000GS59","properties":{"id":"DESNATPU1000GS59","height_m":4.03,"ground_m":214.225,"height_source":"LoD1 solid top minus bottom","production":"2023","laser":"2017","footprints":"2021"},"geometry":{"type":"Polygon","coordinates":[[[13.842820037776793,51.09446335266099],[13.843027824668392,51.09441181247332],[13.842990326433602,51.094352179213125],[13.84278268254246,51.09440372074936],[13.842820037776793,51.09446335266099]]]}}]}