{"type":"FeatureCollection","features":[{"type":"Feature","id":"DESNATPU1000Bt3C","properties":{"id":"DESNATPU1000Bt3C","height_m":8.902,"ground_m":231.32,"height_source":"LoD1 solid top minus bottom","production":"2022","laser":"2017","footprints":"2021"},"geometry":{"type":"Polygon","coordinates":[[[13.83804640053915,51.12166094169696],[13.838027586333904,51.121676132259715],[13.838133316006306,51.12172781177987],[13.838217032036175,51.121660209109756],[13.838180893821445,51.12164258406251],[13.83819110577451,51.12163423238635],[13.838148048827039,51.1216133012127],[13.838138419573646,51.121621209039844],[13.838111032498352,51.121607897493845],[13.838079235707127,51.121633660379196],[13.83806723727583,51.12162778582378],[13.838033980302832,51.12165479316562],[13.83804640053915,51.12166094169696]]]}},{"type":"Feature","id":"DESNATPU1000DQ7h","properties":{"id":"DESNATPU1000DQ7h","height_m":7.829,"ground_m":231.048,"height_source":"LoD1 solid top minus bottom","production":"2022","laser":"2017","footprints":"2021"},"geometry":{"type":"Polygon","coordinates":[[[13.839807385862887,51.1218013396011],[13.840000253246975,51.1218450511336],[13.840057083523238,51.12174570598499],[13.839998757418408,51.12173248364926],[13.840004674636523,51.121722155780006],[13.839908667469151,51.121700394214635],[13.839902749782151,51.12171074005989],[13.839864216045756,51.121702012528765],[13.839807385862887,51.1218013396011]]]}},{"type":"Feature","id":"DESNATPU1000Dmq5","properties":{"id":"DESNATPU1000Dmq5","height_m":7.279,"ground_m":232.056,"height_source":"LoD1 solid top minus bottom","production":"2022","laser":"2017","footprints":"2021"},"geometry":{"type":"Polygon","coordinates":[[[13.835258703918743,51.121689951049],[13.835458139969337,51.1217143292658],[13.835480703364132,51.12164099365568],[13.83528141047238,51.12161661690198],[13.835258703918743,51.121689951049]]]}},{"type":"Feature","id":"UUID_753db6c5-998a-422b-9603-c0185495c41c","properties":{"id":"UUID_753db6c5-998a-422b-9603-c0185495c41c","height_m":2.632,"ground_m":233.014,"height_source":"LoD1 solid top minus bottom","production":"2022","laser":"2017","footprints":"2021"},"geometry":{"type":"Polygon","coordinates":[[[13.838561000541958,51.12106084526735],[13.838597276429468,51.121079235947015],[13.83865453688522,51.12103461633111],[13.838618131313059,51.12101626934449],[13.838561000541958,51.12106084526735]]]}},{"type":"Feature","id":"UUID_75b3ab21-69e8-4c1b-80f1-cb29845d1ef4","properties":{"id":"UUID_75b3ab21-69e8-4c1b-80f1-cb29845d1ef4","height_m":2.594,"ground_m":233.014,"height_source":"LoD1 solid top minus bottom","production":"2022","laser":"2017","footprints":"2021"},"geometry":{"type":"Polygon","coordinates":[[[13.838538791426988,51.12108607401929],[13.838568842959582,51.12110139032649],[13.838597276429468,51.121079235947015],[13.838567109941524,51.12106394548335],[13.838538791426988,51.12108607401929]]]}},{"type":"Feature","id":"UUID_98f2bb26-0e7e-4fbd-8e21-4608186be6e6","properties":{"id":"UUID_98f2bb26-0e7e-4fbd-8e21-4608186be6e6","height_m":4.424,"ground_m":233.014,"height_source":"LoD1 solid top minus bottom","production":"2022","laser":"2017","footprints":"2021"},"geometry":{"type":"Polygon","coordinates":[[[13.838453237839493,51.12115293925126],[13.838538791426988,51.12108607401929],[13.838567109941524,51.12106394548335],[13.838561000541958,51.12106084526735],[13.838443184838994,51.12100113248792],[13.838329358219703,51.121090018675744],[13.838453237839493,51.12115293925126]]]}},{"type":"Feature","id":"DESNATPU1000E4gI","properties":{"id":"DESNATPU1000E4gI","height_m":3.062,"ground_m":232.171,"height_source":"LoD1 solid top minus bottom","production":"2022","laser":"2017","footprints":"2021"},"geometry":{"type":"Polygon","coordinates":[[[13.838974874375449,51.121400293275734],[13.838911342856818,51.12144939209181],[13.838984583508566,51.121486090129764],[13.839047688687458,51.12143689711436],[13.838999712715296,51.12141268004313],[13.838974874375449,51.121400293275734]]]}},{"type":"Feature","id":"UUID_2a563ecc-3367-49e3-8da0-4826d05093cb","properties":{"id":"UUID_2a563ecc-3367-49e3-8da0-4826d05093cb","height_m":7.603,"ground_m":232.272,"height_source":"LoD1 solid top minus bottom","production":"2022","laser":"2017","footprints":"2021"},"geometry":{"type":"Polygon","coordinates":[[[13.83228218844199,51.10942792335918],[13.832347223040673,51.10926778294319],[13.83219213838559,51.10924294289697],[13.83214918521475,51.109348807877815],[13.832127174924361,51.10940307494691],[13.83228218844199,51.10942792335918]]]}},{"type":"Feature","id":"UUID_19b9a7ed-dd44-40d8-8e8f-15ff4f29bac5","properties":{"id":"UUID_19b9a7ed-dd44-40d8-8e8f-15ff4f29bac5","height_m":4.805,"ground_m":232.272,"height_source":"LoD1 solid top minus bottom","production":"2022","laser":"2017","footprints":"2021"},"geometry":{"type":"Polygon","coordinates":[[[13.832039317517864,51.10938898703002],[13.832127174924361,51.10940307494691],[13.83214918521475,51.109348807877815],[13.832061404072176,51.10933453189162],[13.832039317517864,51.10938898703002]]]}},{"type":"Feature","id":"DESNATP18R0003Mu","properties":{"id":"DESNATP18R0003Mu","height_m":24.376,"ground_m":239.012,"height_source":"LoD1 solid top minus bottom","production":"2022","laser":"2017","footprints":"2021"},"geometry":{"type":"Polygon","coordinates":[[[13.838878030243881,51.11386212951741],[13.838801556485695,51.113821523356606],[13.838752425174313,51.11385910157256],[13.838826130948837,51.11389671268111],[13.838878030243881,51.11386212951741]]]}},{"type":"Feature","id":"DESNATPU1000IsB0","properties":{"id":"DESNATPU1000IsB0","height_m":2.257,"ground_m":230.282,"height_source":"LoD1 solid top minus bottom","production":"2022","laser":"2017","footprints":"2021"},"geometry":{"type":"Polygon","coordinates":[[[13.840280814492672,51.12165479672765],[13.840245214324826,51.121695540286844],[13.84026138330489,51.121740304449325],[13.840295650725693,51.12175278445664],[13.840317459910725,51.121726382358496],[13.840357608009839,51.12174368680102],[13.840398001176364,51.121699843294564],[13.840280814492672,51.12165479672765]]]}},{"type":"Feature","id":"DESNATP18R0003My","properties":{"id":"DESNATP18R0003My","height_m":26.686,"ground_m":229.527,"height_source":"LoD1 solid top minus bottom","production":"2022","laser":"2017","footprints":"2021"},"geometry":{"type":"Polygon","coordinates":[[[13.844752508658372,51.1165734098635],[13.844639402537508,51.11656159099717],[13.844630570727695,51.116612654239084],[13.8447379169307,51.116627995301485],[13.844752508658372,51.1165734098635]]]}},{"type":"Feature","id":"UUID_798ba3de-0df8-467f-84d7-0d60924747f4","properties":{"id":"UUID_798ba3de-0df8-467f-84d7-0d60924747f4","height_m":6.156,"ground_m":232.171,"height_source":"LoD1 solid top minus bottom","production":"2022","laser":"2017","footprints":"2021"},"geometry":{"type":"Polygon","coordinates":[[[13.839476008577467,51.121508054588695],[13.83946079546083,51.121535232421216],[13.839433823932083,51.12158344438261],[13.839555324025651,51.12161027942526],[13.839557238415845,51.12160687220458],[13.839575122613438,51.121575170560625],[13.83957534983184,51.121575226771746],[13.839582636271976,51.121562151752],[13.83959779195875,51.12153498232674],[13.839571646096852,51.12152914738383],[13.839476008577467,51.121508054588695]]]}},{"type":"Feature","id":"UUID_184226bd-f3b9-4c51-9620-160a5c10edcc","properties":{"id":"UUID_184226bd-f3b9-4c51-9620-160a5c10edcc","height_m":4.489,"ground_m":232.171,"height_source":"LoD1 solid top minus bottom","production":"2022","laser":"2017","footprints":"2021"},"geometry":{"type":"Polygon","coordinates":[[[13.839557238415845,51.12160687220458],[13.839583977333087,51.121612991809634],[13.83960219873836,51.12158151832557],[13.839575122613438,51.121575170560625],[13.839557238415845,51.12160687220458]]]}},{"type":"Feature","id":"DESNATPU1000JGCb","properties":{"id":"DESNATPU1000JGCb","height_m":8.816,"ground_m":232.835,"height_source":"LoD1 solid top minus bottom","production":"2022","laser":"2017","footprints":"2021"},"geometry":{"type":"Polygon","coordinates":[[[13.837198386067156,51.121249189146965],[13.837212087576258,51.12123844422662],[13.837247504057231,51.12125633218117],[13.83733074003015,51.12119079368713],[13.837320721464767,51.121185748083406],[13.837251015618516,51.121150612904344],[13.837266907307672,51.121138001288564],[13.837222458809334,51.12111561709945],[13.83720642651844,51.121128137384055],[13.837193022354564,51.12112134948826],[13.837110956243498,51.12118582039512],[13.83714933648195,51.12120517668711],[13.837134319927028,51.12121707757373],[13.837198386067156,51.121249189146965]]]}},{"type":"Feature","id":"DESNATPU1000DId2","properties":{"id":"DESNATPU1000DId2","height_m":7.65,"ground_m":232.023,"height_source":"LoD1 solid top minus bottom","production":"2022","laser":"2017","footprints":"2021"},"geometry":{"type":"Polygon","coordinates":[[[13.837687638937112,51.12149991390204],[13.837682537443715,51.121503909908945],[13.837720634729845,51.12152317327101],[13.837726318927439,51.12151873341926],[13.8377579283455,51.121534604980944],[13.837837221270973,51.12147244416523],[13.837783748981154,51.121445204374105],[13.837737887174104,51.12142217684748],[13.83772535113937,51.12143203414315],[13.837657866385776,51.121484869923485],[13.837687638937112,51.12149991390204]]]}},{"type":"Feature","id":"DESNATP1aJ00019f","properties":{"id":"DESNATP1aJ00019f","height_m":2.457,"ground_m":232.688,"height_source":"LoD1 solid top minus bottom","production":"2022","laser":"2017","footprints":"2021"},"geometry":{"type":"Polygon","coordinates":[[[13.83674824694557,51.121349494949115],[13.836672419759756,51.12130036883091],[13.83663582228648,51.121328934253086],[13.836605233837131,51.121353782514305],[13.836674600767571,51.1213915945318],[13.83674824694557,51.121349494949115]]]}},{"type":"Feature","id":"DESNATPU1000Ho8e","properties":{"id":"DESNATPU1000Ho8e","height_m":2.095,"ground_m":233.802,"height_source":"LoD1 solid top minus bottom","production":"2022","laser":"2017","footprints":"2021"},"geometry":{"type":"Polygon","coordinates":[[[13.83711466339199,51.12094143556865],[13.837070217591366,51.12098155064089],[13.83713123827322,51.12101543050589],[13.837179530865617,51.12097690041025],[13.83714649696697,51.120959737558614],[13.83711466339199,51.12094143556865]]]}},{"type":"Feature","id":"UUID_56c1e516-a16f-4266-ba0b-d797a30c7eb3","properties":{"id":"UUID_56c1e516-a16f-4266-ba0b-d797a30c7eb3","height_m":4.246,"ground_m":232.419,"height_source":"LoD1 solid top minus bottom","production":"2022","laser":"2017","footprints":"2021"},"geometry":{"type":"Polygon","coordinates":[[[13.838999376886985,51.12120377623313],[13.838973279890007,51.12122222193715],[13.839019267746819,51.121248217821766],[13.839045452707248,51.121229683053905],[13.838999376886985,51.12120377623313]]]}},{"type":"Feature","id":"UUID_79e1fc86-2319-4571-8694-b066c9d7c285","properties":{"id":"UUID_79e1fc86-2319-4571-8694-b066c9d7c285","height_m":3.78,"ground_m":232.419,"height_source":"LoD1 solid top minus bottom","production":"2022","laser":"2017","footprints":"2021"},"geometry":{"type":"Polygon","coordinates":[[[13.839093105259275,51.12128959792501],[13.839092640009193,51.12128991704325],[13.839128777842612,51.12131041047768],[13.839128588750272,51.12131054349095],[13.839167056464374,51.121332148160846],[13.83921593697332,51.121297471943805],[13.839141251219905,51.121255723789474],[13.839093105259275,51.12128959792501]]]}},{"type":"Feature","id":"UUID_65ec29f1-120b-481b-aeaf-b13c74bf1545","properties":{"id":"UUID_65ec29f1-120b-481b-aeaf-b13c74bf1545","height_m":4.073,"ground_m":232.419,"height_source":"LoD1 solid top minus bottom","production":"2022","laser":"2017","footprints":"2021"},"geometry":{"type":"Polygon","coordinates":[[[13.839128588750272,51.12131054349095],[13.839128777842612,51.12131041047768],[13.839092640009193,51.12128991704325],[13.839093105259275,51.12128959792501],[13.839019267746819,51.121248217821766],[13.838973279890007,51.12122222193715],[13.838903993352197,51.121271191665834],[13.838991880106224,51.121320427075624],[13.839060363567217,51.1213587864468],[13.839128588750272,51.12131054349095]]]}},{"type":"Feature","id":"UUID_0cf80490-15ad-419b-a6a1-8d1a307d8125","properties":{"id":"UUID_0cf80490-15ad-419b-a6a1-8d1a307d8125","height_m":3.976,"ground_m":232.419,"height_source":"LoD1 solid top minus bottom","production":"2022","laser":"2017","footprints":"2021"},"geometry":{"type":"Polygon","coordinates":[[[13.838903993352197,51.121271191665834],[13.838873401355041,51.121292812101],[13.838961189921054,51.12134197461701],[13.838991880106224,51.121320427075624],[13.838903993352197,51.121271191665834]]]}},{"type":"Feature","id":"DESNATPU1000IOti","properties":{"id":"DESNATPU1000IOti","height_m":2.708,"ground_m":233.035,"height_source":"LoD1 solid top minus bottom","production":"2022","laser":"2017","footprints":"2021"},"geometry":{"type":"Polygon","coordinates":[[[13.832788927363131,51.108984246241775],[13.832758142076685,51.10907215753945],[13.832855654913303,51.1090857208047],[13.832886435495281,51.10899798928968],[13.832788927363131,51.108984246241775]]]}},{"type":"Feature","id":"DESNATPU1000CBIk","properties":{"id":"DESNATPU1000CBIk","height_m":3.743,"ground_m":244.473,"height_source":"LoD1 solid top minus bottom","production":"2022","laser":"2017","footprints":"2021"},"geometry":{"type":"Polygon","coordinates":[[[13.850467643295678,51.11079984550992],[13.85049577209031,51.11073132782299],[13.850379098637053,51.110712375141624],[13.850350971913196,51.1107808028945],[13.850467643295678,51.11079984550992]]]}},{"type":"Feature","id":"DESNATPU1000Datb","properties":{"id":"DESNATPU1000Datb","height_m":7.125,"ground_m":233.5,"height_source":"LoD1 solid top minus bottom","production":"2022","laser":"2017","footprints":"2021"},"geometry":{"type":"Polygon","coordinates":[[[13.837046019291863,51.12102906123515],[13.836937258009506,51.12097303406394],[13.83694527077832,51.12096690879715],[13.83690422174891,51.12094572734959],[13.83689619768925,51.12095230213649],[13.836882798137616,51.120945334396396],[13.836783277777368,51.121022041388464],[13.836946070453465,51.121105764102936],[13.837046019291863,51.12102906123515]]]}},{"type":"Feature","id":"DESNATPU1000EQoB","properties":{"id":"DESNATPU1000EQoB","height_m":3.825,"ground_m":231.346,"height_source":"LoD1 solid top minus bottom","production":"2022","laser":"2017","footprints":"2021"},"geometry":{"type":"Polygon","coordinates":[[[13.836796894969499,51.12165184596891],[13.836725747099141,51.121708241855735],[13.836798560090738,51.12174484708464],[13.836869995901003,51.12168836409109],[13.836796894969499,51.12165184596891]]]}},{"type":"Feature","id":"DESNATPU1000E2Da","properties":{"id":"DESNATPU1000E2Da","height_m":2.645,"ground_m":234.189,"height_source":"LoD1 solid top minus bottom","production":"2022","laser":"2017","footprints":"2021"},"geometry":{"type":"Polygon","coordinates":[[[13.837847556286723,51.12084989210315],[13.837840536943345,51.12083921094879],[13.837965953709963,51.12080664481181],[13.837935535735404,51.12076038980455],[13.837783365531278,51.120799974090865],[13.837820947826764,51.12085682180772],[13.837847556286723,51.12084989210315]]]}},{"type":"Feature","id":"DESNATPU1000FpNj","properties":{"id":"DESNATPU1000FpNj","height_m":7.921,"ground_m":233.075,"height_source":"LoD1 solid top minus bottom","production":"2022","laser":"2017","footprints":"2021"},"geometry":{"type":"Polygon","coordinates":[[[13.832555981982443,51.10976473718383],[13.83284470169667,51.10911222992985],[13.832701054001069,51.10908705508959],[13.832412046793499,51.10973955912704],[13.832555981982443,51.10976473718383]]]}},{"type":"Feature","id":"DESNATP18R0003Ms","properties":{"id":"DESNATP18R0003Ms","height_m":23.82,"ground_m":239.373,"height_source":"LoD1 solid top minus bottom","production":"2022","laser":"2017","footprints":"2021"},"geometry":{"type":"Polygon","coordinates":[[[13.835844327939903,51.11610603248397],[13.83580491396384,51.11601998447658],[13.835696675989782,51.11603972487167],[13.83574565036245,51.11612170448451],[13.835844327939903,51.11610603248397]]]}},{"type":"Feature","id":"DESNATP1aJ00019e","properties":{"id":"DESNATP1aJ00019e","height_m":2.595,"ground_m":233.922,"height_source":"LoD1 solid top minus bottom","production":"2022","laser":"2017","footprints":"2021"},"geometry":{"type":"Polygon","coordinates":[[[13.83456163976045,51.12149378111847],[13.834444661121543,51.12148499833212],[13.834439461946866,51.12151160088551],[13.834503539069264,51.12151937079593],[13.834504416409127,51.12154412746495],[13.834562678154413,51.121542801710355],[13.83456163976045,51.12149378111847]]]}},{"type":"Feature","id":"DESNATPU1000H5JP","properties":{"id":"DESNATPU1000H5JP","height_m":7.241,"ground_m":230.98,"height_source":"LoD1 solid top minus bottom","production":"2022","laser":"2017","footprints":"2021"},"geometry":{"type":"Polygon","coordinates":[[[13.839358723707587,51.12174636614641],[13.839502424245094,51.12177683882301],[13.839550096469498,51.121687744633036],[13.83940625557168,51.12165718069358],[13.839358723707587,51.12174636614641]]]}},{"type":"Feature","id":"UUID_d46b0d48-6270-4cde-a694-46e38ce8ed90","properties":{"id":"UUID_d46b0d48-6270-4cde-a694-46e38ce8ed90","height_m":6.074,"ground_m":232.578,"height_source":"LoD1 solid top minus bottom","production":"2022","laser":"2017","footprints":"2021"},"geometry":{"type":"Polygon","coordinates":[[[13.838213477644436,51.1212402595438],[13.838234555106013,51.121223697568354],[13.838121526565933,51.121166819766806],[13.83810053593123,51.12118333762132],[13.838213477644436,51.1212402595438]]]}},{"type":"Feature","id":"UUID_4870b5f4-ec02-40bc-ac38-d9d0d27f3543","properties":{"id":"UUID_4870b5f4-ec02-40bc-ac38-d9d0d27f3543","height_m":5.278,"ground_m":232.578,"height_source":"LoD1 solid top minus bottom","production":"2022","laser":"2017","footprints":"2021"},"geometry":{"type":"Polygon","coordinates":[[[13.837880644325963,51.12123960501422],[13.837951765806485,51.121275293445784],[13.838051809591837,51.121325747489536],[13.838090585039387,51.12129519789616],[13.838147785873689,51.121250137292535],[13.838181051210233,51.12122392135872],[13.83810053593123,51.12118333762132],[13.838023915316251,51.12114471696848],[13.838008463221215,51.12115690140511],[13.837959993306475,51.12119511533348],[13.837933243651145,51.121216207168224],[13.837905425997054,51.121220067356205],[13.837880644325963,51.12123960501422]]]}},{"type":"Feature","id":"UUID_f7b9ffd9-b828-4a5d-8147-f4161884db12","properties":{"id":"UUID_f7b9ffd9-b828-4a5d-8147-f4161884db12","height_m":5.964,"ground_m":232.578,"height_source":"LoD1 solid top minus bottom","production":"2022","laser":"2017","footprints":"2021"},"geometry":{"type":"Polygon","coordinates":[[[13.838090585039387,51.12129519789616],[13.838122899687495,51.121311436075594],[13.838213477644436,51.1212402595438],[13.838181051210233,51.12122392135872],[13.838090585039387,51.12129519789616]]]}},{"type":"Feature","id":"DESNATPU1000G0ts","properties":{"id":"DESNATPU1000G0ts","height_m":3.431,"ground_m":233.681,"height_source":"LoD1 solid top minus bottom","production":"2022","laser":"2017","footprints":"2021"},"geometry":{"type":"Polygon","coordinates":[[[13.837580779274838,51.12080443509131],[13.837528104897224,51.12084222035965],[13.8375889009531,51.120873669722826],[13.837613526155382,51.12085467013254],[13.837637865629656,51.1208356676968],[13.837580779274838,51.12080443509131]]]}},{"type":"Feature","id":"DESNATPU1000D2gb","properties":{"id":"DESNATPU1000D2gb","height_m":4.314,"ground_m":232.57,"height_source":"LoD1 solid top minus bottom","production":"2022","laser":"2017","footprints":"2021"},"geometry":{"type":"Polygon","coordinates":[[[13.838356564395564,51.121418162902316],[13.83848295545015,51.121483536418914],[13.838499706312335,51.12147084324441],[13.838511981451719,51.12147708021218],[13.838560490400125,51.12144015240145],[13.838547235565464,51.12143309636444],[13.838602301453726,51.12139110782416],[13.838476756337293,51.12132619247345],[13.838356564395564,51.121418162902316]]]}},{"type":"Feature","id":"DESNATPU1000FMqE","properties":{"id":"DESNATPU1000FMqE","height_m":2.856,"ground_m":233.275,"height_source":"LoD1 solid top minus bottom","production":"2022","laser":"2017","footprints":"2021"},"geometry":{"type":"Polygon","coordinates":[[[13.837651053060343,51.12112437464973],[13.837710864463459,51.12107550931631],[13.83762100557216,51.12102920293761],[13.837558935540331,51.1210769666476],[13.837651053060343,51.12112437464973]]]}},{"type":"Feature","id":"UUID_b46d7b6c-ddf8-4a4b-afca-e0cd7a355e9f","properties":{"id":"UUID_b46d7b6c-ddf8-4a4b-afca-e0cd7a355e9f","height_m":4.633,"ground_m":233.93,"height_source":"LoD1 solid top minus bottom","production":"2022","laser":"2017","footprints":"2021"},"geometry":{"type":"Polygon","coordinates":[[[13.83417817991147,51.121626449889085],[13.83422187417388,51.121631642658215],[13.834237206646428,51.12158054609136],[13.834193469799837,51.12157534391049],[13.83417817991147,51.121626449889085]]]}},{"type":"Feature","id":"UUID_f3cc0901-425e-4a8b-9766-83145fcc5cfb","properties":{"id":"UUID_f3cc0901-425e-4a8b-9766-83145fcc5cfb","height_m":4.598,"ground_m":233.93,"height_source":"LoD1 solid top minus bottom","production":"2022","laser":"2017","footprints":"2021"},"geometry":{"type":"Polygon","coordinates":[[[13.834394628648718,51.12165215959921],[13.834414531133238,51.12165452523234],[13.834424338856204,51.121622519039455],[13.834404254971089,51.12161998073831],[13.834394628648718,51.12165215959921]]]}},{"type":"Feature","id":"UUID_3036c12b-a20b-442a-bc65-4a19412f46f3","properties":{"id":"UUID_3036c12b-a20b-442a-bc65-4a19412f46f3","height_m":5.59,"ground_m":233.93,"height_source":"LoD1 solid top minus bottom","production":"2022","laser":"2017","footprints":"2021"},"geometry":{"type":"Polygon","coordinates":[[[13.834394628648718,51.12165215959921],[13.834404254971089,51.12161998073831],[13.83442734584572,51.12154278371953],[13.83425467521329,51.12152235758807],[13.834237206646428,51.12158054609136],[13.83422187417388,51.121631642658215],[13.834394628648718,51.12165215959921]]]}},{"type":"Feature","id":"DESNATPU1000Gpgf","properties":{"id":"DESNATPU1000Gpgf","height_m":8.261,"ground_m":232.806,"height_source":"LoD1 solid top minus bottom","production":"2022","laser":"2017","footprints":"2021"},"geometry":{"type":"Polygon","coordinates":[[[13.836683780140884,51.12123435850013],[13.836638910046402,51.121211700113406],[13.836632203214899,51.12121702900882],[13.836598766647816,51.12119996990925],[13.836567081669111,51.121224672360384],[13.83651321458667,51.121266653891794],[13.83663582228648,51.121328934253086],[13.836672419759756,51.12130036883091],[13.836689676401502,51.12128689858051],[13.83672137654727,51.12126216027655],[13.836677071052895,51.12123977730269],[13.836683780140884,51.12123435850013]]]}},{"type":"Feature","id":"DESNATPU1000CeEN","properties":{"id":"DESNATPU1000CeEN","height_m":2.359,"ground_m":233.066,"height_source":"LoD1 solid top minus bottom","production":"2022","laser":"2017","footprints":"2021"},"geometry":{"type":"Polygon","coordinates":[[[13.838483443831707,51.121201979750325],[13.838524652455657,51.12122253273527],[13.838608924885921,51.12115547487291],[13.838567430573573,51.12113491907974],[13.838483443831707,51.121201979750325]]]}},{"type":"Feature","id":"DESNATPU1000GvNL","properties":{"id":"DESNATPU1000GvNL","height_m":2.369,"ground_m":231.234,"height_source":"LoD1 solid top minus bottom","production":"2022","laser":"2017","footprints":"2021"},"geometry":{"type":"Polygon","coordinates":[[[13.838298951235693,51.12166992576869],[13.838331250431368,51.121686793224],[13.838379904856499,51.121649777006446],[13.838408742893149,51.12162803136398],[13.838376017395623,51.12161106976789],[13.838298951235693,51.12166992576869]]]}},{"type":"Feature","id":"DESNATP1aJ00019g","properties":{"id":"DESNATP1aJ00019g","height_m":3.389,"ground_m":233.336,"height_source":"LoD1 solid top minus bottom","production":"2022","laser":"2017","footprints":"2021"},"geometry":{"type":"Polygon","coordinates":[[[13.837885584065761,51.121043882955696],[13.837811745397845,51.121003176524326],[13.837749335986803,51.12104966899048],[13.837816374790227,51.12109030787709],[13.837885584065761,51.121043882955696]]]}},{"type":"Feature","id":"DESNATP1aJ00019i","properties":{"id":"DESNATP1aJ00019i","height_m":6.819,"ground_m":232.602,"height_source":"LoD1 solid top minus bottom","production":"2022","laser":"2017","footprints":"2021"},"geometry":{"type":"Polygon","coordinates":[[[13.839735714265688,51.12135062468444],[13.839598088141617,51.1213207071682],[13.839546007189018,51.12140727564279],[13.839688212164443,51.121435808815534],[13.839735714265688,51.12135062468444]]]}},{"type":"Feature","id":"DESNATPU1000IvEu","properties":{"id":"DESNATPU1000IvEu","height_m":3.707,"ground_m":231.815,"height_source":"LoD1 solid top minus bottom","production":"2022","laser":"2017","footprints":"2021"},"geometry":{"type":"Polygon","coordinates":[[[13.832641186882016,51.10900246532908],[13.832666561390404,51.10892520138218],[13.832508229258009,51.108904555908424],[13.832482852232589,51.10898190972421],[13.832641186882016,51.10900246532908]]]}},{"type":"Feature","id":"DESNATPU1000HbDf","properties":{"id":"DESNATPU1000HbDf","height_m":2.824,"ground_m":232.396,"height_source":"LoD1 solid top minus bottom","production":"2022","laser":"2017","footprints":"2021"},"geometry":{"type":"Polygon","coordinates":[[[13.837763144993936,51.1212754871301],[13.837714300241007,51.12131438966945],[13.837790335194947,51.121347878862274],[13.83783291756993,51.12131368018337],[13.837763144993936,51.1212754871301]]]}},{"type":"Feature","id":"DESNATPU1000EJpY","properties":{"id":"DESNATPU1000EJpY","height_m":2.357,"ground_m":232.106,"height_source":"LoD1 solid top minus bottom","production":"2022","laser":"2017","footprints":"2021"},"geometry":{"type":"Polygon","coordinates":[[[13.839571646096852,51.12152914738383],[13.839588418642487,51.12149846886627],[13.839493490952453,51.12147756298339],[13.839476008577467,51.121508054588695],[13.839571646096852,51.12152914738383]]]}},{"type":"Feature","id":"DESNATPU1000D91Z","properties":{"id":"DESNATPU1000D91Z","height_m":2.391,"ground_m":231.194,"height_source":"LoD1 solid top minus bottom","production":"2022","laser":"2017","footprints":"2021"},"geometry":{"type":"Polygon","coordinates":[[[13.838379904856499,51.121649777006446],[13.838331250431368,51.121686793224],[13.838404175961955,51.12172465754511],[13.838452689767893,51.12168754997362],[13.838379904856499,51.121649777006446]]]}},{"type":"Feature","id":"DESNATPU1000J2wB","properties":{"id":"DESNATPU1000J2wB","height_m":7.891,"ground_m":232.46,"height_source":"LoD1 solid top minus bottom","production":"2022","laser":"2017","footprints":"2021"},"geometry":{"type":"Polygon","coordinates":[[[13.83743408259137,51.12132041685369],[13.837418149822518,51.12131189523047],[13.837392374680718,51.121331153126974],[13.837409017214702,51.12133986166456],[13.837393581142956,51.12135139870499],[13.837433349569466,51.121372387391126],[13.837421990181253,51.121380907447566],[13.837461896987985,51.12140207735365],[13.837472381186616,51.121394268008544],[13.837506364817724,51.121412321492194],[13.837604080314943,51.12133919303027],[13.837489856850704,51.12127870565751],[13.837456348547876,51.12130376791428],[13.83743408259137,51.12132041685369]]]}},{"type":"Feature","id":"DESNATPU1000FLV9","properties":{"id":"DESNATPU1000FLV9","height_m":6.458,"ground_m":233.583,"height_source":"LoD1 solid top minus bottom","production":"2022","laser":"2017","footprints":"2021"},"geometry":{"type":"Polygon","coordinates":[[[13.838221001378887,51.120869700032074],[13.838106955123084,51.12096164134262],[13.838188176936937,51.12100480401158],[13.838295058663633,51.120919356117184],[13.838305984705391,51.12091101152504],[13.838267050844104,51.12089093069605],[13.838251039134617,51.1208855558477],[13.838221001378887,51.120869700032074]]]}},{"type":"Feature","id":"DESNATPU1000DnQY","properties":{"id":"DESNATPU1000DnQY","height_m":6.625,"ground_m":233.398,"height_source":"LoD1 solid top minus bottom","production":"2022","laser":"2017","footprints":"2021"},"geometry":{"type":"Polygon","coordinates":[[[13.838188176936937,51.12100480401158],[13.83826942821975,51.12104679786463],[13.838380679750545,51.1209637314102],[13.838295058663633,51.120919356117184],[13.838188176936937,51.12100480401158]]]}},{"type":"Feature","id":"DESNATPU1000FIjI","properties":{"id":"DESNATPU1000FIjI","height_m":3.0,"ground_m":232.439,"height_source":"LoD1 solid top minus bottom","production":"2022","laser":"2017","footprints":"2021"},"geometry":{"type":"Polygon","coordinates":[[[13.831979623275954,51.110068240662],[13.832125207364788,51.11009604360712],[13.832161977254849,51.11002015258278],[13.832016252827179,51.109992258353195],[13.831979623275954,51.110068240662]]]}},{"type":"Feature","id":"DESNATPU1000ESAv","properties":{"id":"DESNATPU1000ESAv","height_m":2.59,"ground_m":234.235,"height_source":"LoD1 solid top minus bottom","production":"2022","laser":"2017","footprints":"2021"},"geometry":{"type":"Polygon","coordinates":[[[13.838238081985258,51.120815373952986],[13.838344845917478,51.12073460104779],[13.838300841621637,51.120711592191334],[13.838194218265498,51.12079245638051],[13.838238081985258,51.120815373952986]]]}},{"type":"Feature","id":"DESNATP1aJ0001A0","properties":{"id":"DESNATP1aJ0001A0","height_m":2.929,"ground_m":231.743,"height_source":"LoD1 solid top minus bottom","production":"2022","laser":"2017","footprints":"2021"},"geometry":{"type":"Polygon","coordinates":[[[13.832444960845134,51.10912560379695],[13.832131143609352,51.10891974662761],[13.832095926256725,51.108937479221325],[13.832408277617628,51.10914141538856],[13.832444960845134,51.10912560379695]]]}},{"type":"Feature","id":"DESNATPU1000EZ4X","properties":{"id":"DESNATPU1000EZ4X","height_m":2.648,"ground_m":233.078,"height_source":"LoD1 solid top minus bottom","production":"2022","laser":"2017","footprints":"2021"},"geometry":{"type":"Polygon","coordinates":[[[13.837320721464767,51.121185748083406],[13.83733074003015,51.12119079368713],[13.837366399349524,51.121210392634026],[13.83744751256062,51.121144023607535],[13.837402789542963,51.12112118712284],[13.837320721464767,51.121185748083406]]]}},{"type":"Feature","id":"DESNATPU1000Dh7c","properties":{"id":"DESNATPU1000Dh7c","height_m":3.835,"ground_m":229.975,"height_source":"LoD1 solid top minus bottom","production":"2022","laser":"2017","footprints":"2021"},"geometry":{"type":"Polygon","coordinates":[[[13.840398001176364,51.121699843294564],[13.840357608009839,51.12174368680102],[13.840522568648122,51.121803955045884],[13.840605401959802,51.12171439973549],[13.840440446030936,51.12165395179856],[13.840398001176364,51.121699843294564]]]}},{"type":"Feature","id":"DESNATP1aJ00019j","properties":{"id":"DESNATP1aJ00019j","height_m":8.252,"ground_m":231.481,"height_source":"LoD1 solid top minus bottom","production":"2022","laser":"2017","footprints":"2021"},"geometry":{"type":"Polygon","coordinates":[[[13.840101006391041,51.1215284193961],[13.839981343414639,51.12150582072259],[13.83994305597657,51.12158538600206],[13.840055919174773,51.12160791726142],[13.840101006391041,51.1215284193961]]]}},{"type":"Feature","id":"DESNATPU1000GEDO","properties":{"id":"DESNATPU1000GEDO","height_m":3.32,"ground_m":228.256,"height_source":"LoD1 solid top minus bottom","production":"2022","laser":"2017","footprints":"2021"},"geometry":{"type":"Polygon","coordinates":[[[13.845206373596735,51.116997339916445],[13.845204032639119,51.11693077078251],[13.845051532572345,51.11693277172578],[13.845053730468372,51.1169993394504],[13.845206373596735,51.116997339916445]]]}},{"type":"Feature","id":"DESNATPU1000Ipc7","properties":{"id":"DESNATPU1000Ipc7","height_m":2.627,"ground_m":234.723,"height_source":"LoD1 solid top minus bottom","production":"2022","laser":"2017","footprints":"2021"},"geometry":{"type":"Polygon","coordinates":[[[13.83389989004517,51.12144912656643],[13.8339998849384,51.121461634385504],[13.834016814279694,51.121407846964495],[13.833916962352971,51.12139534058511],[13.83389989004517,51.12144912656643]]]}},{"type":"Feature","id":"DESNATPU1000HiUy","properties":{"id":"DESNATPU1000HiUy","height_m":2.305,"ground_m":232.455,"height_source":"LoD1 solid top minus bottom","production":"2022","laser":"2017","footprints":"2021"},"geometry":{"type":"Polygon","coordinates":[[[13.838999712715296,51.12141268004313],[13.839047688687458,51.12143689711436],[13.839087511391693,51.12139304839128],[13.839043871565226,51.12137256139556],[13.838999712715296,51.12141268004313]]]}},{"type":"Feature","id":"DESNATPU1000HFVA","properties":{"id":"DESNATPU1000HFVA","height_m":2.833,"ground_m":230.646,"height_source":"LoD1 solid top minus bottom","production":"2022","laser":"2017","footprints":"2021"},"geometry":{"type":"Polygon","coordinates":[[[13.84016111640619,51.12160163170072],[13.840111846738603,51.121651861822585],[13.840195457654598,51.12168533466267],[13.840245214324826,51.121695540286844],[13.840280814492672,51.12165479672765],[13.84016111640619,51.12160163170072]]]}},{"type":"Feature","id":"DESNATP1aJ00019h","properties":{"id":"DESNATP1aJ00019h","height_m":3.383,"ground_m":232.785,"height_source":"LoD1 solid top minus bottom","production":"2022","laser":"2017","footprints":"2021"},"geometry":{"type":"Polygon","coordinates":[[[13.839309343862901,51.121256457196814],[13.83921922094775,51.12132265713194],[13.839281897319967,51.121356120651825],[13.839369605967807,51.12129559807867],[13.839309343862901,51.121256457196814]]]}},{"type":"Feature","id":"DESNATPU1000FZlu","properties":{"id":"DESNATPU1000FZlu","height_m":5.316,"ground_m":234.016,"height_source":"LoD1 solid top minus bottom","production":"2022","laser":"2017","footprints":"2021"},"geometry":{"type":"Polygon","coordinates":[[[13.837960910161524,51.12083681017475],[13.838075614362795,51.12090089895179],[13.838174541390611,51.12083065971766],[13.838059980076917,51.12076657245669],[13.837960910161524,51.12083681017475]]]}},{"type":"Feature","id":"DESNATPU1000BQY6","properties":{"id":"DESNATPU1000BQY6","height_m":7.22,"ground_m":234.389,"height_source":"LoD1 solid top minus bottom","production":"2022","laser":"2017","footprints":"2021"},"geometry":{"type":"Polygon","coordinates":[[[13.833912280181595,51.12166529088105],[13.833923255757258,51.12162664177338],[13.833765807254618,51.12160888467643],[13.83372833651865,51.121740703719816],[13.833764727427676,51.12174482562579],[13.833830057339078,51.12175222171283],[13.833884216295292,51.12175835529402],[13.833896597602482,51.12171495407435],[13.833927091908103,51.12171831569474],[13.833941207564173,51.12166845701783],[13.833912280181595,51.12166529088105]]]}},{"type":"Feature","id":"DESNATPU1000IG45","properties":{"id":"DESNATPU1000IG45","height_m":4.1,"ground_m":233.681,"height_source":"LoD1 solid top minus bottom","production":"2022","laser":"2017","footprints":"2021"},"geometry":{"type":"Polygon","coordinates":[[[13.8375889009531,51.120873669722826],[13.837493735235475,51.12094772279416],[13.837595455962475,51.12099963273972],[13.837739729130238,51.12088757893734],[13.837637865629656,51.1208356676968],[13.837613526155382,51.12085467013254],[13.8375889009531,51.120873669722826]]]}},{"type":"Feature","id":"DESNATP1aJ00019k","properties":{"id":"DESNATP1aJ00019k","height_m":2.426,"ground_m":233.593,"height_source":"LoD1 solid top minus bottom","production":"2022","laser":"2017","footprints":"2021"},"geometry":{"type":"Polygon","coordinates":[[[13.838685296475129,51.12088664114586],[13.838725995315324,51.120846596164604],[13.838649346588676,51.12081251695539],[13.838604951361198,51.120848964086264],[13.838685296475129,51.12088664114586]]]}},{"type":"Feature","id":"DESNATPU1000Cwet","properties":{"id":"DESNATPU1000Cwet","height_m":7.012,"ground_m":231.579,"height_source":"LoD1 solid top minus bottom","production":"2022","laser":"2017","footprints":"2021"},"geometry":{"type":"Polygon","coordinates":[[[13.836446840511362,51.12162785984392],[13.836629358351212,51.121648830339346],[13.836647805292609,51.12158570523651],[13.836655795561594,51.121557727496246],[13.836579425949488,51.12154895517768],[13.836473135211484,51.12153675562252],[13.836446840511362,51.12162785984392]]]}},{"type":"Feature","id":"DESNATP1aJ00019d","properties":{"id":"DESNATP1aJ00019d","height_m":2.687,"ground_m":235.173,"height_source":"LoD1 solid top minus bottom","production":"2022","laser":"2017","footprints":"2021"},"geometry":{"type":"Polygon","coordinates":[[[13.833685201767338,51.12141313684654],[13.83365819608238,51.121494242473794],[13.833719330556923,51.12149913277525],[13.833734943129897,51.1214193433412],[13.833685201767338,51.12141313684654]]]}},{"type":"Feature","id":"DESNATPU1000GlaQ","properties":{"id":"DESNATPU1000GlaQ","height_m":2.478,"ground_m":231.686,"height_source":"LoD1 solid top minus bottom","production":"2022","laser":"2017","footprints":"2021"},"geometry":{"type":"Polygon","coordinates":[[[13.836948569424962,51.121524039608815],[13.836901422195677,51.12156358818372],[13.836970903636384,51.12159629330571],[13.836988133188752,51.12158162671287],[13.837020331879087,51.12159678491922],[13.8370499638114,51.12157190005942],[13.836948569424962,51.121524039608815]]]}},{"type":"Feature","id":"UUID_2c12a27d-e4a5-4849-9f96-52bb3437574f","properties":{"id":"UUID_2c12a27d-e4a5-4849-9f96-52bb3437574f","height_m":2.524,"ground_m":233.684,"height_source":"LoD1 solid top minus bottom","production":"2022","laser":"2017","footprints":"2021"},"geometry":{"type":"Polygon","coordinates":[[[13.837302431539216,51.12095238540987],[13.83721712140664,51.12090135781454],[13.83714649696697,51.120959737558614],[13.837179530865617,51.12097690041025],[13.837234413487991,51.12100541348587],[13.837302431539216,51.12095238540987]]]}},{"type":"Feature","id":"UUID_e8208409-44ad-4a5a-a5e5-1c133676ec97","properties":{"id":"UUID_e8208409-44ad-4a5a-a5e5-1c133676ec97","height_m":2.649,"ground_m":233.684,"height_source":"LoD1 solid top minus bottom","production":"2022","laser":"2017","footprints":"2021"},"geometry":{"type":"Polygon","coordinates":[[[13.837234413487991,51.12100541348587],[13.837179530865617,51.12097690041025],[13.83713123827322,51.12101543050589],[13.837185691605496,51.121043399772674],[13.837234413487991,51.12100541348587]]]}},{"type":"Feature","id":"UUID_3bc804d5-be06-4320-ab46-5eeeaabb7452","properties":{"id":"UUID_3bc804d5-be06-4320-ab46-5eeeaabb7452","height_m":9.123,"ground_m":232.917,"height_source":"LoD1 solid top minus bottom","production":"2022","laser":"2017","footprints":"2021"},"geometry":{"type":"Polygon","coordinates":[[[13.838728611409827,51.121288766368615],[13.838877887203642,51.12117658100137],[13.83874210880903,51.12110492770166],[13.838592804802825,51.121217094631575],[13.838728611409827,51.121288766368615]]]}},{"type":"Feature","id":"UUID_2f15d798-385c-49d2-b17e-78c5c6118e4a","properties":{"id":"UUID_2f15d798-385c-49d2-b17e-78c5c6118e4a","height_m":4.845,"ground_m":232.917,"height_source":"LoD1 solid top minus bottom","production":"2022","laser":"2017","footprints":"2021"},"geometry":{"type":"Polygon","coordinates":[[[13.83874210880903,51.12110492770166],[13.838704568258551,51.12108511265302],[13.838637726432866,51.12113516764365],[13.838675379475035,51.12115505577242],[13.83874210880903,51.12110492770166]]]}},{"type":"Feature","id":"DESNATPU1000GcMm","properties":{"id":"DESNATPU1000GcMm","height_m":7.347,"ground_m":231.994,"height_source":"LoD1 solid top minus bottom","production":"2022","laser":"2017","footprints":"2021"},"geometry":{"type":"Polygon","coordinates":[[[13.836751463675183,51.12138413087367],[13.836874247081424,51.12145081915421],[13.83697017262151,51.121380730933254],[13.836847532114975,51.121314044173985],[13.836751463675183,51.12138413087367]]]}},{"type":"Feature","id":"UUID_6bfb804c-7db9-4af4-9800-7f5083927f53","properties":{"id":"UUID_6bfb804c-7db9-4af4-9800-7f5083927f53","height_m":5.138,"ground_m":232.458,"height_source":"LoD1 solid top minus bottom","production":"2022","laser":"2017","footprints":"2021"},"geometry":{"type":"Polygon","coordinates":[[[13.83265312825131,51.109968672909645],[13.832689210138481,51.109886030309525],[13.832619927322414,51.10987403473375],[13.832583860283309,51.109956650483134],[13.83265312825131,51.109968672909645]]]}},{"type":"Feature","id":"UUID_bf478754-2420-482a-94e7-cf5617f40589","properties":{"id":"UUID_bf478754-2420-482a-94e7-cf5617f40589","height_m":5.445,"ground_m":232.458,"height_source":"LoD1 solid top minus bottom","production":"2022","laser":"2017","footprints":"2021"},"geometry":{"type":"Polygon","coordinates":[[[13.832300852356655,51.11000976814305],[13.832429107965732,51.11003190309417],[13.832542471345144,51.110051470163754],[13.832583860283309,51.109956650483134],[13.832619927322414,51.10987403473375],[13.83237842661203,51.109832208152],[13.832300852356655,51.11000976814305]]]}},{"type":"Feature","id":"UUID_182446b7-f9f0-49d7-813d-c33ebe6f6039","properties":{"id":"UUID_182446b7-f9f0-49d7-813d-c33ebe6f6039","height_m":6.907,"ground_m":232.458,"height_source":"LoD1 solid top minus bottom","production":"2022","laser":"2017","footprints":"2021"},"geometry":{"type":"Polygon","coordinates":[[[13.832300852356655,51.11000976814305],[13.832258964519072,51.11010565287619],[13.83238740128085,51.1101279785283],[13.832429107965732,51.11003190309417],[13.832300852356655,51.11000976814305]]]}},{"type":"Feature","id":"DESNATPU1000CZLH","properties":{"id":"DESNATPU1000CZLH","height_m":2.658,"ground_m":232.519,"height_source":"LoD1 solid top minus bottom","production":"2022","laser":"2017","footprints":"2021"},"geometry":{"type":"Polygon","coordinates":[[[13.837676053503534,51.121295394599585],[13.837714300241007,51.12131438966945],[13.837763144993936,51.1212754871301],[13.837835030029598,51.121218108743825],[13.837796640465822,51.12119911229346],[13.837676053503534,51.121295394599585]]]}},{"type":"Feature","id":"DESNATPU1000JffT","properties":{"id":"DESNATPU1000JffT","height_m":2.038,"ground_m":234.632,"height_source":"LoD1 solid top minus bottom","production":"2022","laser":"2017","footprints":"2021"},"geometry":{"type":"Polygon","coordinates":[[[13.83393021834541,51.12149766588379],[13.833911032602646,51.12155026173852],[13.833994315835906,51.12156251297788],[13.834013646608861,51.12150982862902],[13.83393021834541,51.12149766588379]]]}},{"type":"Feature","id":"UUID_16443203-fb5b-4281-87f9-bd042d18a588","properties":{"id":"UUID_16443203-fb5b-4281-87f9-bd042d18a588","height_m":10.943,"ground_m":231.668,"height_source":"LoD1 solid top minus bottom","production":"2022","laser":"2017","footprints":"2021"},"geometry":{"type":"Polygon","coordinates":[[[13.835709555416258,51.121404696116485],[13.835709597368847,51.12140473250501],[13.835666019190887,51.12139890296544],[13.835624349410914,51.12139332622325],[13.83562468249923,51.121393149685964],[13.835605451256384,51.121390799935455],[13.835598768237576,51.12141222595012],[13.835598675290994,51.12141251279108],[13.835658949630465,51.12142092764565],[13.83571643328899,51.12142894598151],[13.835723795766974,51.12140663644795],[13.835709555416258,51.121404696116485]]]}},{"type":"Feature","id":"UUID_2f37f830-5df3-4073-8cce-fce338e4fb55","properties":{"id":"UUID_2f37f830-5df3-4073-8cce-fce338e4fb55","height_m":8.49,"ground_m":231.668,"height_source":"LoD1 solid top minus bottom","production":"2022","laser":"2017","footprints":"2021"},"geometry":{"type":"Polygon","coordinates":[[[13.835512038917607,51.12149724259796],[13.835476752334317,51.12159922815972],[13.835511468533214,51.1216040342744],[13.835544079752815,51.12150160839572],[13.835512038917607,51.12149724259796]]]}},{"type":"Feature","id":"UUID_205374fc-4068-4549-937f-5f04a520667d","properties":{"id":"UUID_205374fc-4068-4549-937f-5f04a520667d","height_m":7.049,"ground_m":231.668,"height_source":"LoD1 solid top minus bottom","production":"2022","laser":"2017","footprints":"2021"},"geometry":{"type":"Polygon","coordinates":[[[13.835696348818027,51.12156625344084],[13.835691626272283,51.1215784724663],[13.835672841713906,51.12162712480018],[13.835758252274895,51.12163890136445],[13.835763042433232,51.121624560731505],[13.835779570340698,51.12162076850141],[13.835790005987922,51.12159785108007],[13.83578339376169,51.121592020923146],[13.835780220763436,51.121589210585974],[13.835784029470817,51.12157980616763],[13.835696348818027,51.12156625344084]]]}},{"type":"Feature","id":"UUID_eb503741-0789-4c90-b020-e63c0ad6a190","properties":{"id":"UUID_eb503741-0789-4c90-b020-e63c0ad6a190","height_m":5.256,"ground_m":231.668,"height_source":"LoD1 solid top minus bottom","production":"2022","laser":"2017","footprints":"2021"},"geometry":{"type":"Polygon","coordinates":[[[13.835641627143453,51.121384145856645],[13.83562468249923,51.121393149685964],[13.835624349410914,51.12139332622325],[13.835709597368847,51.12140473250501],[13.835709555416258,51.121404696116485],[13.835697438891936,51.12139216553924],[13.835641627143453,51.121384145856645]]]}},{"type":"Feature","id":"UUID_f47eeff8-0d38-4895-aa2b-a33a47abeddc","properties":{"id":"UUID_f47eeff8-0d38-4895-aa2b-a33a47abeddc","height_m":9.058,"ground_m":231.668,"height_source":"LoD1 solid top minus bottom","production":"2022","laser":"2017","footprints":"2021"},"geometry":{"type":"Polygon","coordinates":[[[13.835730420656253,51.121478464191824],[13.835750787069061,51.12146976419784],[13.835758149933113,51.121444028445794],[13.835747702450846,51.12143331303279],[13.835716371400402,51.12142913421209],[13.83571643328899,51.12142894598151],[13.835672377289251,51.1214227969421],[13.835598675290994,51.12141251279108],[13.835598768237576,51.12141222595012],[13.835573557399265,51.12140900730619],[13.835558833780896,51.1214552720326],[13.83555994222263,51.1214560834215],[13.835544079752815,51.12150160839572],[13.835511468533214,51.1216040342744],[13.835519471277964,51.12160513913934],[13.835516218115561,51.121615178571],[13.835550109381568,51.121619832575625],[13.835553056480208,51.12161059943855],[13.835603764359982,51.12161759712644],[13.835672841713906,51.12162712480018],[13.835696348818027,51.12156625344084],[13.835730420656253,51.121478464191824]]]}},{"type":"Feature","id":"UUID_7b655fc6-8b13-4a41-b554-d6216e4c27d5","properties":{"id":"UUID_7b655fc6-8b13-4a41-b554-d6216e4c27d5","height_m":9.061,"ground_m":231.668,"height_source":"LoD1 solid top minus bottom","production":"2022","laser":"2017","footprints":"2021"},"geometry":{"type":"Polygon","coordinates":[[[13.835573557399265,51.12140900730619],[13.835540844368186,51.12142001234696],[13.83553692982457,51.12143930767872],[13.835558833780896,51.1214552720326],[13.835573557399265,51.12140900730619]]]}},{"type":"Feature","id":"UUID_3afa0e17-2a06-4664-bf8f-d1dedc1f0774","properties":{"id":"UUID_3afa0e17-2a06-4664-bf8f-d1dedc1f0774","height_m":13.192,"ground_m":230.641,"height_source":"LoD1 solid top minus bottom","production":"2022","laser":"2017","footprints":"2021"},"geometry":{"type":"Polygon","coordinates":[[[13.837523397352616,51.1217294116599],[13.837556176391155,51.1217038115655],[13.837520522461375,51.12168568753651],[13.83748777447002,51.12171118900994],[13.8374604624193,51.12173246399206],[13.83749621478096,51.12175065196668],[13.837523397352616,51.1217294116599]]]}},{"type":"Feature","id":"UUID_63f259c4-b184-45e9-b021-0beba039eac3","properties":{"id":"UUID_63f259c4-b184-45e9-b021-0beba039eac3","height_m":13.591,"ground_m":230.641,"height_source":"LoD1 solid top minus bottom","production":"2022","laser":"2017","footprints":"2021"},"geometry":{"type":"Polygon","coordinates":[[[13.837429723293148,51.121802598219524],[13.83738378300382,51.12183847197834],[13.83738381112382,51.12183849024333],[13.837369499318616,51.121849633786795],[13.837429025690902,51.12187991054086],[13.83751002600383,51.121921120052384],[13.837526961131038,51.12190793424993],[13.83752691895089,51.12190790685249],[13.837581693479954,51.121865061587805],[13.837581594833965,51.121865006650964],[13.837624545054112,51.12183154910704],[13.837695629317873,51.121775943403094],[13.83769541774032,51.121775833387574],[13.837684807584967,51.12177044021301],[13.837685026157214,51.1217702715243],[13.837621713097437,51.121737718075124],[13.837622164979036,51.12173736285902],[13.837556176391155,51.1217038115655],[13.837556016089689,51.12170393586977],[13.83749621478096,51.12175065196668],[13.83742959630179,51.12180253400801],[13.837429723293148,51.121802598219524]]]}},{"type":"Feature","id":"UUID_a7cd9d56-7e4c-456f-a0c0-aeb837683af6","properties":{"id":"UUID_a7cd9d56-7e4c-456f-a0c0-aeb837683af6","height_m":13.077,"ground_m":230.641,"height_source":"LoD1 solid top minus bottom","production":"2022","laser":"2017","footprints":"2021"},"geometry":{"type":"Polygon","coordinates":[[[13.837661102139219,51.121850131716094],[13.83773236984595,51.121794617740534],[13.837695629317873,51.121775943403094],[13.837624545054112,51.12183154910704],[13.837661102139219,51.121850131716094]]]}},{"type":"Feature","id":"UUID_0688dfa7-7494-4f06-aa1f-68bc21247139","properties":{"id":"UUID_0688dfa7-7494-4f06-aa1f-68bc21247139","height_m":13.383,"ground_m":230.641,"height_source":"LoD1 solid top minus bottom","production":"2022","laser":"2017","footprints":"2021"},"geometry":{"type":"Polygon","coordinates":[[[13.837412143377577,51.121793655548736],[13.837385589446244,51.1218143265471],[13.837366118272367,51.12182949248657],[13.83738378300382,51.12183847197834],[13.837403211544402,51.12182329661937],[13.837429723293148,51.121802598219524],[13.83742959630179,51.12180253400801],[13.837412143377577,51.121793655548736]]]}},{"type":"Feature","id":"UUID_7c4dee9d-1faa-4f7a-8b31-8ce486a36b6d","properties":{"id":"UUID_7c4dee9d-1faa-4f7a-8b31-8ce486a36b6d","height_m":9.774,"ground_m":230.641,"height_source":"LoD1 solid top minus bottom","production":"2022","laser":"2017","footprints":"2021"},"geometry":{"type":"Polygon","coordinates":[[[13.83752691895089,51.12190790685249],[13.83755287971647,51.12192111442838],[13.83760779551506,51.12187833350488],[13.837581693479954,51.121865061587805],[13.83752691895089,51.12190790685249]]]}},{"type":"Feature","id":"UUID_a9d5a76b-c429-4c61-baf0-678368daaf26","properties":{"id":"UUID_a9d5a76b-c429-4c61-baf0-678368daaf26","height_m":9.585,"ground_m":230.641,"height_source":"LoD1 solid top minus bottom","production":"2022","laser":"2017","footprints":"2021"},"geometry":{"type":"Polygon","coordinates":[[[13.837685026157214,51.1217702715243],[13.837712542188953,51.121748836649026],[13.837648952295671,51.121716496287654],[13.837622164979036,51.12173736285902],[13.837621713097437,51.121737718075124],[13.837685026157214,51.1217702715243]]]}}]}