{"type":"FeatureCollection","features":[{"type":"Feature","id":"UUID_0f841a74-ee02-4b38-90b6-78c260ea4fe1","properties":{"id":"UUID_0f841a74-ee02-4b38-90b6-78c260ea4fe1","height_m":3.329,"ground_m":195.538,"height_source":"LoD1 solid top minus bottom","production":"2023","laser":"2019","footprints":"2020"},"geometry":{"type":"Polygon","coordinates":[[[13.842919867579495,51.140872625381434],[13.842786854573788,51.14105544321829],[13.842939002430118,51.141099304096876],[13.843071796996393,51.140916627811734],[13.842919867579495,51.140872625381434]]]}},{"type":"Feature","id":"UUID_5e48aea3-db4f-417e-a9d2-b9266270da7b","properties":{"id":"UUID_5e48aea3-db4f-417e-a9d2-b9266270da7b","height_m":3.328,"ground_m":195.538,"height_source":"LoD1 solid top minus bottom","production":"2023","laser":"2019","footprints":"2020"},"geometry":{"type":"Polygon","coordinates":[[[13.843257997325695,51.140713346845054],[13.843205766216379,51.14069835201677],[13.843074138210786,51.14066056668834],[13.842919867579495,51.140872625381434],[13.843071796996393,51.140916627811734],[13.84310330413141,51.140925752310615],[13.843257997325695,51.140713346845054]]]}},{"type":"Feature","id":"UUID_26c76c4c-89e3-4052-b127-eacc48e0eee6","properties":{"id":"UUID_26c76c4c-89e3-4052-b127-eacc48e0eee6","height_m":3.445,"ground_m":195.538,"height_source":"LoD1 solid top minus bottom","production":"2023","laser":"2019","footprints":"2020"},"geometry":{"type":"Polygon","coordinates":[[[13.843205766216379,51.14069835201677],[13.843224425232172,51.140672457834306],[13.843092998039873,51.140634647535045],[13.843074138210786,51.14066056668834],[13.843205766216379,51.14069835201677]]]}},{"type":"Feature","id":"DESNATPU1000JLZQ","properties":{"id":"DESNATPU1000JLZQ","height_m":5.739,"ground_m":195.714,"height_source":"LoD1 solid top minus bottom","production":"2023","laser":"2019","footprints":"2020"},"geometry":{"type":"Polygon","coordinates":[[[13.843093828278143,51.14044131332],[13.842611349726301,51.14031073197622],[13.842540667157492,51.14041623589489],[13.84302256819777,51.14054708159174],[13.843093828278143,51.14044131332]]]}},{"type":"Feature","id":"UUID_fce6b6d8-14db-4bf0-9bff-352d51c3f55a","properties":{"id":"UUID_fce6b6d8-14db-4bf0-9bff-352d51c3f55a","height_m":3.0,"ground_m":195.637,"height_source":"LoD1 solid top minus bottom","production":"2023","laser":"2019","footprints":"2020"},"geometry":{"type":"Polygon","coordinates":[[[13.843357959396325,51.140660289574136],[13.843470157071486,51.140689636155216],[13.843484715454846,51.14066765815489],[13.84337247404996,51.1406383471257],[13.843357959396325,51.140660289574136]]]}},{"type":"Feature","id":"UUID_064f5dca-6477-4924-968a-1bf898dbd806","properties":{"id":"UUID_064f5dca-6477-4924-968a-1bf898dbd806","height_m":3.219,"ground_m":195.637,"height_source":"LoD1 solid top minus bottom","production":"2023","laser":"2019","footprints":"2020"},"geometry":{"type":"Polygon","coordinates":[[[13.84323117778637,51.140545278332525],[13.843200870333282,51.14059111095294],[13.84337385573805,51.140636256505644],[13.843404147860623,51.1405904596603],[13.84323117778637,51.140545278332525]]]}},{"type":"Feature","id":"UUID_d3930c2a-30f6-4e5f-8703-3fd0df8fd4b7","properties":{"id":"UUID_d3930c2a-30f6-4e5f-8703-3fd0df8fd4b7","height_m":2.421,"ground_m":195.637,"height_source":"LoD1 solid top minus bottom","production":"2023","laser":"2019","footprints":"2020"},"geometry":{"type":"Polygon","coordinates":[[[13.843404147860623,51.1405904596603],[13.84337385573805,51.140636256505644],[13.84337247404996,51.1406383471257],[13.843484715454846,51.14066765815489],[13.843556295506415,51.14068635133219],[13.843587940578285,51.14063846353374],[13.843404147860623,51.1405904596603]]]}},{"type":"Feature","id":"DESNATPU1000DISY","properties":{"id":"DESNATPU1000DISY","height_m":7.599,"ground_m":196.031,"height_source":"LoD1 solid top minus bottom","production":"2023","laser":"2019","footprints":"2020"},"geometry":{"type":"Polygon","coordinates":[[[13.841516779767103,51.14013388966159],[13.842127268681086,51.14029002321754],[13.84220904489797,51.140163946225414],[13.841598559607545,51.140007723197556],[13.841516779767103,51.14013388966159]]]}},{"type":"Feature","id":"DESNATPU1000FFh7","properties":{"id":"DESNATPU1000FFh7","height_m":3.677,"ground_m":195.622,"height_source":"LoD1 solid top minus bottom","production":"2023","laser":"2019","footprints":"2020"},"geometry":{"type":"Polygon","coordinates":[[[13.84272662665749,51.141040099268956],[13.843021994810755,51.14062720061829],[13.842907017945919,51.140594678673224],[13.84261165348055,51.14100739722159],[13.84272662665749,51.141040099268956]]]}},{"type":"Feature","id":"DESNATPU1000BPLQ","properties":{"id":"DESNATPU1000BPLQ","height_m":3.641,"ground_m":195.602,"height_source":"LoD1 solid top minus bottom","production":"2023","laser":"2019","footprints":"2020"},"geometry":{"type":"Polygon","coordinates":[[[13.842304965921231,51.14092963259534],[13.842593250791206,51.140508571486635],[13.842475824740347,51.1404768342165],[13.842187824841151,51.14089789786214],[13.842304965921231,51.14092963259534]]]}},{"type":"Feature","id":"DESNATPU1000EYIQ","properties":{"id":"DESNATPU1000EYIQ","height_m":5.647,"ground_m":195.919,"height_source":"LoD1 solid top minus bottom","production":"2023","laser":"2019","footprints":"2020"},"geometry":{"type":"Polygon","coordinates":[[[13.841650543591308,51.14036380837227],[13.842033332439927,51.14045644677355],[13.842078343869927,51.14038288275428],[13.841695553284799,51.140290334406984],[13.841650543591308,51.14036380837227]]]}},{"type":"Feature","id":"DESNATPU1000Doc1","properties":{"id":"DESNATPU1000Doc1","height_m":3.651,"ground_m":195.543,"height_source":"LoD1 solid top minus bottom","production":"2023","laser":"2019","footprints":"2020"},"geometry":{"type":"Polygon","coordinates":[[[13.84251093737611,51.140981940378445],[13.842800101977826,51.14056565359153],[13.842692630222498,51.1405359934245],[13.842403317434359,51.14095245833701],[13.84251093737611,51.140981940378445]]]}},{"type":"Feature","id":"DESNATPU1000BVk3","properties":{"id":"DESNATPU1000BVk3","height_m":4.1,"ground_m":195.535,"height_source":"LoD1 solid top minus bottom","production":"2023","laser":"2019","footprints":"2020"},"geometry":{"type":"Polygon","coordinates":[[[13.842092983304632,51.140866203945784],[13.84237939830754,51.140445664401426],[13.84221269834527,51.1404007594494],[13.841926139203,51.14082129716547],[13.842092983304632,51.140866203945784]]]}},{"type":"Feature","id":"DESNATPU1000IKjc","properties":{"id":"DESNATPU1000IKjc","height_m":4.006,"ground_m":195.651,"height_source":"LoD1 solid top minus bottom","production":"2023","laser":"2019","footprints":"2020"},"geometry":{"type":"Polygon","coordinates":[[[13.843217904298598,51.14117355485628],[13.84350686108733,51.14075393700894],[13.843332220792696,51.14070634726736],[13.843043262731657,51.141125964678295],[13.843217904298598,51.14117355485628]]]}}]}