{"type":"FeatureCollection","features":[{"type":"Feature","id":"DESNATP1Xp0000gk","properties":{"id":"DESNATP1Xp0000gk","height_m":2.625,"ground_m":230.627,"height_source":"LoD1 solid top minus bottom","production":"2023","laser":"2019","footprints":"2024"},"geometry":{"type":"Polygon","coordinates":[[[13.867897338975045,51.137309131275586],[13.86793296822174,51.137284818306725],[13.867844161342942,51.13723332093997],[13.8678085320901,51.13725763388193],[13.867897338975045,51.137309131275586]]]}},{"type":"Feature","id":"DESNATGMzu0000ij","properties":{"id":"DESNATGMzu0000ij","height_m":10.25,"ground_m":231.123,"height_source":"LoD1 solid top minus bottom","production":"2023","laser":"2019","footprints":"2024"},"geometry":{"type":"Polygon","coordinates":[[[13.870219468016622,51.13642263661947],[13.870250417400634,51.13639438391506],[13.870199829140862,51.136375172483],[13.870169647389213,51.136401840889704],[13.870219468016622,51.13642263661947]]]}},{"type":"Feature","id":"DESNATPU1000CCtw","properties":{"id":"DESNATPU1000CCtw","height_m":3.235,"ground_m":233.558,"height_source":"LoD1 solid top minus bottom","production":"2023","laser":"2019","footprints":"2024"},"geometry":{"type":"Polygon","coordinates":[[[13.86936362387565,51.136122139957706],[13.86927507004354,51.13608137435592],[13.86924106834418,51.136110514543226],[13.869329779174658,51.13615129068107],[13.86936362387565,51.136122139957706]]]}},{"type":"Feature","id":"DESNATGMzu0000ii","properties":{"id":"DESNATGMzu0000ii","height_m":2.772,"ground_m":230.643,"height_source":"LoD1 solid top minus bottom","production":"2023","laser":"2019","footprints":"2024"},"geometry":{"type":"Polygon","coordinates":[[[13.87025349278641,51.13646222726728],[13.870333891087238,51.136499289298754],[13.870431599911983,51.136408633872406],[13.870352971945648,51.13637634612468],[13.87025349278641,51.13646222726728]]]}},{"type":"Feature","id":"DESNATP1Xp0000bZ","properties":{"id":"DESNATP1Xp0000bZ","height_m":2.069,"ground_m":246.693,"height_source":"LoD1 solid top minus bottom","production":"2023","laser":"2019","footprints":"2024"},"geometry":{"type":"Polygon","coordinates":[[[13.871284614617194,51.12220310216614],[13.871359784578232,51.12219514979494],[13.871363018911977,51.122203742043645],[13.871441222913115,51.12219207794986],[13.871418246827387,51.122131047698915],[13.871340042924011,51.122142711778075],[13.87126919156496,51.12215346657564],[13.871284614617194,51.12220310216614]]]}},{"type":"Feature","id":"DESNATP1Xp0000gv","properties":{"id":"DESNATP1Xp0000gv","height_m":3.284,"ground_m":233.11,"height_source":"LoD1 solid top minus bottom","production":"2023","laser":"2019","footprints":"2024"},"geometry":{"type":"Polygon","coordinates":[[[13.869129686665755,51.13631786041673],[13.86922759728201,51.1363600385198],[13.869284593680268,51.13630765881823],[13.869186682901718,51.13626548975341],[13.869172265617708,51.13627874041489],[13.869129686665755,51.13631786041673]]]}},{"type":"Feature","id":"DESNATP1Xp0000bW","properties":{"id":"DESNATP1Xp0000bW","height_m":4.019,"ground_m":246.747,"height_source":"LoD1 solid top minus bottom","production":"2023","laser":"2019","footprints":"2024"},"geometry":{"type":"Polygon","coordinates":[[[13.871647991459174,51.122104614177616],[13.871434070950585,51.12213843053887],[13.871464169845575,51.122213845875535],[13.871678090901339,51.12218002047113],[13.871647991459174,51.122104614177616]]]}},{"type":"Feature","id":"DESNATP1Xp0000bX","properties":{"id":"DESNATP1Xp0000bX","height_m":3.989,"ground_m":247.008,"height_source":"LoD1 solid top minus bottom","production":"2023","laser":"2019","footprints":"2024"},"geometry":{"type":"Polygon","coordinates":[[[13.871685417160734,51.12219837328123],[13.871701026175836,51.122237462196445],[13.871797780292864,51.12222217295106],[13.871782171200838,51.12218308404816],[13.871685417160734,51.12219837328123]]]}},{"type":"Feature","id":"DESNATPU1000FnWb","properties":{"id":"DESNATPU1000FnWb","height_m":5.547,"ground_m":234.145,"height_source":"LoD1 solid top minus bottom","production":"2023","laser":"2019","footprints":"2024"},"geometry":{"type":"Polygon","coordinates":[[[13.868919802296622,51.135676569371704],[13.868906873148543,51.13569502315991],[13.868899186576021,51.13570600079583],[13.869023363696565,51.13573077154077],[13.869064216942643,51.13573827981933],[13.869070114358728,51.135727401775156],[13.869080158601422,51.13570884812948],[13.86903851081795,51.13569992931741],[13.868919802296622,51.135676569371704]]]}},{"type":"Feature","id":"DESNATP1Xp0000hF","properties":{"id":"DESNATP1Xp0000hF","height_m":4.611,"ground_m":233.466,"height_source":"LoD1 solid top minus bottom","production":"2023","laser":"2019","footprints":"2024"},"geometry":{"type":"Polygon","coordinates":[[[13.869068674168798,51.13574949180831],[13.869004073580095,51.135732275605164],[13.868949788633493,51.13581292734581],[13.869014375243104,51.13583013445058],[13.869068674168798,51.13574949180831]]]}},{"type":"Feature","id":"DESNATP1Xp0000h5","properties":{"id":"DESNATP1Xp0000h5","height_m":4.077,"ground_m":233.422,"height_source":"LoD1 solid top minus bottom","production":"2023","laser":"2019","footprints":"2024"},"geometry":{"type":"Polygon","coordinates":[[[13.868997958658843,51.13605976514274],[13.868978062139389,51.136076721722034],[13.868980327116182,51.13609224697409],[13.869066370878526,51.136132188179246],[13.86910769687181,51.13609695889787],[13.869021653138326,51.13605701772307],[13.868997958658843,51.13605976514274]]]}},{"type":"Feature","id":"DESNATP1Xp0000gx","properties":{"id":"DESNATP1Xp0000gx","height_m":3.377,"ground_m":232.907,"height_source":"LoD1 solid top minus bottom","production":"2023","laser":"2019","footprints":"2024"},"geometry":{"type":"Polygon","coordinates":[[[13.869087238084806,51.13629957252189],[13.869058389140086,51.13632607367963],[13.86904651608915,51.13633698386036],[13.86922925370146,51.13641569212275],[13.86926996133035,51.13637828058249],[13.86922759728201,51.1363600385198],[13.869129686665755,51.13631786041673],[13.869087238084806,51.13629957252189]]]}},{"type":"Feature","id":"UUID_af5d5b77-3b8b-462d-b21d-0cf11983f846","properties":{"id":"UUID_af5d5b77-3b8b-462d-b21d-0cf11983f846","height_m":6.94,"ground_m":232.024,"height_source":"LoD1 solid top minus bottom","production":"2023","laser":"2019","footprints":"2024"},"geometry":{"type":"Polygon","coordinates":[[[13.868222552900573,51.136692522937004],[13.868156128637727,51.13675160033604],[13.868257017407709,51.1367964968775],[13.86826243853248,51.13679166632573],[13.868304914670315,51.136753876557556],[13.86832341324695,51.136737410154105],[13.868222552900573,51.136692522937004]]]}},{"type":"Feature","id":"UUID_436b939a-d4fb-4dd6-a6b5-5708d9e0e6ba","properties":{"id":"UUID_436b939a-d4fb-4dd6-a6b5-5708d9e0e6ba","height_m":4.589,"ground_m":232.024,"height_source":"LoD1 solid top minus bottom","production":"2023","laser":"2019","footprints":"2024"},"geometry":{"type":"Polygon","coordinates":[[[13.868374370635715,51.13678477299543],[13.868304914670315,51.136753876557556],[13.86826243853248,51.13679166632573],[13.86833189452543,51.13682256278882],[13.868374370635715,51.13678477299543]]]}},{"type":"Feature","id":"DESNATGMzu0000ik","properties":{"id":"DESNATGMzu0000ik","height_m":2.364,"ground_m":231.419,"height_source":"LoD1 solid top minus bottom","production":"2023","laser":"2019","footprints":"2024"},"geometry":{"type":"Polygon","coordinates":[[[13.868549758753135,51.137024415770505],[13.868494335175567,51.136994257717745],[13.86847555049087,51.13700663871201],[13.868530905925661,51.137037830270145],[13.868549758753135,51.137024415770505]]]}},{"type":"Feature","id":"DESNATPU1000D1cq","properties":{"id":"DESNATPU1000D1cq","height_m":6.664,"ground_m":233.277,"height_source":"LoD1 solid top minus bottom","production":"2023","laser":"2019","footprints":"2024"},"geometry":{"type":"Polygon","coordinates":[[[13.868798042334932,51.136211489137644],[13.868746582664166,51.13618702592343],[13.86868051656598,51.136242033410035],[13.868731976262062,51.136266496653256],[13.868798042334932,51.136211489137644]]]}},{"type":"Feature","id":"DESNATP1Xp0000gl","properties":{"id":"DESNATP1Xp0000gl","height_m":2.63,"ground_m":231.17,"height_source":"LoD1 solid top minus bottom","production":"2023","laser":"2019","footprints":"2024"},"geometry":{"type":"Polygon","coordinates":[[[13.868467175322376,51.13700191746491],[13.868352891336727,51.13708218621403],[13.86841662195988,51.137118099081185],[13.868530905925661,51.137037830270145],[13.86847555049087,51.13700663871201],[13.868467175322376,51.13700191746491]]]}},{"type":"Feature","id":"DESNATP1Xp0000gp","properties":{"id":"DESNATP1Xp0000gp","height_m":2.296,"ground_m":232.596,"height_source":"LoD1 solid top minus bottom","production":"2023","laser":"2019","footprints":"2024"},"geometry":{"type":"Polygon","coordinates":[[[13.868541227785272,51.13653428723266],[13.868507415246176,51.136563842699616],[13.86861959410547,51.1366146664156],[13.868653420901495,51.13658511105449],[13.868541227785272,51.13653428723266]]]}},{"type":"Feature","id":"DESNATP1Xp0000gq","properties":{"id":"DESNATP1Xp0000gq","height_m":4.41,"ground_m":232.273,"height_source":"LoD1 solid top minus bottom","production":"2023","laser":"2019","footprints":"2024"},"geometry":{"type":"Polygon","coordinates":[[[13.868393115395723,51.13666234845105],[13.868364807973634,51.13668713708003],[13.868452274082426,51.136726804729484],[13.868480638204803,51.1367020346135],[13.868393115395723,51.13666234845105]]]}},{"type":"Feature","id":"DESNATPU1000Ex4o","properties":{"id":"DESNATPU1000Ex4o","height_m":8.652,"ground_m":247.008,"height_source":"LoD1 solid top minus bottom","production":"2023","laser":"2019","footprints":"2024"},"geometry":{"type":"Polygon","coordinates":[[[13.871782171200838,51.12218308404816],[13.871745043178429,51.12209000229909],[13.871647991459174,51.122104614177616],[13.871685417160734,51.12219837328123],[13.871782171200838,51.12218308404816]]]}},{"type":"Feature","id":"UUID_6ef3b226-b1e7-4227-bcc2-f46e11d4ac5d","properties":{"id":"UUID_6ef3b226-b1e7-4227-bcc2-f46e11d4ac5d","height_m":3.118,"ground_m":232.027,"height_source":"LoD1 solid top minus bottom","production":"2023","laser":"2019","footprints":"2024"},"geometry":{"type":"Polygon","coordinates":[[[13.869995763379587,51.13626486628365],[13.870031774409673,51.136231275941846],[13.869972271670854,51.13620602513434],[13.869936260617813,51.13623961545784],[13.869995763379587,51.13626486628365]]]}},{"type":"Feature","id":"UUID_bb45c750-1baa-40c6-ae53-b380d074f882","properties":{"id":"UUID_bb45c750-1baa-40c6-ae53-b380d074f882","height_m":6.815,"ground_m":232.027,"height_source":"LoD1 solid top minus bottom","production":"2023","laser":"2019","footprints":"2024"},"geometry":{"type":"Polygon","coordinates":[[[13.869936260617813,51.13623961545784],[13.869895545346461,51.13622233379881],[13.869869846174359,51.13624630268507],[13.8698385302051,51.136275513961834],[13.869827882102264,51.13628543787395],[13.86992811449833,51.13632797055491],[13.869995763379587,51.13626486628365],[13.869936260617813,51.13623961545784]]]}},{"type":"Feature","id":"UUID_0bdaf0c4-077e-42b6-8fb6-b9c0d678522f","properties":{"id":"UUID_0bdaf0c4-077e-42b6-8fb6-b9c0d678522f","height_m":4.444,"ground_m":232.027,"height_source":"LoD1 solid top minus bottom","production":"2023","laser":"2019","footprints":"2024"},"geometry":{"type":"Polygon","coordinates":[[[13.869845442346902,51.13623595010909],[13.869821001083492,51.13625874410991],[13.869814126588969,51.13626515238878],[13.8698385302051,51.136275513961834],[13.869869846174359,51.13624630268507],[13.869845442346902,51.13623595010909]]]}},{"type":"Feature","id":"UUID_d14f482d-28e7-48fb-9ce1-4d87a232e145","properties":{"id":"UUID_d14f482d-28e7-48fb-9ce1-4d87a232e145","height_m":2.486,"ground_m":232.197,"height_source":"LoD1 solid top minus bottom","production":"2023","laser":"2019","footprints":"2024"},"geometry":{"type":"Polygon","coordinates":[[[13.869821001083492,51.13625874410991],[13.86977015099061,51.136236805184126],[13.869775206575625,51.13628206014443],[13.869789068396289,51.13628803934004],[13.869821001083492,51.13625874410991]]]}},{"type":"Feature","id":"UUID_ee956d93-ad16-46b3-a4d1-797b76c45d00","properties":{"id":"UUID_ee956d93-ad16-46b3-a4d1-797b76c45d00","height_m":2.212,"ground_m":232.197,"height_source":"LoD1 solid top minus bottom","production":"2023","laser":"2019","footprints":"2024"},"geometry":{"type":"Polygon","coordinates":[[[13.869724734407868,51.13632835216063],[13.869775206575625,51.13628206014443],[13.86977015099061,51.136236805184126],[13.869687746319498,51.13631238341009],[13.869724734407868,51.13632835216063]]]}},{"type":"Feature","id":"DESNATP1Xp0000go","properties":{"id":"DESNATP1Xp0000go","height_m":2.41,"ground_m":232.509,"height_source":"LoD1 solid top minus bottom","production":"2023","laser":"2019","footprints":"2024"},"geometry":{"type":"Polygon","coordinates":[[[13.868507415246176,51.136563842699616],[13.86847358859313,51.13659338902758],[13.868565226121827,51.136634904479074],[13.868585767485856,51.13664421277599],[13.86861959410547,51.1366146664156],[13.868507415246176,51.136563842699616]]]}},{"type":"Feature","id":"UUID_af5d050b-8f75-4f44-bd16-ad1c80da84ae","properties":{"id":"UUID_af5d050b-8f75-4f44-bd16-ad1c80da84ae","height_m":2.688,"ground_m":232.179,"height_source":"LoD1 solid top minus bottom","production":"2023","laser":"2019","footprints":"2024"},"geometry":{"type":"Polygon","coordinates":[[[13.868393115395723,51.13666234845105],[13.868480638204803,51.1367020346135],[13.868526879254945,51.13666166432849],[13.868440316800763,51.1366224551109],[13.868393115395723,51.13666234845105]]]}},{"type":"Feature","id":"UUID_cec19205-ce07-425a-9b33-d3a321c81db3","properties":{"id":"UUID_cec19205-ce07-425a-9b33-d3a321c81db3","height_m":2.572,"ground_m":232.179,"height_source":"LoD1 solid top minus bottom","production":"2023","laser":"2019","footprints":"2024"},"geometry":{"type":"Polygon","coordinates":[[[13.868542819728814,51.13668961486577],[13.868559059452396,51.136675500633],[13.868531968646758,51.1366639707267],[13.868526879254945,51.13666166432849],[13.86851044803693,51.13667601051325],[13.868542819728814,51.13668961486577]]]}},{"type":"Feature","id":"UUID_ec73ca00-0e8e-48f1-9a60-30226ff46688","properties":{"id":"UUID_ec73ca00-0e8e-48f1-9a60-30226ff46688","height_m":2.337,"ground_m":232.179,"height_source":"LoD1 solid top minus bottom","production":"2023","laser":"2019","footprints":"2024"},"geometry":{"type":"Polygon","coordinates":[[[13.868423384264112,51.13675202837762],[13.8685007135144,51.13678771307582],[13.868596725469041,51.136712267328164],[13.868542819728814,51.13668961486577],[13.86851044803693,51.13667601051325],[13.868480638204803,51.1367020346135],[13.868452274082426,51.136726804729484],[13.868423384264112,51.13675202837762]]]}},{"type":"Feature","id":"DESNATP13u0001iT","properties":{"id":"DESNATP13u0001iT","height_m":19.054,"ground_m":226.362,"height_source":"LoD1 solid top minus bottom","production":"2023","laser":"2019","footprints":"2024"},"geometry":{"type":"Polygon","coordinates":[[[13.859245817978467,51.122488321095204],[13.859218326464275,51.122437217235124],[13.859137136435674,51.122454518416596],[13.859164627869928,51.12250562229512],[13.859245817978467,51.122488321095204]]]}},{"type":"Feature","id":"UUID_4c078f2d-97ff-4aa5-8615-5bb70844db4d","properties":{"id":"UUID_4c078f2d-97ff-4aa5-8615-5bb70844db4d","height_m":6.695,"ground_m":233.139,"height_source":"LoD1 solid top minus bottom","production":"2023","laser":"2019","footprints":"2024"},"geometry":{"type":"Polygon","coordinates":[[[13.868798042334932,51.136211489137644],[13.868731976262062,51.136266496653256],[13.86882776027782,51.1363120357618],[13.868875792862555,51.13627202438844],[13.868893797722977,51.13625702791576],[13.868798042334932,51.136211489137644]]]}},{"type":"Feature","id":"UUID_fe5bea3b-929c-4973-82b2-e738fd28646c","properties":{"id":"UUID_fe5bea3b-929c-4973-82b2-e738fd28646c","height_m":4.073,"ground_m":233.139,"height_source":"LoD1 solid top minus bottom","production":"2023","laser":"2019","footprints":"2024"},"geometry":{"type":"Polygon","coordinates":[[[13.86882776027782,51.1363120357618],[13.868881569445549,51.1363357033318],[13.868928114739285,51.13629689156101],[13.868875792862555,51.13627202438844],[13.86882776027782,51.1363120357618]]]}},{"type":"Feature","id":"DESNATPU1000CO0y","properties":{"id":"DESNATPU1000CO0y","height_m":5.373,"ground_m":230.901,"height_source":"LoD1 solid top minus bottom","production":"2023","laser":"2019","footprints":"2024"},"geometry":{"type":"Polygon","coordinates":[[[13.867583374048435,51.137165868976254],[13.867731951466586,51.137245094090915],[13.867833861479811,51.137169373343895],[13.867685427031699,51.13709014974179],[13.867583374048435,51.137165868976254]]]}},{"type":"Feature","id":"DESNATP1Xp0000gr","properties":{"id":"DESNATP1Xp0000gr","height_m":2.602,"ground_m":232.395,"height_source":"LoD1 solid top minus bottom","production":"2023","laser":"2019","footprints":"2024"},"geometry":{"type":"Polygon","coordinates":[[[13.868565226121827,51.136634904479074],[13.86847358859313,51.13659338902758],[13.868440316800763,51.1366224551109],[13.868531968646758,51.1366639707267],[13.868565226121827,51.136634904479074]]]}},{"type":"Feature","id":"DESNATPU1000CiyE","properties":{"id":"DESNATPU1000CiyE","height_m":2.53,"ground_m":232.759,"height_source":"LoD1 solid top minus bottom","production":"2023","laser":"2019","footprints":"2024"},"geometry":{"type":"Polygon","coordinates":[[[13.869579059806233,51.13620164940471],[13.869518896965348,51.13617768692778],[13.869465283638563,51.13623085483143],[13.86952558942297,51.13625481871741],[13.869579059806233,51.13620164940471]]]}},{"type":"Feature","id":"DESNATPU1000DELc","properties":{"id":"DESNATPU1000DELc","height_m":2.975,"ground_m":230.748,"height_source":"LoD1 solid top minus bottom","production":"2023","laser":"2019","footprints":"2024"},"geometry":{"type":"Polygon","coordinates":[[[13.867895528487537,51.137201984196814],[13.867844161342942,51.13723332093997],[13.86793296822174,51.137284818306725],[13.867940903015395,51.137289427417095],[13.867992267959284,51.13725818053704],[13.867895528487537,51.137201984196814]]]}},{"type":"Feature","id":"UUID_d850159d-2ce7-4ec9-929e-0be7ae1cada2","properties":{"id":"UUID_d850159d-2ce7-4ec9-929e-0be7ae1cada2","height_m":4.32,"ground_m":233.801,"height_source":"LoD1 solid top minus bottom","production":"2023","laser":"2019","footprints":"2024"},"geometry":{"type":"Polygon","coordinates":[[[13.869251956536651,51.136054487635846],[13.86921128408911,51.136036055090116],[13.869195291458249,51.13605001892756],[13.86923597820176,51.13606845161702],[13.869251956536651,51.136054487635846]]]}},{"type":"Feature","id":"UUID_145efbb8-1929-4e79-b66c-54140a4a7479","properties":{"id":"UUID_145efbb8-1929-4e79-b66c-54140a4a7479","height_m":6.598,"ground_m":233.801,"height_source":"LoD1 solid top minus bottom","production":"2023","laser":"2019","footprints":"2024"},"geometry":{"type":"Polygon","coordinates":[[[13.86921128408911,51.136036055090116],[13.869251956536651,51.136054487635846],[13.8692725967186,51.13606384173214],[13.869330915131002,51.136012913614806],[13.869230004774602,51.13596717247308],[13.869171671800538,51.1360181093925],[13.86921128408911,51.136036055090116]]]}},{"type":"Feature","id":"DESNATPU1000Gp2M","properties":{"id":"DESNATPU1000Gp2M","height_m":4.498,"ground_m":232.184,"height_source":"LoD1 solid top minus bottom","production":"2023","laser":"2019","footprints":"2024"},"geometry":{"type":"Polygon","coordinates":[[[13.868364807973634,51.13668713708003],[13.868335903842663,51.136712360568275],[13.868423384264112,51.13675202837762],[13.868452274082426,51.136726804729484],[13.868364807973634,51.13668713708003]]]}},{"type":"Feature","id":"DESNATPU1000CdWX","properties":{"id":"DESNATPU1000CdWX","height_m":4.806,"ground_m":233.135,"height_source":"LoD1 solid top minus bottom","production":"2023","laser":"2019","footprints":"2024"},"geometry":{"type":"Polygon","coordinates":[[[13.869129686665755,51.13631786041673],[13.869172265617708,51.13627874041489],[13.869036062430176,51.136221938582906],[13.868993754898076,51.13625930759195],[13.869087238084806,51.13629957252189],[13.869129686665755,51.13631786041673]]]}},{"type":"Feature","id":"DESNATP1Xp0000h7","properties":{"id":"DESNATP1Xp0000h7","height_m":2.5,"ground_m":233.558,"height_source":"LoD1 solid top minus bottom","production":"2023","laser":"2019","footprints":"2024"},"geometry":{"type":"Polygon","coordinates":[[[13.86924106834418,51.136110514543226],[13.869211822744836,51.13613570796792],[13.869300533816741,51.136176475137354],[13.869329779174658,51.13615129068107],[13.86924106834418,51.136110514543226]]]}},{"type":"Feature","id":"DESNATPU1000G2Yi","properties":{"id":"DESNATPU1000G2Yi","height_m":6.533,"ground_m":232.591,"height_source":"LoD1 solid top minus bottom","production":"2023","laser":"2019","footprints":"2024"},"geometry":{"type":"Polygon","coordinates":[[[13.868408297993842,51.136475142279636],[13.86852392712697,51.13652806778651],[13.868602006164952,51.136460550914194],[13.868486377108752,51.13640762548444],[13.868408297993842,51.136475142279636]]]}},{"type":"Feature","id":"DESNATP1Xp0000gs","properties":{"id":"DESNATP1Xp0000gs","height_m":5.731,"ground_m":232.87,"height_source":"LoD1 solid top minus bottom","production":"2023","laser":"2019","footprints":"2024"},"geometry":{"type":"Polygon","coordinates":[[[13.868774014472397,51.13637584937881],[13.868738515510445,51.13635978681962],[13.86867199981689,51.13641797335332],[13.868707498799742,51.13643403593267],[13.868774014472397,51.13637584937881]]]}},{"type":"Feature","id":"DESNATP1Xp0000gz","properties":{"id":"DESNATP1Xp0000gz","height_m":4.754,"ground_m":233.112,"height_source":"LoD1 solid top minus bottom","production":"2023","laser":"2019","footprints":"2024"},"geometry":{"type":"Polygon","coordinates":[[[13.868993754898076,51.13625930759195],[13.868964920215973,51.136285808864834],[13.869058389140086,51.13632607367963],[13.869087238084806,51.13629957252189],[13.868993754898076,51.13625930759195]]]}},{"type":"Feature","id":"UUID_33832e47-e8a6-4e9f-b8d6-5cbd5ac81da4","properties":{"id":"UUID_33832e47-e8a6-4e9f-b8d6-5cbd5ac81da4","height_m":3.687,"ground_m":235.013,"height_source":"LoD1 solid top minus bottom","production":"2023","laser":"2019","footprints":"2024"},"geometry":{"type":"Polygon","coordinates":[[[13.869157640313743,51.13566042551999],[13.869139597975513,51.13565707664283],[13.869123506988487,51.135691452860364],[13.869141563848643,51.13569479288772],[13.869157640313743,51.13566042551999]]]}},{"type":"Feature","id":"UUID_3aa419a7-9e0e-44eb-be49-d8ec560c0fcc","properties":{"id":"UUID_3aa419a7-9e0e-44eb-be49-d8ec560c0fcc","height_m":3.911,"ground_m":235.013,"height_source":"LoD1 solid top minus bottom","production":"2023","laser":"2019","footprints":"2024"},"geometry":{"type":"Polygon","coordinates":[[[13.869192583332268,51.13558571965153],[13.869178346951205,51.13561614804645],[13.869268089885153,51.13563277093783],[13.869282340722394,51.13560233367939],[13.869192583332268,51.13558571965153]]]}},{"type":"Feature","id":"UUID_d45856a6-1016-4b0f-8d3f-fa66a0be59d7","properties":{"id":"UUID_d45856a6-1016-4b0f-8d3f-fa66a0be59d7","height_m":4.107,"ground_m":235.013,"height_source":"LoD1 solid top minus bottom","production":"2023","laser":"2019","footprints":"2024"},"geometry":{"type":"Polygon","coordinates":[[[13.869300643112199,51.135662914343314],[13.869277524233318,51.13570939869428],[13.869296847224204,51.13571298474875],[13.869318714044988,51.13566626347204],[13.869301240661967,51.135663028032724],[13.869300643112199,51.135662914343314]]]}},{"type":"Feature","id":"UUID_02a22f28-f732-4df1-83c3-7ac3c9fb5b0d","properties":{"id":"UUID_02a22f28-f732-4df1-83c3-7ac3c9fb5b0d","height_m":6.999,"ground_m":235.013,"height_source":"LoD1 solid top minus bottom","production":"2023","laser":"2019","footprints":"2024"},"geometry":{"type":"Polygon","coordinates":[[[13.869311630960777,51.13564083568553],[13.869268089885153,51.13563277093783],[13.869178346951205,51.13561614804645],[13.86915972150951,51.13565597629227],[13.869157640313743,51.13566042551999],[13.869141563848643,51.13569479288772],[13.869272713766817,51.13571908224178],[13.869277268108958,51.13570935125457],[13.869277524233318,51.13570939869428],[13.869291924185385,51.13568046465112],[13.869300643112199,51.135662914343314],[13.869301240661967,51.135663028032724],[13.869311630960777,51.13564083568553]]]}},{"type":"Feature","id":"DESNATPU1000DLZ3","properties":{"id":"DESNATPU1000DLZ3","height_m":3.836,"ground_m":232.436,"height_source":"LoD1 solid top minus bottom","production":"2023","laser":"2019","footprints":"2024"},"geometry":{"type":"Polygon","coordinates":[[[13.868778673320687,51.13657942531903],[13.86871434761398,51.13664390993591],[13.868780462078746,51.13666999870621],[13.868844785533712,51.136605603958245],[13.868778673320687,51.13657942531903]]]}},{"type":"Feature","id":"DESNATPU1000BIIl","properties":{"id":"DESNATPU1000BIIl","height_m":4.561,"ground_m":232.776,"height_source":"LoD1 solid top minus bottom","production":"2023","laser":"2019","footprints":"2024"},"geometry":{"type":"Polygon","coordinates":[[[13.868801396095508,51.13639126687217],[13.868958138515186,51.136462152288814],[13.868994390783437,51.13643042607828],[13.868837634123796,51.13635954057194],[13.868801396095508,51.13639126687217]]]}},{"type":"Feature","id":"DESNATP1Xp0000gm","properties":{"id":"DESNATP1Xp0000gm","height_m":2.728,"ground_m":230.898,"height_source":"LoD1 solid top minus bottom","production":"2023","laser":"2019","footprints":"2024"},"geometry":{"type":"Polygon","coordinates":[[[13.868172027417977,51.1370600855355],[13.868083535089722,51.13700566877794],[13.867978639141032,51.137073177518445],[13.868023533192094,51.13710077890067],[13.868004890148613,51.13711145258536],[13.868060751490209,51.13714649812142],[13.868118270589347,51.13711433954542],[13.86810403322892,51.13710384220279],[13.868172027417977,51.1370600855355]]]}},{"type":"Feature","id":"UUID_9ec71da8-ada5-48e9-b648-d28ce909c489","properties":{"id":"UUID_9ec71da8-ada5-48e9-b648-d28ce909c489","height_m":3.002,"ground_m":231.346,"height_source":"LoD1 solid top minus bottom","production":"2023","laser":"2019","footprints":"2024"},"geometry":{"type":"Polygon","coordinates":[[[13.870246839555728,51.13633365789412],[13.870177034953512,51.136302381508244],[13.870152375678813,51.13632415730091],[13.87022218029674,51.13635543370149],[13.870246839555728,51.13633365789412]]]}},{"type":"Feature","id":"UUID_00c28c8b-2f8a-47db-9f81-3ec9d4333ffd","properties":{"id":"UUID_00c28c8b-2f8a-47db-9f81-3ec9d4333ffd","height_m":8.488,"ground_m":231.346,"height_source":"LoD1 solid top minus bottom","production":"2023","laser":"2019","footprints":"2024"},"geometry":{"type":"Polygon","coordinates":[[[13.870097223705036,51.1363314660484],[13.870076495737974,51.13632218319212],[13.870036132578557,51.136357808800305],[13.870056831972567,51.13636709138757],[13.870097223705036,51.1363314660484]]]}},{"type":"Feature","id":"UUID_99065a34-a90f-4e32-ab8e-f62e1e1768ca","properties":{"id":"UUID_99065a34-a90f-4e32-ab8e-f62e1e1768ca","height_m":7.299,"ground_m":231.346,"height_source":"LoD1 solid top minus bottom","production":"2023","laser":"2019","footprints":"2024"},"geometry":{"type":"Polygon","coordinates":[[[13.870146814072886,51.13642200665049],[13.870169647389213,51.136401840889704],[13.870199829140862,51.136375172483],[13.870222092579784,51.13635551378803],[13.87022218029674,51.13635543370149],[13.870152375678813,51.13632415730091],[13.870121298009725,51.1363102331678],[13.87009725206624,51.13633147531507],[13.870097223705036,51.1363314660484],[13.870056831972567,51.13636709138757],[13.87004581739368,51.13637680494723],[13.870146814072886,51.13642200665049]]]}},{"type":"Feature","id":"UUID_dd6c57ee-e12d-4001-98f6-b07292d9caf2","properties":{"id":"UUID_dd6c57ee-e12d-4001-98f6-b07292d9caf2","height_m":3.235,"ground_m":232.507,"height_source":"LoD1 solid top minus bottom","production":"2023","laser":"2019","footprints":"2024"},"geometry":{"type":"Polygon","coordinates":[[[13.869778640409088,51.13616776964699],[13.86980372297238,51.13614563831664],[13.869731629178636,51.13611330538263],[13.869706561108691,51.1361354278451],[13.869778640409088,51.13616776964699]]]}},{"type":"Feature","id":"UUID_76bb2a41-7e40-43c1-9d35-dafb139cfdfe","properties":{"id":"UUID_76bb2a41-7e40-43c1-9d35-dafb139cfdfe","height_m":5.038,"ground_m":232.507,"height_source":"LoD1 solid top minus bottom","production":"2023","laser":"2019","footprints":"2024"},"geometry":{"type":"Polygon","coordinates":[[[13.869657226850554,51.13613922252742],[13.869636442995116,51.136129894088754],[13.869591244639588,51.13616977130087],[13.869612014213283,51.13617909960942],[13.869657226850554,51.13613922252742]]]}},{"type":"Feature","id":"UUID_fdad8177-20a5-4845-8b2f-4423624208cb","properties":{"id":"UUID_fdad8177-20a5-4845-8b2f-4423624208cb","height_m":7.137,"ground_m":232.507,"height_source":"LoD1 solid top minus bottom","production":"2023","laser":"2019","footprints":"2024"},"geometry":{"type":"Polygon","coordinates":[[[13.869704882237434,51.13623286507376],[13.869778640409088,51.13616776964699],[13.869706561108691,51.1361354278451],[13.869676714221095,51.1361220370624],[13.869657226850554,51.13613922252742],[13.869612014213283,51.13617909960942],[13.869602913110166,51.13618713201056],[13.869704882237434,51.13623286507376]]]}},{"type":"Feature","id":"DESNATPU1000G32q","properties":{"id":"DESNATPU1000G32q","height_m":5.738,"ground_m":232.854,"height_source":"LoD1 solid top minus bottom","production":"2023","laser":"2019","footprints":"2024"},"geometry":{"type":"Polygon","coordinates":[[[13.868573872355872,51.13637357149909],[13.86867199981689,51.13641797335332],[13.868738515510445,51.13635978681962],[13.868640402397517,51.1363153851594],[13.868573872355872,51.13637357149909]]]}},{"type":"Feature","id":"DESNATP1Xp0000gn","properties":{"id":"DESNATP1Xp0000gn","height_m":2.74,"ground_m":231.953,"height_source":"LoD1 solid top minus bottom","production":"2023","laser":"2019","footprints":"2024"},"geometry":{"type":"Polygon","coordinates":[[[13.86833189452543,51.13682256278882],[13.868384255188055,51.136845856861235],[13.868426731497358,51.1368080580583],[13.868374370635715,51.13678477299543],[13.86833189452543,51.13682256278882]]]}},{"type":"Feature","id":"DESNATP1Xp0000h3","properties":{"id":"DESNATP1Xp0000h3","height_m":2.924,"ground_m":232.165,"height_source":"LoD1 solid top minus bottom","production":"2023","laser":"2019","footprints":"2024"},"geometry":{"type":"Polygon","coordinates":[[[13.8685007135144,51.13678771307582],[13.868530930293971,51.1368029332456],[13.868626956522167,51.13672748761148],[13.868596725469041,51.136712267328164],[13.8685007135144,51.13678771307582]]]}},{"type":"Feature","id":"DESNATPU1000IOjg","properties":{"id":"DESNATPU1000IOjg","height_m":6.902,"ground_m":233.319,"height_source":"LoD1 solid top minus bottom","production":"2023","laser":"2019","footprints":"2024"},"geometry":{"type":"Polygon","coordinates":[[[13.869066370878526,51.136132188179246],[13.868980327116182,51.13609224697409],[13.868894112962504,51.13616808456105],[13.868983966966837,51.13620535588814],[13.869066370878526,51.136132188179246]]]}},{"type":"Feature","id":"UUID_95e1e1c0-6f3c-4f84-8a96-084cdb2f7633","properties":{"id":"UUID_95e1e1c0-6f3c-4f84-8a96-084cdb2f7633","height_m":4.823,"ground_m":233.568,"height_source":"LoD1 solid top minus bottom","production":"2023","laser":"2019","footprints":"2024"},"geometry":{"type":"Polygon","coordinates":[[[13.869101632929612,51.13583733610245],[13.869023541556684,51.13581650929024],[13.869014375243104,51.13583013445058],[13.869012581111178,51.135832778927025],[13.86909054191792,51.13585368541774],[13.869101632929612,51.13583733610245]]]}},{"type":"Feature","id":"UUID_4bbd8dc1-b22d-4fd7-923a-f388ae0d3d8f","properties":{"id":"UUID_4bbd8dc1-b22d-4fd7-923a-f388ae0d3d8f","height_m":7.651,"ground_m":233.568,"height_source":"LoD1 solid top minus bottom","production":"2023","laser":"2019","footprints":"2024"},"geometry":{"type":"Polygon","coordinates":[[[13.869114683671123,51.13584081656879],[13.86913756870984,51.13580683878022],[13.86916042403614,51.13577290566308],[13.86907106236787,51.13574885843933],[13.869068674168798,51.13574949180831],[13.86904648600694,51.135782442167134],[13.869023541556684,51.13581650929024],[13.869101632929612,51.13583733610245],[13.869114683671123,51.13584081656879]]]}}]}