{"type":"FeatureCollection","features":[{"type":"Feature","id":"DESNATPU1000CY7o","properties":{"id":"DESNATPU1000CY7o","height_m":6.444,"ground_m":248.426,"height_source":"LoD1 solid top minus bottom","production":"2023","laser":"2017","footprints":"2024"},"geometry":{"type":"Polygon","coordinates":[[[13.872382488260769,51.12206420908915],[13.872358379138126,51.1220079971682],[13.87221179289151,51.12203292303359],[13.872242918236967,51.122105551343665],[13.872255614768813,51.122136338829876],[13.872402946483678,51.12211015212982],[13.872382488260769,51.12206420908915]]]}},{"type":"Feature","id":"DESNATPU1000E1tm","properties":{"id":"DESNATPU1000E1tm","height_m":5.754,"ground_m":276.96,"height_source":"LoD1 solid top minus bottom","production":"2023","laser":"2017","footprints":"2024"},"geometry":{"type":"Polygon","coordinates":[[[13.861399700025961,51.10718554207693],[13.861621995506221,51.107277543805694],[13.861716351785683,51.10718718647166],[13.861494199358527,51.107095186313096],[13.861399700025961,51.10718554207693]]]}},{"type":"Feature","id":"DESNATPU1000JJAu","properties":{"id":"DESNATPU1000JJAu","height_m":2.946,"ground_m":277.562,"height_source":"LoD1 solid top minus bottom","production":"2023","laser":"2017","footprints":"2024"},"geometry":{"type":"Polygon","coordinates":[[[13.860621059811482,51.10690008212058],[13.86056253113159,51.106956615448105],[13.860654030932137,51.10699410745034],[13.860712276135343,51.10693748138824],[13.860621059811482,51.10690008212058]]]}}]}