{"type":"FeatureCollection","features":[{"type":"Feature","id":"DESNATPU1000DvyQ","properties":{"id":"DESNATPU1000DvyQ","height_m":2.628,"ground_m":249.929,"height_source":"LoD1 solid top minus bottom","production":"2023","laser":"2017","footprints":"2020"},"geometry":{"type":"Polygon","coordinates":[[[13.892518624975313,51.068383932489546],[13.892493880858707,51.068326324318505],[13.892328477150567,51.068360287320985],[13.892360470017344,51.06841198404243],[13.892518624975313,51.068383932489546]]]}},{"type":"Feature","id":"UUID_3ebb687e-03d2-42f4-91b7-b636cd4c925c","properties":{"id":"UUID_3ebb687e-03d2-42f4-91b7-b636cd4c925c","height_m":6.19,"ground_m":246.173,"height_source":"LoD1 solid top minus bottom","production":"2023","laser":"2017","footprints":"2020"},"geometry":{"type":"Polygon","coordinates":[[[13.887100242863808,51.06889667326388],[13.887013039632917,51.068896499419125],[13.887040994631592,51.06894076712247],[13.887099230590126,51.068941258666584],[13.887100242863808,51.06889667326388]]]}},{"type":"Feature","id":"UUID_f178d651-5351-444f-88e2-3c2c81087ac0","properties":{"id":"UUID_f178d651-5351-444f-88e2-3c2c81087ac0","height_m":3.106,"ground_m":246.173,"height_source":"LoD1 solid top minus bottom","production":"2023","laser":"2017","footprints":"2020"},"geometry":{"type":"Polygon","coordinates":[[[13.887105519903864,51.06866594259263],[13.887105620821323,51.06866173494693],[13.887099065052663,51.06866192432485],[13.887100114658834,51.0686163770514],[13.88705156985878,51.06861590584084],[13.887050580949229,51.068661300815215],[13.887043258289914,51.0686613300112],[13.887043177243207,51.06866530403462],[13.887105519903864,51.06866594259263]]]}},{"type":"Feature","id":"UUID_4bd9bed4-578f-4f01-bbe5-f904c07563d3","properties":{"id":"UUID_4bd9bed4-578f-4f01-bbe5-f904c07563d3","height_m":5.97,"ground_m":246.173,"height_source":"LoD1 solid top minus bottom","production":"2023","laser":"2017","footprints":"2020"},"geometry":{"type":"Polygon","coordinates":[[[13.88699018984534,51.06889645270376],[13.887013039632917,51.068896499419125],[13.887100242863808,51.06889667326388],[13.887105519903864,51.06866594259263],[13.887043177243207,51.06866530403462],[13.886996787744437,51.06866482634542],[13.88699018984534,51.06889645270376]]]}},{"type":"Feature","id":"DESNATP1Ym0004ec","properties":{"id":"DESNATP1Ym0004ec","height_m":3.0,"ground_m":247.106,"height_source":"LoD1 solid top minus bottom","production":"2023","laser":"2017","footprints":"2020"},"geometry":{"type":"Polygon","coordinates":[[[13.887395246481976,51.06843071667024],[13.887393877561435,51.068487807597236],[13.887508647266266,51.06848890000577],[13.887510016045669,51.068431809076564],[13.887395246481976,51.06843071667024]]]}},{"type":"Feature","id":"DESNATPU1000BSeO","properties":{"id":"DESNATPU1000BSeO","height_m":3.013,"ground_m":246.417,"height_source":"LoD1 solid top minus bottom","production":"2023","laser":"2017","footprints":"2020"},"geometry":{"type":"Polygon","coordinates":[[[13.88956140186226,51.06892538634998],[13.889475866356564,51.068927091685495],[13.889478572945144,51.068980983955825],[13.88956410855015,51.068979278618954],[13.88956140186226,51.06892538634998]]]}},{"type":"Feature","id":"DESNATPU1000C8uh","properties":{"id":"DESNATPU1000C8uh","height_m":7.101,"ground_m":266.453,"height_source":"LoD1 solid top minus bottom","production":"2023","laser":"2017","footprints":"2020"},"geometry":{"type":"Polygon","coordinates":[[[13.902110898395748,51.08317589973865],[13.902200767814685,51.08310377682313],[13.902106569758116,51.083057200170714],[13.902016686011097,51.08312932287997],[13.902110898395748,51.08317589973865]]]}},{"type":"Feature","id":"UUID_cc840bcb-04d9-4e9a-83cc-3e9df0c7f301","properties":{"id":"UUID_cc840bcb-04d9-4e9a-83cc-3e9df0c7f301","height_m":3.617,"ground_m":247.156,"height_source":"LoD1 solid top minus bottom","production":"2023","laser":"2017","footprints":"2020"},"geometry":{"type":"Polygon","coordinates":[[[13.888209943678893,51.06873356576996],[13.888216730374156,51.068711229387176],[13.888147080722423,51.06870281513083],[13.888140121087257,51.06872581532801],[13.888209943678893,51.06873356576996]]]}},{"type":"Feature","id":"UUID_61c2c96a-8542-48d0-ac10-08c59418ecef","properties":{"id":"UUID_61c2c96a-8542-48d0-ac10-08c59418ecef","height_m":4.113,"ground_m":247.156,"height_source":"LoD1 solid top minus bottom","production":"2023","laser":"2017","footprints":"2020"},"geometry":{"type":"Polygon","coordinates":[[[13.888230854873239,51.068735886958834],[13.888380037512574,51.06875244961354],[13.888381322745126,51.06874646367347],[13.888231432773207,51.06873321261661],[13.888230854873239,51.068735886958834]]]}},{"type":"Feature","id":"UUID_ecf68f3f-254b-49f4-a68a-42b9f730bb4b","properties":{"id":"UUID_ecf68f3f-254b-49f4-a68a-42b9f730bb4b","height_m":3.976,"ground_m":247.156,"height_source":"LoD1 solid top minus bottom","production":"2023","laser":"2017","footprints":"2020"},"geometry":{"type":"Polygon","coordinates":[[[13.888361732119495,51.0688373649047],[13.888380037512574,51.06875244961354],[13.888140121087257,51.06872581532801],[13.888101107097823,51.068854732948296],[13.888361732119495,51.0688373649047]]]}},{"type":"Feature","id":"UUID_d7ba7c54-cd51-4169-b72e-44e3465fa904","properties":{"id":"UUID_d7ba7c54-cd51-4169-b72e-44e3465fa904","height_m":2.531,"ground_m":247.156,"height_source":"LoD1 solid top minus bottom","production":"2023","laser":"2017","footprints":"2020"},"geometry":{"type":"Polygon","coordinates":[[[13.888270671964797,51.06909765723752],[13.888314827661146,51.069096071820525],[13.888305894876611,51.068997093615046],[13.888261739274254,51.06899867902929],[13.888270671964797,51.06909765723752]]]}},{"type":"Feature","id":"UUID_52760e50-8f2a-46cd-991c-a901849d360f","properties":{"id":"UUID_52760e50-8f2a-46cd-991c-a901849d360f","height_m":3.647,"ground_m":247.156,"height_source":"LoD1 solid top minus bottom","production":"2023","laser":"2017","footprints":"2020"},"geometry":{"type":"Polygon","coordinates":[[[13.88821231348315,51.0688473195972],[13.888101107097823,51.068854732948296],[13.887973189097725,51.06886325518188],[13.888005299278296,51.069049827457114],[13.888077653482506,51.06904486832958],[13.888167620888165,51.06903870080666],[13.888185959057129,51.06896017970286],[13.888197330769307,51.06891149321889],[13.88821231348315,51.0688473195972]]]}},{"type":"Feature","id":"UUID_2fde9b1e-c9fd-4bbe-a321-f86731b208c2","properties":{"id":"UUID_2fde9b1e-c9fd-4bbe-a321-f86731b208c2","height_m":4.091,"ground_m":247.156,"height_source":"LoD1 solid top minus bottom","production":"2023","laser":"2017","footprints":"2020"},"geometry":{"type":"Polygon","coordinates":[[[13.888361732119495,51.0688373649047],[13.88821231348315,51.0688473195972],[13.888197330769307,51.06891149321889],[13.888343072229883,51.06892396745714],[13.888361732119495,51.0688373649047]]]}},{"type":"Feature","id":"UUID_d730e736-9ca0-44ec-ae25-3401e57a35c6","properties":{"id":"UUID_d730e736-9ca0-44ec-ae25-3401e57a35c6","height_m":4.308,"ground_m":247.156,"height_source":"LoD1 solid top minus bottom","production":"2023","laser":"2017","footprints":"2020"},"geometry":{"type":"Polygon","coordinates":[[[13.888270671964797,51.06909765723752],[13.888264750739186,51.069032043788326],[13.888077653482506,51.06904486832958],[13.888094001596766,51.06913993330622],[13.88812252881649,51.06913892770395],[13.888122799116585,51.06914194284566],[13.888274201337978,51.06913680925838],[13.888270671964797,51.06909765723752]]]}},{"type":"Feature","id":"UUID_c40f2da7-2fb0-4d38-afcf-d17219761af0","properties":{"id":"UUID_c40f2da7-2fb0-4d38-afcf-d17219761af0","height_m":3.757,"ground_m":247.156,"height_source":"LoD1 solid top minus bottom","production":"2023","laser":"2017","footprints":"2020"},"geometry":{"type":"Polygon","coordinates":[[[13.888258027919802,51.06895759183541],[13.888185959057129,51.06896017970286],[13.888167620888165,51.06903870080666],[13.888264750739186,51.069032043788326],[13.888261739274254,51.06899867902929],[13.888258027919802,51.06895759183541]]]}},{"type":"Feature","id":"DESNATPU1000BrOH","properties":{"id":"DESNATPU1000BrOH","height_m":3.88,"ground_m":265.387,"height_source":"LoD1 solid top minus bottom","production":"2023","laser":"2017","footprints":"2020"},"geometry":{"type":"Polygon","coordinates":[[[13.895604422377922,51.07980179949142],[13.89550742996854,51.07976221437112],[13.895313289019985,51.07995336379206],[13.895410586390366,51.07999214260767],[13.895604422377922,51.07980179949142]]]}},{"type":"Feature","id":"DESNATPU1000FGvI","properties":{"id":"DESNATPU1000FGvI","height_m":3.098,"ground_m":267.547,"height_source":"LoD1 solid top minus bottom","production":"2023","laser":"2017","footprints":"2020"},"geometry":{"type":"Polygon","coordinates":[[[13.902203760049229,51.08323973884663],[13.902259003896349,51.083191876804925],[13.902194177411593,51.08316204170106],[13.90213864592345,51.08320999093828],[13.902203760049229,51.08323973884663]]]}},{"type":"Feature","id":"DESNATP1Ym0004eY","properties":{"id":"DESNATP1Ym0004eY","height_m":4.641,"ground_m":247.124,"height_source":"LoD1 solid top minus bottom","production":"2023","laser":"2017","footprints":"2020"},"geometry":{"type":"Polygon","coordinates":[[[13.89954571443869,51.07013596440257],[13.899518959418963,51.07007968774612],[13.899345978552308,51.07011232135986],[13.899372733379813,51.070168598054394],[13.89954571443869,51.07013596440257]]]}}]}