{"type":"FeatureCollection","features":[{"type":"Feature","id":"DESNATPU1000JGel","properties":{"id":"DESNATPU1000JGel","height_m":4.333,"ground_m":127.282,"height_source":"LoD1 solid top minus bottom","production":"2023","laser":"2017","footprints":"2023"},"geometry":{"type":"Polygon","coordinates":[[[13.899939246390426,50.99581539430592],[13.899996247097736,50.99586606617961],[13.900105364523725,50.99581717428125],[13.900048363755811,50.99576650246003],[13.899939246390426,50.99581539430592]]]}},{"type":"Feature","id":"DESNATP1Vq00012k","properties":{"id":"DESNATP1Vq00012k","height_m":3.151,"ground_m":127.299,"height_source":"LoD1 solid top minus bottom","production":"2023","laser":"2017","footprints":"2023"},"geometry":{"type":"Polygon","coordinates":[[[13.900076679367153,50.99601061017634],[13.8999726068932,50.995984135519244],[13.899920917362344,50.9960650160843],[13.900024989773808,50.99609149977888],[13.900076679367153,50.99601061017634]]]}},{"type":"Feature","id":"DESNATPU1000CNxU","properties":{"id":"DESNATPU1000CNxU","height_m":2.966,"ground_m":127.462,"height_source":"LoD1 solid top minus bottom","production":"2023","laser":"2017","footprints":"2023"},"geometry":{"type":"Polygon","coordinates":[[[13.899794678817651,50.996158126279376],[13.899747900618914,50.99614761373143],[13.899708144089633,50.996219811582286],[13.899746424943627,50.99622808583264],[13.899807508050623,50.99624233024031],[13.899835575288668,50.99619439289457],[13.899783138488836,50.996182118429935],[13.899794678817651,50.996158126279376]]]}},{"type":"Feature","id":"DESNATPU1000Fdd6","properties":{"id":"DESNATPU1000Fdd6","height_m":3.11,"ground_m":117.669,"height_source":"LoD1 solid top minus bottom","production":"2023","laser":"2017","footprints":"2023"},"geometry":{"type":"Polygon","coordinates":[[[13.895292575027058,50.99590295865176],[13.895391895090755,50.99590920359879],[13.895398801714695,50.995864394571456],[13.895299619948341,50.995858330794775],[13.895292575027058,50.99590295865176]]]}},{"type":"Feature","id":"DESNATPU1000BjoS","properties":{"id":"DESNATPU1000BjoS","height_m":3.793,"ground_m":128.059,"height_source":"LoD1 solid top minus bottom","production":"2023","laser":"2017","footprints":"2023"},"geometry":{"type":"Polygon","coordinates":[[[13.900437043729836,50.996390560143354],[13.900485691965208,50.99631533421195],[13.90038277581168,50.996289338435865],[13.900334171030824,50.99636452876282],[13.900437043729836,50.996390560143354]]]}},{"type":"Feature","id":"DESNATPU1000IAgs","properties":{"id":"DESNATPU1000IAgs","height_m":2.888,"ground_m":127.951,"height_source":"LoD1 solid top minus bottom","production":"2023","laser":"2017","footprints":"2023"},"geometry":{"type":"Polygon","coordinates":[[[13.900574765724526,50.99617572222067],[13.9006538008636,50.99619616034104],[13.900686332756708,50.996146196452514],[13.900607155213809,50.99612575701364],[13.900574765724526,50.99617572222067]]]}},{"type":"Feature","id":"DESNATPU1000Fl3v","properties":{"id":"DESNATPU1000Fl3v","height_m":3.109,"ground_m":127.761,"height_source":"LoD1 solid top minus bottom","production":"2023","laser":"2017","footprints":"2023"},"geometry":{"type":"Polygon","coordinates":[[[13.899788469363363,50.99639236748615],[13.899701799777615,50.996370561905174],[13.899651456043566,50.99645053775362],[13.89973811767265,50.996472082503715],[13.899788469363363,50.99639236748615]]]}}]}