{"type":"FeatureCollection","features":[{"type":"Feature","id":"DESNATPU1000HHSD","properties":{"id":"DESNATPU1000HHSD","height_m":3.114,"ground_m":324.273,"height_source":"LoD1 solid top minus bottom","production":"2023","laser":"2017","footprints":"2020"},"geometry":{"type":"Polygon","coordinates":[[[13.918096854517401,51.01631902383687],[13.918072618543842,51.016355759856495],[13.918281629830895,51.01641057279854],[13.918305865669186,51.01637383673508],[13.918096854517401,51.01631902383687]]]}},{"type":"Feature","id":"DESNATP14u0001e7","properties":{"id":"DESNATP14u0001e7","height_m":2.866,"ground_m":347.068,"height_source":"LoD1 solid top minus bottom","production":"2023","laser":"2017","footprints":"2020"},"geometry":{"type":"Polygon","coordinates":[[[13.923967354428884,51.02432273388616],[13.923958697737683,51.02432217754953],[13.923950033236999,51.02432257437628],[13.923941603488592,51.024323917607425],[13.923933666351266,51.02432615566093],[13.923926479683953,51.02432923695481],[13.923920245570283,51.024333055436756],[13.923915151837976,51.024337504923146],[13.923911358843576,51.02434243401346],[13.923908998015206,51.02434770902632],[13.923908101820926,51.02435315939776],[13.923908745080917,51.02435863293939],[13.923910860678555,51.02436394917725],[13.923914423849212,51.02436894601293],[13.923919309410628,51.02437348740157],[13.923925364084452,51.02437741905397],[13.923932405038947,51.02438063137273],[13.92394023518604,51.024383014629144],[13.923948599163857,51.02438451251468],[13.923957241610381,51.024385068720854],[13.92396592037882,51.024384672024915],[13.923974350137593,51.02438332879209],[13.923982273026663,51.02438109060461],[13.923989473954544,51.02437800943862],[13.923995708068666,51.024374190953026],[13.92400078754125,51.02436974133185],[13.924004580528484,51.02436481223861],[13.924006955603067,51.02435953735505],[13.924007837737923,51.02435407786064],[13.924007208514285,51.02434861344163],[13.924005078650136,51.02434329707417],[13.924001515471618,51.02433830024119],[13.923996644161887,51.024333758987204],[13.923990589487612,51.02432982733846],[13.923983534280557,51.024326614891926],[13.923975718396786,51.02432423176972],[13.923967354428884,51.02432273388616]]]}},{"type":"Feature","id":"DESNATPU1000ExaK","properties":{"id":"DESNATPU1000ExaK","height_m":8.272,"ground_m":325.745,"height_source":"LoD1 solid top minus bottom","production":"2023","laser":"2017","footprints":"2020"},"geometry":{"type":"Polygon","coordinates":[[[13.916693916925402,51.016854585952586],[13.916847484309091,51.01681698089013],[13.916798722724002,51.01673757199075],[13.916645013027395,51.016775175669345],[13.916693916925402,51.016854585952586]]]}},{"type":"Feature","id":"DESNATP14u0001cm","properties":{"id":"DESNATP14u0001cm","height_m":3.46,"ground_m":330.663,"height_source":"LoD1 solid top minus bottom","production":"2023","laser":"2017","footprints":"2020"},"geometry":{"type":"Polygon","coordinates":[[[13.916758411745263,51.01892392501202],[13.916635519669509,51.018855690303745],[13.91655611755386,51.018912058369715],[13.916673483697128,51.018974531495275],[13.916758411745263,51.01892392501202]]]}},{"type":"Feature","id":"DESNATPU1000FLrp","properties":{"id":"DESNATPU1000FLrp","height_m":4.889,"ground_m":307.911,"height_source":"LoD1 solid top minus bottom","production":"2023","laser":"2017","footprints":"2020"},"geometry":{"type":"Polygon","coordinates":[[[13.930997175928704,51.02921382120849],[13.931065629597915,51.02938728866553],[13.93119945207948,51.029366210669565],[13.931131142584032,51.02919265468279],[13.930997175928704,51.02921382120849]]]}},{"type":"Feature","id":"DESNATPU1000G3VQ","properties":{"id":"DESNATPU1000G3VQ","height_m":3.829,"ground_m":380.609,"height_source":"LoD1 solid top minus bottom","production":"2023","laser":"2017","footprints":"2020"},"geometry":{"type":"Polygon","coordinates":[[[13.922882154438325,51.027220149560605],[13.922880774755939,51.0273534998944],[13.922978305480719,51.0273538593207],[13.922979684883268,51.027220508984044],[13.922882154438325,51.027220149560605]]]}},{"type":"Feature","id":"DESNATP14u0001e9","properties":{"id":"DESNATP14u0001e9","height_m":2.75,"ground_m":272.518,"height_source":"LoD1 solid top minus bottom","production":"2023","laser":"2017","footprints":"2020"},"geometry":{"type":"Polygon","coordinates":[[[13.941978250038897,51.03182736947596],[13.941888504781103,51.03179158398905],[13.941852439547942,51.03183408098566],[13.941940016686837,51.03186863284471],[13.941978250038897,51.03182736947596]]]}},{"type":"Feature","id":"UUID_fee974b0-a30d-4dc5-a9ae-c97a2bb45d48","properties":{"id":"UUID_fee974b0-a30d-4dc5-a9ae-c97a2bb45d48","height_m":5.342,"ground_m":377.082,"height_source":"LoD1 solid top minus bottom","production":"2023","laser":"2017","footprints":"2020"},"geometry":{"type":"Polygon","coordinates":[[[13.923065661790092,51.02648874882739],[13.923114351540264,51.02647984506228],[13.923151156059838,51.02647307994406],[13.923147221599248,51.0264644106073],[13.923147194544066,51.026464347408435],[13.923061613706667,51.026480060454944],[13.923065661790092,51.02648874882739]]]}},{"type":"Feature","id":"UUID_8afed13b-c5af-434e-a744-72fcc179117a","properties":{"id":"UUID_8afed13b-c5af-434e-a744-72fcc179117a","height_m":5.364,"ground_m":377.082,"height_source":"LoD1 solid top minus bottom","production":"2023","laser":"2017","footprints":"2020"},"geometry":{"type":"Polygon","coordinates":[[[13.923216575859248,51.02631694748716],[13.92321217771125,51.026307365607636],[13.923126679600278,51.026323214355415],[13.923130756612846,51.02633188500686],[13.923131014573682,51.02633244493716],[13.923216575859248,51.02631694748716]]]}},{"type":"Feature","id":"UUID_366de7eb-e334-4789-bf5d-2292af32f281","properties":{"id":"UUID_366de7eb-e334-4789-bf5d-2292af32f281","height_m":5.188,"ground_m":377.082,"height_source":"LoD1 solid top minus bottom","production":"2023","laser":"2017","footprints":"2020"},"geometry":{"type":"Polygon","coordinates":[[[13.922958836359598,51.02635422130273],[13.922956057840457,51.02635474425225],[13.922951532080214,51.026355592822675],[13.92295574121144,51.026364714337554],[13.922886071640264,51.02637747140209],[13.922586413017372,51.02643235255291],[13.922587090419581,51.026433887573205],[13.922600979931813,51.026431407732105],[13.922617575228196,51.026467217158036],[13.922622029461236,51.02647683554829],[13.922560450152398,51.02648813823882],[13.92256411354422,51.0264961935865],[13.922582024079984,51.02653554931091],[13.92299947674846,51.0264588223245],[13.9230065942461,51.026457512029516],[13.92296291334339,51.02636289195981],[13.922958836359598,51.02635422130273]]]}},{"type":"Feature","id":"UUID_53b6c587-e8c9-400d-b5e8-d8e8bdea752a","properties":{"id":"UUID_53b6c587-e8c9-400d-b5e8-d8e8bdea752a","height_m":5.215,"ground_m":377.082,"height_source":"LoD1 solid top minus bottom","production":"2023","laser":"2017","footprints":"2020"},"geometry":{"type":"Polygon","coordinates":[[[13.923404057673316,51.026426759347245],[13.923338633305995,51.026283980536725],[13.92325327993035,51.026299740782655],[13.923257759668516,51.02630949427544],[13.923314818794536,51.026433571984924],[13.92331477581592,51.026433580581696],[13.923318850789993,51.02644234113538],[13.923404057673316,51.026426759347245]]]}},{"type":"Feature","id":"UUID_b79f0f63-9bdf-4c29-b63c-7d0ca9834d05","properties":{"id":"UUID_b79f0f63-9bdf-4c29-b63c-7d0ca9834d05","height_m":5.218,"ground_m":377.082,"height_source":"LoD1 solid top minus bottom","production":"2023","laser":"2017","footprints":"2020"},"geometry":{"type":"Polygon","coordinates":[[[13.923013266734435,51.026488940379096],[13.923017257157301,51.02649765520015],[13.923024416805694,51.02649637227092],[13.923020484450547,51.026487613021374],[13.92306158685995,51.0264799882652],[13.923061613706667,51.026480060454944],[13.923147194544066,51.026464347408435],[13.923147221599248,51.0264644106073],[13.923188321884638,51.02645687571497],[13.923188295037736,51.02645680352524],[13.923273675362703,51.02644112450965],[13.923273675571018,51.026441115518786],[13.92331477581592,51.026433580581696],[13.923314818794536,51.026433571984924],[13.923257759668516,51.02630949427544],[13.923216657441477,51.02631711910195],[13.923216575859248,51.02631694748716],[13.923131014573682,51.02633244493716],[13.923130756612846,51.02633188500686],[13.923089654345786,51.02633950978842],[13.923089844772761,51.02633990722619],[13.923004269147205,51.02635540445143],[13.923004160302408,51.026355178628464],[13.92296291334339,51.02636289195981],[13.9230065942461,51.026457512029516],[13.92299947674846,51.0264588223245],[13.923013266734435,51.026488940379096]]]}},{"type":"Feature","id":"UUID_2f928708-02f9-4cea-9cac-57119bdaf99c","properties":{"id":"UUID_2f928708-02f9-4cea-9cac-57119bdaf99c","height_m":5.373,"ground_m":377.082,"height_source":"LoD1 solid top minus bottom","production":"2023","laser":"2017","footprints":"2020"},"geometry":{"type":"Polygon","coordinates":[[[13.923277605887076,51.026449964668835],[13.923273675362703,51.02644112450965],[13.923188295037736,51.02645680352524],[13.923188321884638,51.02645687571497],[13.9231922563523,51.026465545050385],[13.923277605887076,51.026449964668835]]]}},{"type":"Feature","id":"UUID_d53fd670-277b-48e4-85cd-abc2f2b3bcea","properties":{"id":"UUID_d53fd670-277b-48e4-85cd-abc2f2b3bcea","height_m":5.339,"ground_m":377.082,"height_source":"LoD1 solid top minus bottom","production":"2023","laser":"2017","footprints":"2020"},"geometry":{"type":"Polygon","coordinates":[[[13.923004269147205,51.02635540445143],[13.923089844772761,51.02633990722619],[13.923089654345786,51.02633950978842],[13.923085577340261,51.026330839135596],[13.92299994074414,51.02634650665871],[13.923003067687173,51.02635310021622],[13.923004160302408,51.026355178628464],[13.923004269147205,51.02635540445143]]]}}]}