{"type":"FeatureCollection","features":[{"type":"Feature","id":"DESNATPU1000JKx0","properties":{"id":"DESNATPU1000JKx0","height_m":6.91,"ground_m":295.163,"height_source":"LoD1 solid top minus bottom","production":"2023","laser":"2017","footprints":"2023"},"geometry":{"type":"Polygon","coordinates":[[[13.936081174083194,51.05280474972332],[13.936077723457736,51.0529920641068],[13.936128266349506,51.05299243427171],[13.936200221805446,51.052992963346654],[13.936203428276771,51.05281939664148],[13.936131458824812,51.05281886744025],[13.936122357388125,51.05281880257704],[13.936122601072196,51.05280505489251],[13.936081174083194,51.05280474972332]]]}},{"type":"Feature","id":"DESNATPU1000GcYX","properties":{"id":"DESNATPU1000GcYX","height_m":9.619,"ground_m":292.708,"height_source":"LoD1 solid top minus bottom","production":"2023","laser":"2017","footprints":"2023"},"geometry":{"type":"Polygon","coordinates":[[[13.940912914953548,51.057638093202385],[13.940723842594796,51.05763072333739],[13.940711646323292,51.057754982284855],[13.94090154643577,51.057762368661365],[13.940912914953548,51.057638093202385]]]}},{"type":"Feature","id":"DESNATPU1000DtE7","properties":{"id":"DESNATPU1000DtE7","height_m":3.565,"ground_m":289.776,"height_source":"LoD1 solid top minus bottom","production":"2023","laser":"2017","footprints":"2023"},"geometry":{"type":"Polygon","coordinates":[[[13.943069486287701,51.05796222588015],[13.943028364877417,51.0579132033392],[13.942783627874597,51.05799534163971],[13.94282588427895,51.05804464431476],[13.943069486287701,51.05796222588015]]]}},{"type":"Feature","id":"DESNATPU1000CBXe","properties":{"id":"DESNATPU1000CBXe","height_m":3.278,"ground_m":273.41,"height_source":"LoD1 solid top minus bottom","production":"2023","laser":"2017","footprints":"2023"},"geometry":{"type":"Polygon","coordinates":[[[13.923601759800452,51.05989779667879],[13.923689823854609,51.05982380606759],[13.923628972762732,51.059795035464994],[13.923540894400514,51.05986902589903],[13.923601759800452,51.05989779667879]]]}},{"type":"Feature","id":"UUID_355ee91c-e80d-441a-931b-8a4d6d78f5b7","properties":{"id":"UUID_355ee91c-e80d-441a-931b-8a4d6d78f5b7","height_m":6.007,"ground_m":295.321,"height_source":"LoD1 solid top minus bottom","production":"2023","laser":"2017","footprints":"2023"},"geometry":{"type":"Polygon","coordinates":[[[13.935831070206982,51.052558949240414],[13.935824601935087,51.05251808127766],[13.935765876395454,51.0525217821239],[13.935772344822164,51.0525626410987],[13.935831070206982,51.052558949240414]]]}},{"type":"Feature","id":"UUID_f2a0a84c-1ebc-4894-b0ee-b510195dfa41","properties":{"id":"UUID_f2a0a84c-1ebc-4894-b0ee-b510195dfa41","height_m":6.6,"ground_m":295.321,"height_source":"LoD1 solid top minus bottom","production":"2023","laser":"2017","footprints":"2023"},"geometry":{"type":"Polygon","coordinates":[[[13.935824601935087,51.05251808127766],[13.936020710702289,51.052505730174865],[13.93601028858558,51.05244002424311],[13.935755468901291,51.052456076301624],[13.935765876395454,51.0525217821239],[13.935824601935087,51.05251808127766]]]}},{"type":"Feature","id":"UUID_3f1e8b73-0a70-489d-a7f6-66e44ff9abc3","properties":{"id":"UUID_3f1e8b73-0a70-489d-a7f6-66e44ff9abc3","height_m":9.031,"ground_m":273.18,"height_source":"LoD1 solid top minus bottom","production":"2023","laser":"2017","footprints":"2023"},"geometry":{"type":"Polygon","coordinates":[[[13.918209775510606,51.060500285283574],[13.918233253817926,51.060561967976355],[13.918345191171916,51.060545387168126],[13.918321602147888,51.06048355059688],[13.918209775510606,51.060500285283574]]]}},{"type":"Feature","id":"UUID_4d043e3e-f175-40a2-bc96-a1adcb49c898","properties":{"id":"UUID_4d043e3e-f175-40a2-bc96-a1adcb49c898","height_m":8.411,"ground_m":273.18,"height_source":"LoD1 solid top minus bottom","production":"2023","laser":"2017","footprints":"2023"},"geometry":{"type":"Polygon","coordinates":[[[13.918330021126712,51.06050561576459],[13.91835858980455,51.06050134781061],[13.918350271102296,51.06047926558749],[13.918321602147888,51.06048355059688],[13.918330021126712,51.06050561576459]]]}},{"type":"Feature","id":"UUID_412895e0-dd6a-4103-9280-07fc95c44773","properties":{"id":"UUID_412895e0-dd6a-4103-9280-07fc95c44773","height_m":3.21,"ground_m":321.889,"height_source":"LoD1 solid top minus bottom","production":"2023","laser":"2017","footprints":"2023"},"geometry":{"type":"Polygon","coordinates":[[[13.93225453299575,51.056385770912534],[13.932230504358088,51.05637210724633],[13.932193277990775,51.05639809788393],[13.932217306423897,51.05641177054859],[13.93225453299575,51.056385770912534]]]}},{"type":"Feature","id":"UUID_75bf6e85-f867-4ebf-ab1c-a6cfc7f555e9","properties":{"id":"UUID_75bf6e85-f867-4ebf-ab1c-a6cfc7f555e9","height_m":3.075,"ground_m":321.889,"height_source":"LoD1 solid top minus bottom","production":"2023","laser":"2017","footprints":"2023"},"geometry":{"type":"Polygon","coordinates":[[[13.932110254737921,51.05632455210285],[13.932077973033635,51.05630617274325],[13.932039413273294,51.05633305941538],[13.93207193998461,51.056351333111365],[13.932073536132373,51.056350178639676],[13.932073564250697,51.05635019688208],[13.932110268797082,51.05632456122406],[13.932110254737921,51.05632455210285]]]}},{"type":"Feature","id":"UUID_04037932-061b-4422-8c72-61fb641b1633","properties":{"id":"UUID_04037932-061b-4422-8c72-61fb641b1633","height_m":6.93,"ground_m":321.889,"height_source":"LoD1 solid top minus bottom","production":"2023","laser":"2017","footprints":"2023"},"geometry":{"type":"Polygon","coordinates":[[[13.932073564250697,51.05635019688208],[13.932127278385726,51.05638096622289],[13.932177007013221,51.05640945094082],[13.932193277990775,51.05639809788393],[13.932230504358088,51.05637210724633],[13.9322723712819,51.05634287664125],[13.932222468992517,51.056314498289844],[13.932168580989698,51.0562838443095],[13.932110268797082,51.05632456122406],[13.932073564250697,51.05635019688208]]]}},{"type":"Feature","id":"DESNATPU1000Ewvh","properties":{"id":"DESNATPU1000Ewvh","height_m":7.185,"ground_m":285.763,"height_source":"LoD1 solid top minus bottom","production":"2023","laser":"2017","footprints":"2023"},"geometry":{"type":"Polygon","coordinates":[[[13.941317836753216,51.06007942102031],[13.941309346410417,51.060169496214414],[13.94156746194564,51.060179019117975],[13.941585604969562,51.05997914018126],[13.94159355163464,51.05989160498483],[13.941336434338632,51.05988218110253],[13.941317836753216,51.06007942102031]]]}},{"type":"Feature","id":"DESNATPU1000EfCO","properties":{"id":"DESNATPU1000EfCO","height_m":17.422,"ground_m":285.249,"height_source":"LoD1 solid top minus bottom","production":"2023","laser":"2017","footprints":"2023"},"geometry":{"type":"Polygon","coordinates":[[[13.944183744063087,51.05994102984623],[13.942954922614486,51.059943349124005],[13.94295599030571,51.06016966975239],[13.94418481754188,51.06016735948977],[13.944183744063087,51.05994102984623]]]}},{"type":"Feature","id":"DESNATPU1000ECmX","properties":{"id":"DESNATPU1000ECmX","height_m":2.729,"ground_m":321.334,"height_source":"LoD1 solid top minus bottom","production":"2023","laser":"2017","footprints":"2023"},"geometry":{"type":"Polygon","coordinates":[[[13.931713599469315,51.05666150023619],[13.931661510174191,51.0566308085083],[13.931593387715585,51.05667676818596],[13.931645477016326,51.056707459944015],[13.931713599469315,51.05666150023619]]]}},{"type":"Feature","id":"DESNATPU1000JDcc","properties":{"id":"DESNATPU1000JDcc","height_m":5.97,"ground_m":285.567,"height_source":"LoD1 solid top minus bottom","production":"2023","laser":"2017","footprints":"2023"},"geometry":{"type":"Polygon","coordinates":[[[13.929336579005392,51.05882451727732],[13.929395994498556,51.05867310226186],[13.929275639254842,51.05865350168313],[13.929215344665732,51.05880465678853],[13.929336579005392,51.05882451727732]]]}},{"type":"Feature","id":"UUID_e7f3f06e-8e11-4357-b59a-b6dcff13a8f7","properties":{"id":"UUID_e7f3f06e-8e11-4357-b59a-b6dcff13a8f7","height_m":7.368,"ground_m":321.416,"height_source":"LoD1 solid top minus bottom","production":"2023","laser":"2017","footprints":"2023"},"geometry":{"type":"Polygon","coordinates":[[[13.932170549215005,51.05690171741241],[13.93227021339842,51.05683125257577],[13.932016907685023,51.05668735653683],[13.931957666096006,51.056728748330116],[13.931916682717377,51.05675738438315],[13.932170549215005,51.05690171741241]]]}},{"type":"Feature","id":"UUID_73c680fb-d26f-4c41-8bba-c75eeee1f1b5","properties":{"id":"UUID_73c680fb-d26f-4c41-8bba-c75eeee1f1b5","height_m":7.036,"ground_m":321.416,"height_source":"LoD1 solid top minus bottom","production":"2023","laser":"2017","footprints":"2023"},"geometry":{"type":"Polygon","coordinates":[[[13.932016907685023,51.05668735653683],[13.931999921203452,51.0566777049856],[13.931940707937217,51.05671910602191],[13.931957666096006,51.056728748330116],[13.932016907685023,51.05668735653683]]]}},{"type":"Feature","id":"DESNATGMrL0000An","properties":{"id":"DESNATGMrL0000An","height_m":4.607,"ground_m":273.179,"height_source":"LoD1 solid top minus bottom","production":"2023","laser":"2017","footprints":"2023"},"geometry":{"type":"Polygon","coordinates":[[[13.923022227297585,51.06012454264887],[13.923111475576682,51.06016994199728],[13.92311580623841,51.06016657365045],[13.923177917172007,51.060118288350765],[13.923088485330846,51.06007280642662],[13.923022227297585,51.06012454264887]]]}},{"type":"Feature","id":"DESNATPU1000DcHB","properties":{"id":"DESNATPU1000DcHB","height_m":2.956,"ground_m":285.393,"height_source":"LoD1 solid top minus bottom","production":"2023","laser":"2017","footprints":"2023"},"geometry":{"type":"Polygon","coordinates":[[[13.933877462174136,51.062591094091225],[13.93377554474694,51.06259769133253],[13.933791653954716,51.062696578446975],[13.933893571597201,51.06268998119302],[13.933877462174136,51.062591094091225]]]}},{"type":"Feature","id":"DESNATPU1000IkzE","properties":{"id":"DESNATPU1000IkzE","height_m":4.7,"ground_m":297.092,"height_source":"LoD1 solid top minus bottom","production":"2023","laser":"2017","footprints":"2023"},"geometry":{"type":"Polygon","coordinates":[[[13.935784599372004,51.0523915308622],[13.935781793730504,51.052445461772365],[13.935867359940428,51.05244723009105],[13.935870163422017,51.05239338908693],[13.93581755583635,51.05239224461785],[13.935784599372004,51.0523915308622]]]}},{"type":"Feature","id":"DESNATPU1000I8bV","properties":{"id":"DESNATPU1000I8bV","height_m":4.694,"ground_m":304.177,"height_source":"LoD1 solid top minus bottom","production":"2023","laser":"2017","footprints":"2023"},"geometry":{"type":"Polygon","coordinates":[[[13.937681597423518,51.054496147994506],[13.937679326828771,51.05443450011756],[13.937543851242182,51.054436245241455],[13.937546316846651,51.054498092734576],[13.937681597423518,51.054496147994506]]]}},{"type":"Feature","id":"UUID_253b4bb7-8960-48e6-beea-b2d92c8ae6a5","properties":{"id":"UUID_253b4bb7-8960-48e6-beea-b2d92c8ae6a5","height_m":6.922,"ground_m":304.326,"height_source":"LoD1 solid top minus bottom","production":"2023","laser":"2017","footprints":"2023"},"geometry":{"type":"Polygon","coordinates":[[[13.936405025600687,51.057568587981656],[13.936405096932633,51.05756858863078],[13.936443064068918,51.057568124783415],[13.936440225563416,51.05750828827377],[13.93640377143379,51.057509979907834],[13.936402614415673,51.05751003232797],[13.936405025600687,51.057568587981656]]]}},{"type":"Feature","id":"UUID_3a1e048b-bf96-4ada-b362-a5f298ec8a19","properties":{"id":"UUID_3a1e048b-bf96-4ada-b362-a5f298ec8a19","height_m":7.959,"ground_m":304.326,"height_source":"LoD1 solid top minus bottom","production":"2023","laser":"2017","footprints":"2023"},"geometry":{"type":"Polygon","coordinates":[[[13.936405025600687,51.057568587981656],[13.936402614415673,51.05751003232797],[13.93640377143379,51.057509979907834],[13.93640131186799,51.05747844698204],[13.936338518090489,51.057479449261386],[13.936279549756042,51.05748039639578],[13.936284860041509,51.05761605516911],[13.93634396915215,51.05761519924002],[13.936406903717266,51.05761428816571],[13.936405096932633,51.05756858863078],[13.936405025600687,51.057568587981656]]]}},{"type":"Feature","id":"DESNATPU1000E25E","properties":{"id":"DESNATPU1000E25E","height_m":2.358,"ground_m":306.432,"height_source":"LoD1 solid top minus bottom","production":"2023","laser":"2017","footprints":"2023"},"geometry":{"type":"Polygon","coordinates":[[[13.936450698493697,51.054719349135475],[13.936443102602766,51.05468531443756],[13.936377296770695,51.054690902591865],[13.936387774152282,51.0547604668511],[13.936360456602445,51.05476640525047],[13.936383277254846,51.054819733041235],[13.936488836849195,51.05479850854977],[13.936450698493697,51.054719349135475]]]}},{"type":"Feature","id":"DESNATGMrL0000BB","properties":{"id":"DESNATGMrL0000BB","height_m":2.466,"ground_m":285.029,"height_source":"LoD1 solid top minus bottom","production":"2023","laser":"2017","footprints":"2023"},"geometry":{"type":"Polygon","coordinates":[[[13.919134398274835,51.0583489716265],[13.919070237726087,51.05840246961863],[13.919122926442492,51.058427983700184],[13.91918708696667,51.05837448567921],[13.919134398274835,51.0583489716265]]]}},{"type":"Feature","id":"DESNATPU1000GzSa","properties":{"id":"DESNATPU1000GzSa","height_m":3.68,"ground_m":294.025,"height_source":"LoD1 solid top minus bottom","production":"2023","laser":"2017","footprints":"2023"},"geometry":{"type":"Polygon","coordinates":[[[13.941051963784897,51.05701285642439],[13.941310362039891,51.05702297603781],[13.941318433786353,51.05694121528451],[13.941060035984192,51.05693109569148],[13.941051963784897,51.05701285642439]]]}},{"type":"Feature","id":"DESNATGMrL0000D3","properties":{"id":"DESNATGMrL0000D3","height_m":2.668,"ground_m":290.559,"height_source":"LoD1 solid top minus bottom","production":"2023","laser":"2017","footprints":"2023"},"geometry":{"type":"Polygon","coordinates":[[[13.943313575649176,51.05734120973017],[13.943341930965456,51.05733797690746],[13.943322867651668,51.057271510145654],[13.943289605310527,51.0572753011113],[13.943293982807518,51.05729048444829],[13.94329870400165,51.05728994260578],[13.943313575649176,51.05734120973017]]]}},{"type":"Feature","id":"UUID_6dd0f115-0f75-4e58-b4f2-fdebf71463f6","properties":{"id":"UUID_6dd0f115-0f75-4e58-b4f2-fdebf71463f6","height_m":3.51,"ground_m":285.379,"height_source":"LoD1 solid top minus bottom","production":"2023","laser":"2017","footprints":"2023"},"geometry":{"type":"Polygon","coordinates":[[[13.919326740746595,51.05812209171211],[13.919350580845524,51.05813331026709],[13.919369156487665,51.05814203411634],[13.919369098375187,51.058142078542765],[13.919402411473309,51.058157674211806],[13.91945070460374,51.058117617378535],[13.919399596074808,51.058092270929365],[13.919347006368,51.05806619134294],[13.919297254352834,51.05810823103357],[13.919326740746595,51.05812209171211]]]}},{"type":"Feature","id":"UUID_12c49e2e-0615-4917-beb8-46e4ee96dc57","properties":{"id":"UUID_12c49e2e-0615-4917-beb8-46e4ee96dc57","height_m":3.356,"ground_m":285.379,"height_source":"LoD1 solid top minus bottom","production":"2023","laser":"2017","footprints":"2023"},"geometry":{"type":"Polygon","coordinates":[[[13.919326740746595,51.05812209171211],[13.91931146981496,51.05813507092695],[13.919353959823944,51.05815488812493],[13.919369098375187,51.058142078542765],[13.919369156487665,51.05814203411634],[13.919326740746595,51.05812209171211]]]}},{"type":"Feature","id":"DESNATGMrL0000BU","properties":{"id":"DESNATGMrL0000BU","height_m":2.216,"ground_m":304.806,"height_source":"LoD1 solid top minus bottom","production":"2023","laser":"2017","footprints":"2023"},"geometry":{"type":"Polygon","coordinates":[[[13.936342626513031,51.05779834204903],[13.936339906585138,51.057875942580324],[13.936401744994951,51.05787680209343],[13.936404464819558,51.05779920156008],[13.936342626513031,51.05779834204903]]]}},{"type":"Feature","id":"DESNATPU1000DTDc","properties":{"id":"DESNATPU1000DTDc","height_m":4.365,"ground_m":304.887,"height_source":"LoD1 solid top minus bottom","production":"2023","laser":"2017","footprints":"2023"},"geometry":{"type":"Polygon","coordinates":[[[13.937573547182545,51.05475594625911],[13.937706336914502,51.05475501301045],[13.937701073902593,51.054505497615715],[13.9375666373615,51.0545067216392],[13.937570741215602,51.05470148770635],[13.937572796272642,51.054701470416525],[13.937573547182545,51.05475594625911]]]}},{"type":"Feature","id":"DESNATGMrL0000C8","properties":{"id":"DESNATGMrL0000C8","height_m":3.486,"ground_m":295.132,"height_source":"LoD1 solid top minus bottom","production":"2023","laser":"2017","footprints":"2023"},"geometry":{"type":"Polygon","coordinates":[[[13.936251942071761,51.05296311956942],[13.936269750142271,51.05303590703509],[13.936329397597367,51.053030604623686],[13.936313974937274,51.05296952944182],[13.936310861457693,51.05295720802731],[13.936251942071761,51.05296311956942]]]}},{"type":"Feature","id":"DESNATPU1000JJat","properties":{"id":"DESNATPU1000JJat","height_m":5.354,"ground_m":305.744,"height_source":"LoD1 solid top minus bottom","production":"2023","laser":"2017","footprints":"2023"},"geometry":{"type":"Polygon","coordinates":[[[13.936775665262802,51.05519151097962],[13.936764532482758,51.055180438562445],[13.9367549118699,51.0551805938454],[13.936743278563771,51.05518078477377],[13.936733171474271,51.05519221252303],[13.936689803772625,51.05519306796957],[13.936694972851507,51.05529693615911],[13.936760652754234,51.05529563621434],[13.9368243912842,51.05529437252908],[13.936819218621384,51.05519064819734],[13.936775665262802,51.05519151097962]]]}},{"type":"Feature","id":"DESNATGMrL0000BZ","properties":{"id":"DESNATGMrL0000BZ","height_m":3.159,"ground_m":297.521,"height_source":"LoD1 solid top minus bottom","production":"2023","laser":"2017","footprints":"2023"},"geometry":{"type":"Polygon","coordinates":[[[13.93581755563027,51.05239225360871],[13.935870163422017,51.05239338908693],[13.935897180994196,51.05239425557918],[13.935899983211451,51.05237097190312],[13.935820790228433,51.052366914533295],[13.93581755563027,51.05239225360871]]]}},{"type":"Feature","id":"UUID_26dea660-354d-49ac-9a5b-258670895484","properties":{"id":"UUID_26dea660-354d-49ac-9a5b-258670895484","height_m":2.71,"ground_m":272.946,"height_source":"LoD1 solid top minus bottom","production":"2023","laser":"2017","footprints":"2023"},"geometry":{"type":"Polygon","coordinates":[[[13.92329868869356,51.06005602014591],[13.92324505381389,51.060029285230826],[13.923243804527624,51.060030235944794],[13.92322834673869,51.060042062873826],[13.923222815778017,51.060039350067804],[13.923210450767765,51.06004949686695],[13.923196417837307,51.060060185848144],[13.923185856893875,51.060068226979034],[13.923204619425256,51.060079415943406],[13.923276343011764,51.06011747750568],[13.92328856231143,51.060108075754684],[13.923316139317558,51.0600868551347],[13.923333603707146,51.0600734189928],[13.92329868869356,51.06005602014591]]]}},{"type":"Feature","id":"UUID_ddb998ab-7d95-40cb-a99f-7256cafbab4d","properties":{"id":"UUID_ddb998ab-7d95-40cb-a99f-7256cafbab4d","height_m":4.198,"ground_m":272.946,"height_source":"LoD1 solid top minus bottom","production":"2023","laser":"2017","footprints":"2023"},"geometry":{"type":"Polygon","coordinates":[[[13.923296191052046,51.060128010992436],[13.923334604733576,51.06009608991666],[13.923316139317558,51.0600868551347],[13.92327650307846,51.060117344089164],[13.923276343011764,51.06011747750568],[13.923296191052046,51.060128010992436]]]}},{"type":"Feature","id":"DESNATGMrL0000EH","properties":{"id":"DESNATGMrL0000EH","height_m":2.879,"ground_m":282.537,"height_source":"LoD1 solid top minus bottom","production":"2023","laser":"2017","footprints":"2023"},"geometry":{"type":"Polygon","coordinates":[[[13.928507796424803,51.058862011854195],[13.928589896476112,51.058876586323656],[13.928601257036577,51.058851160081815],[13.928519156818892,51.05883659461135],[13.928507796424803,51.058862011854195]]]}},{"type":"Feature","id":"DESNATGMrL0000CI","properties":{"id":"DESNATGMrL0000CI","height_m":3.0,"ground_m":286.022,"height_source":"LoD1 solid top minus bottom","production":"2023","laser":"2017","footprints":"2023"},"geometry":{"type":"Polygon","coordinates":[[[13.941770414399054,51.059711364480684],[13.9416844044115,51.05970843644892],[13.94167981477996,51.059762027523135],[13.941765839338498,51.05976494669714],[13.941770414399054,51.059711364480684]]]}},{"type":"Feature","id":"DESNATPU1000EiIc","properties":{"id":"DESNATPU1000EiIc","height_m":7.533,"ground_m":297.878,"height_source":"LoD1 solid top minus bottom","production":"2023","laser":"2017","footprints":"2023"},"geometry":{"type":"Polygon","coordinates":[[[13.935930384151462,51.05214950563389],[13.93583055131641,51.05214522438014],[13.935818517821975,51.05226001509035],[13.935918394727,51.052264251791044],[13.935930384151462,51.05214950563389]]]}},{"type":"Feature","id":"DESNATGMrL0000Be","properties":{"id":"DESNATGMrL0000Be","height_m":4.649,"ground_m":304.886,"height_source":"LoD1 solid top minus bottom","production":"2023","laser":"2017","footprints":"2023"},"geometry":{"type":"Polygon","coordinates":[[[13.937870514943814,51.05455398866866],[13.937870736262504,51.05457612180934],[13.937836303587646,51.054576249532246],[13.937837771134049,51.054726639440375],[13.937905352604055,51.05472638130839],[13.937903663504208,51.054553858259084],[13.937870514943814,51.05455398866866]]]}},{"type":"Feature","id":"DESNATGMrL0000CS","properties":{"id":"DESNATGMrL0000CS","height_m":11.172,"ground_m":295.059,"height_source":"LoD1 solid top minus bottom","production":"2023","laser":"2017","footprints":"2023"},"geometry":{"type":"Polygon","coordinates":[[[13.940820813080409,51.05638077593802],[13.940935079633196,51.05638450923126],[13.940937726830823,51.05635228527476],[13.94082346015193,51.056348560975415],[13.940820813080409,51.05638077593802]]]}},{"type":"Feature","id":"DESNATPU1000Cxl4","properties":{"id":"DESNATPU1000Cxl4","height_m":5.719,"ground_m":285.202,"height_source":"LoD1 solid top minus bottom","production":"2023","laser":"2017","footprints":"2023"},"geometry":{"type":"Polygon","coordinates":[[[13.943452442643819,51.06064828205676],[13.943453155269916,51.06075865622376],[13.943979647454558,51.0607572992467],[13.943979230233106,51.060692844612966],[13.943978933576364,51.06064692507549],[13.943719755332898,51.06064759565574],[13.94345532547091,51.06064827214537],[13.943452442643819,51.06064828205676]]]}},{"type":"Feature","id":"DESNATGMrL0000BH","properties":{"id":"DESNATGMrL0000BH","height_m":3.0,"ground_m":317.63,"height_source":"LoD1 solid top minus bottom","production":"2023","laser":"2017","footprints":"2023"},"geometry":{"type":"Polygon","coordinates":[[[13.933085797564704,51.05723715974793],[13.93317537716866,51.05728198790053],[13.933228847578548,51.05724023706665],[13.933176430633646,51.0572137965964],[13.933140471353932,51.057241768507694],[13.933103294448513,51.057223380724565],[13.933085797564704,51.05723715974793]]]}},{"type":"Feature","id":"DESNATGMrL0000C6","properties":{"id":"DESNATGMrL0000C6","height_m":7.88,"ground_m":297.333,"height_source":"LoD1 solid top minus bottom","production":"2023","laser":"2017","footprints":"2023"},"geometry":{"type":"Polygon","coordinates":[[[13.93592614253894,51.05219015018628],[13.935918394727,51.052264251791044],[13.935978206380916,51.052266684815216],[13.935986106429368,51.052192161933874],[13.93592614253894,51.05219015018628]]]}},{"type":"Feature","id":"DESNATGMrL0000CQ","properties":{"id":"DESNATGMrL0000CQ","height_m":3.0,"ground_m":294.808,"height_source":"LoD1 solid top minus bottom","production":"2023","laser":"2017","footprints":"2023"},"geometry":{"type":"Polygon","coordinates":[[[13.940983161702928,51.05655045617773],[13.941037411185246,51.056552395549616],[13.941041782074604,51.05651028620969],[13.941044537754497,51.05648143550968],[13.94098948330124,51.056479758629024],[13.940983161702928,51.05655045617773]]]}},{"type":"Feature","id":"DESNATGMrL0000BN","properties":{"id":"DESNATGMrL0000BN","height_m":2.948,"ground_m":285.911,"height_source":"LoD1 solid top minus bottom","production":"2023","laser":"2017","footprints":"2023"},"geometry":{"type":"Polygon","coordinates":[[[13.934618377411125,51.06326508335381],[13.9346093482469,51.06329535150775],[13.934710099615135,51.063307285911684],[13.934713273363052,51.06330766555423],[13.934722302668506,51.06327738840109],[13.934618377411125,51.06326508335381]]]}},{"type":"Feature","id":"DESNATPU1000FpZz","properties":{"id":"DESNATPU1000FpZz","height_m":2.606,"ground_m":273.164,"height_source":"LoD1 solid top minus bottom","production":"2023","laser":"2017","footprints":"2023"},"geometry":{"type":"Polygon","coordinates":[[[13.918154900883522,51.06058133254635],[13.918073080868236,51.06054985597968],[13.918055987359974,51.060569346888144],[13.918028143145538,51.06055906222602],[13.91801254087554,51.060575185661925],[13.91812032543807,51.06061677664148],[13.918154900883522,51.06058133254635]]]}},{"type":"Feature","id":"UUID_5b842625-6108-49f2-9b89-7f870dfe3480","properties":{"id":"UUID_5b842625-6108-49f2-9b89-7f870dfe3480","height_m":5.906,"ground_m":292.7,"height_source":"LoD1 solid top minus bottom","production":"2023","laser":"2017","footprints":"2023"},"geometry":{"type":"Polygon","coordinates":[[[13.940717371326675,51.05769669831913],[13.940723842594796,51.05763072333739],[13.940700518721076,51.057629810514385],[13.940694459505591,51.05769586117138],[13.940717371326675,51.05769669831913]]]}},{"type":"Feature","id":"UUID_50ec358c-421c-49c5-baaa-3ffdd9e30ef7","properties":{"id":"UUID_50ec358c-421c-49c5-baaa-3ffdd9e30ef7","height_m":3.834,"ground_m":292.7,"height_source":"LoD1 solid top minus bottom","production":"2023","laser":"2017","footprints":"2023"},"geometry":{"type":"Polygon","coordinates":[[[13.940917492452568,51.05758818904749],[13.9407271973927,51.05758125774433],[13.940723510356372,51.057621520761245],[13.94070135407728,51.05762071744053],[13.940700518721076,51.057629810514385],[13.940723842594796,51.05763072333739],[13.940912914953548,51.057638093202385],[13.940917492452568,51.05758818904749]]]}},{"type":"Feature","id":"DESNATGMrL0000Ar","properties":{"id":"DESNATGMrL0000Ar","height_m":3.0,"ground_m":272.183,"height_source":"LoD1 solid top minus bottom","production":"2023","laser":"2017","footprints":"2023"},"geometry":{"type":"Polygon","coordinates":[[[13.923391646061964,51.06024666819762],[13.923452400172433,51.06027348660265],[13.923509473119287,51.06022214215691],[13.923448719042147,51.06019532378154],[13.923391646061964,51.06024666819762]]]}},{"type":"Feature","id":"UUID_9e28d6c0-715f-4095-92e0-81e8d5ec3903","properties":{"id":"UUID_9e28d6c0-715f-4095-92e0-81e8d5ec3903","height_m":4.617,"ground_m":272.967,"height_source":"LoD1 solid top minus bottom","production":"2023","laser":"2017","footprints":"2023"},"geometry":{"type":"Polygon","coordinates":[[[13.923022227297585,51.06012454264887],[13.922981693419107,51.060156192288716],[13.923070555254156,51.0602016420635],[13.923111475576682,51.06016994199728],[13.923022227297585,51.06012454264887]]]}},{"type":"Feature","id":"UUID_f0164388-54c4-427f-90c8-c8510df71b02","properties":{"id":"UUID_f0164388-54c4-427f-90c8-c8510df71b02","height_m":4.809,"ground_m":272.967,"height_source":"LoD1 solid top minus bottom","production":"2023","laser":"2017","footprints":"2023"},"geometry":{"type":"Polygon","coordinates":[[[13.923088485330846,51.06007280642662],[13.923004918178277,51.06002980651375],[13.922897570426349,51.060113160199656],[13.922981693419107,51.060156192288716],[13.923088485330846,51.06007280642662]]]}},{"type":"Feature","id":"DESNATPU1000Chzh","properties":{"id":"DESNATPU1000Chzh","height_m":6.832,"ground_m":322.071,"height_source":"LoD1 solid top minus bottom","production":"2023","laser":"2017","footprints":"2023"},"geometry":{"type":"Polygon","coordinates":[[[13.931962630785561,51.05642799556928],[13.931862168115979,51.05649845284968],[13.931969577352696,51.056554002360684],[13.932028859021852,51.05651271883998],[13.932066547877886,51.056486480683894],[13.931962630785561,51.05642799556928]]]}},{"type":"Feature","id":"DESNATPU1000HaIL","properties":{"id":"DESNATPU1000HaIL","height_m":8.039,"ground_m":298.184,"height_source":"LoD1 solid top minus bottom","production":"2023","laser":"2017","footprints":"2023"},"geometry":{"type":"Polygon","coordinates":[[[13.9361939239007,51.053270934615064],[13.935999919844473,51.05330461797543],[13.936037541022202,51.05339069726422],[13.936231545000702,51.05335703182561],[13.9361939239007,51.053270934615064]]]}},{"type":"Feature","id":"DESNATPU1000CgMF","properties":{"id":"DESNATPU1000CgMF","height_m":2.659,"ground_m":283.626,"height_source":"LoD1 solid top minus bottom","production":"2023","laser":"2017","footprints":"2023"},"geometry":{"type":"Polygon","coordinates":[[[13.935435534716104,51.06309926601332],[13.935650551874268,51.06312001899549],[13.935664984342564,51.063060708493225],[13.935449967658165,51.06303994654814],[13.9354358661055,51.063097884151645],[13.935435534716104,51.06309926601332]]]}},{"type":"Feature","id":"DESNATPU1000FGEB","properties":{"id":"DESNATPU1000FGEB","height_m":5.605,"ground_m":305.008,"height_source":"LoD1 solid top minus bottom","production":"2023","laser":"2017","footprints":"2023"},"geometry":{"type":"Polygon","coordinates":[[[13.937048591091882,51.05494431011723],[13.937047977592487,51.0545336331386],[13.93663451843782,51.0545337569365],[13.93663529761313,51.0549445163708],[13.937048591091882,51.05494431011723]]]}},{"type":"Feature","id":"DESNATPU1000CuRE","properties":{"id":"DESNATPU1000CuRE","height_m":7.924,"ground_m":286.081,"height_source":"LoD1 solid top minus bottom","production":"2023","laser":"2017","footprints":"2023"},"geometry":{"type":"Polygon","coordinates":[[[13.943380065909528,51.058998892167345],[13.943380895438468,51.05917120034229],[13.943557249968382,51.059170861069916],[13.943727867562814,51.05917054162681],[13.944248639836298,51.0591695454664],[13.944247807085949,51.05899723727852],[13.943380065909528,51.058998892167345]]]}},{"type":"Feature","id":"DESNATPU1000HkDx","properties":{"id":"DESNATPU1000HkDx","height_m":6.857,"ground_m":292.27,"height_source":"LoD1 solid top minus bottom","production":"2023","laser":"2017","footprints":"2023"},"geometry":{"type":"Polygon","coordinates":[[[13.94090076950538,51.05777077881813],[13.941395707927745,51.05778876979539],[13.941412414670252,51.05760617981375],[13.940917492452568,51.05758818904749],[13.94090076950538,51.05777077881813]]]}},{"type":"Feature","id":"DESNATPU1000J53D","properties":{"id":"DESNATPU1000J53D","height_m":6.62,"ground_m":306.001,"height_source":"LoD1 solid top minus bottom","production":"2023","laser":"2017","footprints":"2023"},"geometry":{"type":"Polygon","coordinates":[[[13.936148324487977,51.054738485494696],[13.936270471844516,51.05473186352129],[13.93625542211034,51.05462273454564],[13.936251150229667,51.05459122107677],[13.936129141775089,51.05459802414814],[13.936148324487977,51.054738485494696]]]}},{"type":"Feature","id":"DESNATPU1000JORN","properties":{"id":"DESNATPU1000JORN","height_m":7.784,"ground_m":320.129,"height_source":"LoD1 solid top minus bottom","production":"2023","laser":"2017","footprints":"2023"},"geometry":{"type":"Polygon","coordinates":[[[13.932803204737338,51.057154796179425],[13.932819535165658,51.057143344659124],[13.932765304661105,51.05711263387869],[13.93270984898404,51.05708121944391],[13.932613746509748,51.05714821001209],[13.9326690171526,51.05717960481685],[13.932723569179561,51.0572106063452],[13.932723236504787,51.057210180648674],[13.932803204737338,51.057154796179425]]]}},{"type":"Feature","id":"UUID_ed9a2cf7-ae26-4cdd-a1a7-e526281c4457","properties":{"id":"UUID_ed9a2cf7-ae26-4cdd-a1a7-e526281c4457","height_m":2.649,"ground_m":300.559,"height_source":"LoD1 solid top minus bottom","production":"2023","laser":"2017","footprints":"2023"},"geometry":{"type":"Polygon","coordinates":[[[13.938744664074731,51.05591933814406],[13.938743404025637,51.05593388594199],[13.938789584551287,51.05593547431727],[13.938790842941737,51.0559209984457],[13.938744664074731,51.05591933814406]]]}},{"type":"Feature","id":"UUID_b45716e2-f409-4095-8b92-52bef60d2660","properties":{"id":"UUID_b45716e2-f409-4095-8b92-52bef60d2660","height_m":3.929,"ground_m":300.559,"height_source":"LoD1 solid top minus bottom","production":"2023","laser":"2017","footprints":"2023"},"geometry":{"type":"Polygon","coordinates":[[[13.938894020560415,51.05575933757382],[13.938674847521206,51.055750782814094],[13.938658237673724,51.05591621523195],[13.938744664074731,51.05591933814406],[13.938790842941737,51.0559209984457],[13.938877568740327,51.05592413297065],[13.938887579669853,51.05582388291285],[13.938894020560415,51.05575933757382]]]}},{"type":"Feature","id":"UUID_e1fa4df2-9cba-440c-9615-ed40028ae52e","properties":{"id":"UUID_e1fa4df2-9cba-440c-9615-ed40028ae52e","height_m":5.45,"ground_m":303.559,"height_source":"LoD1 solid top minus bottom","production":"2023","laser":"2017","footprints":"2023"},"geometry":{"type":"Polygon","coordinates":[[[13.936181518841327,51.05415354014304],[13.936200683222102,51.05415158330115],[13.936154050497464,51.054022238912495],[13.936137813645095,51.0540240875038],[13.936181518841327,51.05415354014304]]]}},{"type":"Feature","id":"UUID_7b1a9b28-8b78-4b7c-bff0-81668076b29e","properties":{"id":"UUID_7b1a9b28-8b78-4b7c-bff0-81668076b29e","height_m":4.787,"ground_m":303.559,"height_source":"LoD1 solid top minus bottom","production":"2023","laser":"2017","footprints":"2023"},"geometry":{"type":"Polygon","coordinates":[[[13.936168771106505,51.054020556372365],[13.936154050497464,51.054022238912495],[13.936200683222102,51.05415158330115],[13.93621668818061,51.05419597325978],[13.936255020836164,51.05419126823555],[13.936249759413675,51.054173675512146],[13.93631453767496,51.0541537436518],[13.936265520276475,51.05400952159852],[13.936168771106505,51.054020556372365]]]}},{"type":"Feature","id":"UUID_70580f02-f5dc-4828-867b-c02f600dcf22","properties":{"id":"UUID_70580f02-f5dc-4828-867b-c02f600dcf22","height_m":2.769,"ground_m":303.559,"height_source":"LoD1 solid top minus bottom","production":"2023","laser":"2017","footprints":"2023"},"geometry":{"type":"Polygon","coordinates":[[[13.936159432775929,51.05399283667993],[13.936168771106505,51.054020556372365],[13.936265520276475,51.05400952159852],[13.936255227148347,51.053979257270946],[13.936159432775929,51.05399283667993]]]}},{"type":"Feature","id":"DESNATP1Se0000mS","properties":{"id":"DESNATP1Se0000mS","height_m":5.761,"ground_m":304.325,"height_source":"LoD1 solid top minus bottom","production":"2023","laser":"2017","footprints":"2023"},"geometry":{"type":"Polygon","coordinates":[[[13.936588573098215,51.05811607215104],[13.936428341414324,51.0581116735496],[13.936422148088099,51.05819763269164],[13.936582267582985,51.05820195833794],[13.936588573098215,51.05811607215104]]]}},{"type":"Feature","id":"DESNATPU1000JRXj","properties":{"id":"DESNATPU1000JRXj","height_m":2.904,"ground_m":274.756,"height_source":"LoD1 solid top minus bottom","production":"2023","laser":"2017","footprints":"2023"},"geometry":{"type":"Polygon","coordinates":[[[13.918102890338167,51.06016972094537],[13.918018555871514,51.06026267162072],[13.918082016240898,51.060285291291244],[13.91816592302874,51.06019231862665],[13.918102890338167,51.06016972094537]]]}},{"type":"Feature","id":"DESNATGMrL0000Cy","properties":{"id":"DESNATGMrL0000Cy","height_m":2.774,"ground_m":285.277,"height_source":"LoD1 solid top minus bottom","production":"2023","laser":"2017","footprints":"2023"},"geometry":{"type":"Polygon","coordinates":[[[13.944123921691624,51.05969459231054],[13.943705812818052,51.059692603960634],[13.943703594578382,51.059877240572355],[13.94412170491031,51.05987923793086],[13.944123921691624,51.05969459231054]]]}},{"type":"Feature","id":"DESNATGMrL0000BQ","properties":{"id":"DESNATGMrL0000BQ","height_m":3.025,"ground_m":285.502,"height_source":"LoD1 solid top minus bottom","production":"2023","laser":"2017","footprints":"2023"},"geometry":{"type":"Polygon","coordinates":[[[13.933976253140768,51.06269762375243],[13.93392603541851,51.062700654907886],[13.933932308524527,51.062741925800076],[13.933982526291114,51.062738894642216],[13.933976253140768,51.06269762375243]]]}},{"type":"Feature","id":"DESNATGMrL0000CE","properties":{"id":"DESNATGMrL0000CE","height_m":4.555,"ground_m":286.056,"height_source":"LoD1 solid top minus bottom","production":"2023","laser":"2017","footprints":"2023"},"geometry":{"type":"Polygon","coordinates":[[[13.941662657112488,51.05998192422252],[13.941671424169401,51.05988531379438],[13.941597323430823,51.059882646412156],[13.941596474345625,51.05989172137879],[13.94159355163464,51.05989160498483],[13.941585604969562,51.05997914018126],[13.941662657112488,51.05998192422252]]]}},{"type":"Feature","id":"DESNATGMrL0000Bb","properties":{"id":"DESNATGMrL0000Bb","height_m":3.475,"ground_m":295.902,"height_source":"LoD1 solid top minus bottom","production":"2023","laser":"2017","footprints":"2023"},"geometry":{"type":"Polygon","coordinates":[[[13.936165492197073,51.05214368737101],[13.936167699576835,51.05211895943459],[13.936023698446657,51.0521138626286],[13.93602150525524,51.05213859069173],[13.936165492197073,51.05214368737101]]]}},{"type":"Feature","id":"DESNATGMrL0000CM","properties":{"id":"DESNATGMrL0000CM","height_m":7.463,"ground_m":288.985,"height_source":"LoD1 solid top minus bottom","production":"2023","laser":"2017","footprints":"2023"},"geometry":{"type":"Polygon","coordinates":[[[13.941229988817032,51.0593650342602],[13.941299483141286,51.059367543247504],[13.941315133273157,51.059195663087365],[13.941245639410196,51.05919314511995],[13.941229988817032,51.0593650342602]]]}},{"type":"Feature","id":"DESNATPU1000Imlv","properties":{"id":"DESNATPU1000Imlv","height_m":3.034,"ground_m":304.677,"height_source":"LoD1 solid top minus bottom","production":"2023","laser":"2017","footprints":"2023"},"geometry":{"type":"Polygon","coordinates":[[[13.936285768432256,51.05770095485319],[13.93628726505046,51.0577477306946],[13.936383637611259,51.05774662035695],[13.936383535658061,51.05769938059397],[13.936288623778466,51.05770089091263],[13.936285768432256,51.05770095485319]]]}},{"type":"Feature","id":"DESNATPU1000D8Za","properties":{"id":"DESNATPU1000D8Za","height_m":3.464,"ground_m":302.959,"height_source":"LoD1 solid top minus bottom","production":"2023","laser":"2017","footprints":"2023"},"geometry":{"type":"Polygon","coordinates":[[[13.93674188753129,51.05741760742844],[13.93658571637529,51.057414208196896],[13.936576599711437,51.057540590079],[13.936673060766578,51.057544318400474],[13.936663320150696,51.057726602439914],[13.936724930575433,51.05772806222165],[13.93674188753129,51.05741760742844]]]}},{"type":"Feature","id":"UUID_8ddebe4b-bca3-494a-aa45-56a05dc43e95","properties":{"id":"UUID_8ddebe4b-bca3-494a-aa45-56a05dc43e95","height_m":7.593,"ground_m":295.98,"height_source":"LoD1 solid top minus bottom","production":"2023","laser":"2017","footprints":"2023"},"geometry":{"type":"Polygon","coordinates":[[[13.93598286476072,51.05279556344345],[13.935952640154008,51.052725441643496],[13.93591406549402,51.052732041831234],[13.93585367511542,51.0527423821939],[13.93577977705303,51.0527550365613],[13.93580998735773,51.05282514928343],[13.93598286476072,51.05279556344345]]]}},{"type":"Feature","id":"UUID_d0ab466b-6d99-4582-be29-de0e47f3e540","properties":{"id":"UUID_d0ab466b-6d99-4582-be29-de0e47f3e540","height_m":3.246,"ground_m":295.98,"height_source":"LoD1 solid top minus bottom","production":"2023","laser":"2017","footprints":"2023"},"geometry":{"type":"Polygon","coordinates":[[[13.9358441780371,51.05272036242229],[13.93585367511542,51.0527423821939],[13.93591406549402,51.052732041831234],[13.935904582447856,51.05271003118506],[13.9358441780371,51.05272036242229]]]}},{"type":"Feature","id":"DESNATPU1000J3gv","properties":{"id":"DESNATPU1000J3gv","height_m":2.85,"ground_m":321.7,"height_source":"LoD1 solid top minus bottom","production":"2023","laser":"2017","footprints":"2023"},"geometry":{"type":"Polygon","coordinates":[[[13.932424617732941,51.05653289909158],[13.932467435110668,51.056557894321415],[13.93255344407073,51.05649853644776],[13.93251201505436,51.05647335608953],[13.932424617732941,51.05653289909158]]]}},{"type":"Feature","id":"DESNATPU1000It56","properties":{"id":"DESNATPU1000It56","height_m":5.45,"ground_m":294.622,"height_source":"LoD1 solid top minus bottom","production":"2023","laser":"2017","footprints":"2023"},"geometry":{"type":"Polygon","coordinates":[[[13.940799697744366,51.05686469040968],[13.941090588383538,51.05687532978954],[13.941098889660834,51.056782896753546],[13.940808154885023,51.05677233074673],[13.940799697744366,51.05686469040968]]]}},{"type":"Feature","id":"DESNATP130001Gdv","properties":{"id":"DESNATP130001Gdv","height_m":10.875,"ground_m":288.785,"height_source":"LoD1 solid top minus bottom","production":"2023","laser":"2017","footprints":"2023"},"geometry":{"type":"Polygon","coordinates":[[[13.941651925589708,51.0591908715979],[13.941316675027762,51.05917874374293],[13.941315133273157,51.059195663087365],[13.941299483141286,51.059367543247504],[13.941280766459851,51.0595731363425],[13.941616020062959,51.059585255325615],[13.941651925589708,51.0591908715979]]]}},{"type":"Feature","id":"UUID_5dae5cfc-9656-41a1-b00e-6cbc5f51528a","properties":{"id":"UUID_5dae5cfc-9656-41a1-b00e-6cbc5f51528a","height_m":10.445,"ground_m":304.953,"height_source":"LoD1 solid top minus bottom","production":"2023","laser":"2017","footprints":"2023"},"geometry":{"type":"Polygon","coordinates":[[[13.93759532819749,51.05497135846358],[13.937595863982262,51.05500406092933],[13.937640402990572,51.055003764350964],[13.937639272579286,51.0549359398385],[13.937594747901636,51.05493623654648],[13.93759532819749,51.05497135846358]]]}},{"type":"Feature","id":"UUID_5728fec3-d711-4e22-b9ed-e7d78da0e043","properties":{"id":"UUID_5728fec3-d711-4e22-b9ed-e7d78da0e043","height_m":4.215,"ground_m":304.953,"height_source":"LoD1 solid top minus bottom","production":"2023","laser":"2017","footprints":"2023"},"geometry":{"type":"Polygon","coordinates":[[[13.93759532819749,51.05497135846358],[13.937519036744352,51.05497186996872],[13.937519572475376,51.055004572434484],[13.937595863982262,51.05500406092933],[13.93759532819749,51.05497135846358]]]}},{"type":"Feature","id":"UUID_848c656b-f9e3-452c-962a-de0a07df621f","properties":{"id":"UUID_848c656b-f9e3-452c-962a-de0a07df621f","height_m":4.011,"ground_m":304.953,"height_source":"LoD1 solid top minus bottom","production":"2023","laser":"2017","footprints":"2023"},"geometry":{"type":"Polygon","coordinates":[[[13.937637670074402,51.05483948714838],[13.937639272579286,51.0549359398385],[13.937640402990572,51.055003764350964],[13.93764572591376,51.055003731800035],[13.937740155383697,51.05500310629239],[13.937737422114504,51.05483882909003],[13.937637670074402,51.05483948714838]]]}},{"type":"Feature","id":"UUID_a429bcc6-66d4-47a2-a86f-57650a4f8243","properties":{"id":"UUID_a429bcc6-66d4-47a2-a86f-57650a4f8243","height_m":3.0,"ground_m":304.953,"height_source":"LoD1 solid top minus bottom","production":"2023","laser":"2017","footprints":"2023"},"geometry":{"type":"Polygon","coordinates":[[[13.93764572591376,51.055003731800035],[13.937645853078198,51.05501126887032],[13.937740282563468,51.05501064336267],[13.937740155383697,51.05500310629239],[13.93764572591376,51.055003731800035]]]}},{"type":"Feature","id":"DESNATPU1000Jbku","properties":{"id":"DESNATPU1000Jbku","height_m":4.287,"ground_m":283.69,"height_source":"LoD1 solid top minus bottom","production":"2023","laser":"2017","footprints":"2023"},"geometry":{"type":"Polygon","coordinates":[[[13.934984594022795,51.062959493678164],[13.935005633096196,51.06287102607912],[13.93492597361221,51.06286351070798],[13.934918089629361,51.0628967479297],[13.93490568445777,51.062949143424966],[13.934905005730984,51.06295197894201],[13.934984594022795,51.062959493678164]]]}},{"type":"Feature","id":"DESNATPU1000HajP","properties":{"id":"DESNATPU1000HajP","height_m":6.562,"ground_m":319.925,"height_source":"LoD1 solid top minus bottom","production":"2023","laser":"2017","footprints":"2023"},"geometry":{"type":"Polygon","coordinates":[[[13.932723236504787,51.057210180648674],[13.932752502076289,51.0572269675467],[13.932833282028385,51.05717103291941],[13.932803204737338,51.057154796179425],[13.932723236504787,51.057210180648674]]]}},{"type":"Feature","id":"DESNATPU1000Fq4g","properties":{"id":"DESNATPU1000Fq4g","height_m":5.068,"ground_m":300.786,"height_source":"LoD1 solid top minus bottom","production":"2023","laser":"2017","footprints":"2023"},"geometry":{"type":"Polygon","coordinates":[[[13.938314259445475,51.05590244368127],[13.93857181675424,51.05591222900302],[13.938589532997716,51.05572775103596],[13.93833184769825,51.05571799156533],[13.938314259445475,51.05590244368127]]]}},{"type":"Feature","id":"DESNATPU1000Cfon","properties":{"id":"DESNATPU1000Cfon","height_m":2.585,"ground_m":321.337,"height_source":"LoD1 solid top minus bottom","production":"2023","laser":"2017","footprints":"2023"},"geometry":{"type":"Polygon","coordinates":[[[13.932309330422488,51.05691601576724],[13.932246370895893,51.056880827552106],[13.93215920153892,51.056941577464684],[13.932222006427255,51.05697666539349],[13.932309330422488,51.05691601576724]]]}},{"type":"Feature","id":"DESNATPU1000IUkN","properties":{"id":"DESNATPU1000IUkN","height_m":3.138,"ground_m":321.627,"height_source":"LoD1 solid top minus bottom","production":"2023","laser":"2017","footprints":"2023"},"geometry":{"type":"Polygon","coordinates":[[[13.931826487564214,51.05665444754237],[13.931861652289053,51.056696369330446],[13.931925449264732,51.05669637682139],[13.931979019949967,51.05665648896724],[13.931894102197385,51.05660698130115],[13.931826487564214,51.05665444754237]]]}},{"type":"Feature","id":"DESNATPU1000G5HJ","properties":{"id":"DESNATPU1000G5HJ","height_m":3.298,"ground_m":290.602,"height_source":"LoD1 solid top minus bottom","production":"2023","laser":"2017","footprints":"2023"},"geometry":{"type":"Polygon","coordinates":[[[13.943088884314905,51.05731457396755],[13.943085123312525,51.05729613183623],[13.942916360158831,51.057315576645884],[13.94293111657188,51.057365619766344],[13.943095759933748,51.057346632280556],[13.943088884314905,51.05731457396755]]]}},{"type":"Feature","id":"DESNATPU1000BWtL","properties":{"id":"DESNATPU1000BWtL","height_m":5.4,"ground_m":285.38,"height_source":"LoD1 solid top minus bottom","production":"2023","laser":"2017","footprints":"2023"},"geometry":{"type":"Polygon","coordinates":[[[13.943651319116105,51.06016836628155],[13.943653064333695,51.06025157376782],[13.944173400157506,51.06025022324412],[13.944174899366937,51.06016737780774],[13.943651319116105,51.06016836628155]]]}},{"type":"Feature","id":"DESNATPU1000DTFD","properties":{"id":"DESNATPU1000DTFD","height_m":7.911,"ground_m":321.176,"height_source":"LoD1 solid top minus bottom","production":"2023","laser":"2017","footprints":"2023"},"geometry":{"type":"Polygon","coordinates":[[[13.93238883479563,51.05689879252303],[13.932292684688845,51.056965989227336],[13.932462979470223,51.057062508118634],[13.9325589827378,51.05699548978909],[13.93238883479563,51.05689879252303]]]}},{"type":"Feature","id":"DESNATPU1000CXYe","properties":{"id":"DESNATPU1000CXYe","height_m":4.595,"ground_m":290.666,"height_source":"LoD1 solid top minus bottom","production":"2023","laser":"2017","footprints":"2023"},"geometry":{"type":"Polygon","coordinates":[[[13.942588094639248,51.05724357001999],[13.942661773699148,51.05730152927951],[13.942748400223554,51.05725777192223],[13.942809548416887,51.05722687746106],[13.942735939800572,51.057168954902366],[13.942588094639248,51.05724357001999]]]}},{"type":"Feature","id":"DESNATPU1000EbER","properties":{"id":"DESNATPU1000EbER","height_m":3.801,"ground_m":282.752,"height_source":"LoD1 solid top minus bottom","production":"2023","laser":"2017","footprints":"2023"},"geometry":{"type":"Polygon","coordinates":[[[13.928895392199586,51.05885272290518],[13.928622428751293,51.05880375559585],[13.928589896476112,51.058876586323656],[13.928862846049304,51.058925553579975],[13.928895392199586,51.05885272290518]]]}},{"type":"Feature","id":"DESNATPU1000EEdY","properties":{"id":"DESNATPU1000EEdY","height_m":6.934,"ground_m":322.071,"height_source":"LoD1 solid top minus bottom","production":"2023","laser":"2017","footprints":"2023"},"geometry":{"type":"Polygon","coordinates":[[[13.932177007013221,51.05640945094082],[13.932073536132373,51.056350178639676],[13.93207193998461,51.056351333111365],[13.931962630785561,51.05642799556928],[13.932066547877886,51.056486480683894],[13.932177007013221,51.05640945094082]]]}},{"type":"Feature","id":"DESNATPU1000Invq","properties":{"id":"DESNATPU1000Invq","height_m":5.484,"ground_m":294.871,"height_source":"LoD1 solid top minus bottom","production":"2023","laser":"2017","footprints":"2023"},"geometry":{"type":"Polygon","coordinates":[[[13.936472871215367,51.05299407783453],[13.93644981376272,51.05298350837465],[13.936445312336028,51.0529607697313],[13.936404503753787,51.05296273647566],[13.936373482866808,51.05294851541838],[13.93637224031993,51.052947946560344],[13.936351431720343,51.05296564374898],[13.936313974937274,51.05296952944182],[13.936329397597367,51.053030604623686],[13.936338174316175,51.05306539648373],[13.93640066604595,51.05305925661837],[13.936462099678,51.05305321500391],[13.936452337634714,51.05301222718066],[13.936472871215367,51.05299407783453]]]}},{"type":"Feature","id":"UUID_283c3415-83dc-4b53-90de-e5428624dc35","properties":{"id":"UUID_283c3415-83dc-4b53-90de-e5428624dc35","height_m":6.987,"ground_m":304.718,"height_source":"LoD1 solid top minus bottom","production":"2023","laser":"2017","footprints":"2023"},"geometry":{"type":"Polygon","coordinates":[[[13.937392687835564,51.05460722581363],[13.937392145679674,51.054557976647075],[13.937361061905754,51.05455828755419],[13.937360876454656,51.05455828586803],[13.937361734475981,51.05460744797933],[13.937392687835564,51.05460722581363]]]}},{"type":"Feature","id":"UUID_f38e3e5f-19a2-4426-8961-ba9f2897f39f","properties":{"id":"UUID_f38e3e5f-19a2-4426-8961-ba9f2897f39f","height_m":6.925,"ground_m":304.718,"height_source":"LoD1 solid top minus bottom","production":"2023","laser":"2017","footprints":"2023"},"geometry":{"type":"Polygon","coordinates":[[[13.937231772551046,51.05457150934165],[13.937233864525266,51.05468518758975],[13.937299319343364,51.05468495543401],[13.937363090214037,51.054684734909216],[13.937361734475981,51.05460744797933],[13.937360876454656,51.05455828586803],[13.937361061905754,51.05455828755419],[13.937360241061437,51.054522462012216],[13.937296400115448,51.0545226369339],[13.937230875433869,51.05452281449558],[13.937231127236057,51.05453674653787],[13.937231772551046,51.05457150934165]]]}},{"type":"Feature","id":"DESNATPU1000BYzz","properties":{"id":"DESNATPU1000BYzz","height_m":6.499,"ground_m":303.399,"height_source":"LoD1 solid top minus bottom","production":"2023","laser":"2017","footprints":"2023"},"geometry":{"type":"Polygon","coordinates":[[[13.93654523827966,51.05865787674655],[13.936319420222214,51.058627989338426],[13.93629347506693,51.05870657452221],[13.936520860359002,51.05873658415205],[13.93654523827966,51.05865787674655]]]}},{"type":"Feature","id":"DESNATPU1000DVxK","properties":{"id":"DESNATPU1000DVxK","height_m":5.06,"ground_m":286.755,"height_source":"LoD1 solid top minus bottom","production":"2023","laser":"2017","footprints":"2023"},"geometry":{"type":"Polygon","coordinates":[[[13.935946913772739,51.06059613826019],[13.936300550430182,51.060436534789254],[13.936194976376584,51.06034388404989],[13.935840304699463,51.060502587498796],[13.935946913772739,51.06059613826019]]]}},{"type":"Feature","id":"DESNATPU1000Fgw8","properties":{"id":"DESNATPU1000Fgw8","height_m":2.967,"ground_m":294.74,"height_source":"LoD1 solid top minus bottom","production":"2023","laser":"2017","footprints":"2023"},"geometry":{"type":"Polygon","coordinates":[[[13.941033770909359,51.05658749717674],[13.941119949043737,51.05659093082358],[13.941128106713357,51.056512920825114],[13.941041782074604,51.05651028620969],[13.941037411185246,51.056552395549616],[13.941033770909359,51.05658749717674]]]}},{"type":"Feature","id":"UUID_4fe1d98f-5bb9-4e14-9876-75664588532f","properties":{"id":"UUID_4fe1d98f-5bb9-4e14-9876-75664588532f","height_m":7.591,"ground_m":295.885,"height_source":"LoD1 solid top minus bottom","production":"2023","laser":"2017","footprints":"2023"},"geometry":{"type":"Polygon","coordinates":[[[13.93636705791758,51.05340334578106],[13.936510058211942,51.05337881095401],[13.936496603507578,51.05334766356537],[13.936477173240426,51.053302693912016],[13.936452376830399,51.05324532838938],[13.936309376918821,51.05326986314869],[13.93636705791758,51.05340334578106]]]}},{"type":"Feature","id":"UUID_b3d4001b-de06-4ffd-b8d7-c31c7c3ea2f0","properties":{"id":"UUID_b3d4001b-de06-4ffd-b8d7-c31c7c3ea2f0","height_m":2.869,"ground_m":295.885,"height_source":"LoD1 solid top minus bottom","production":"2023","laser":"2017","footprints":"2023"},"geometry":{"type":"Polygon","coordinates":[[[13.936496603507578,51.05334766356537],[13.936531870183755,51.05334160861975],[13.936512439884803,51.05329663897202],[13.936477173240426,51.053302693912016],[13.936496603507578,51.05334766356537]]]}},{"type":"Feature","id":"DESNATGMrL0000Cw","properties":{"id":"DESNATGMrL0000Cw","height_m":2.992,"ground_m":285.322,"height_source":"LoD1 solid top minus bottom","production":"2023","laser":"2017","footprints":"2023"},"geometry":{"type":"Polygon","coordinates":[[[13.943979230233106,51.060692844612966],[13.943979647454558,51.0607572992467],[13.94401755170431,51.06075720106431],[13.944017134430219,51.06069274643039],[13.943979230233106,51.060692844612966]]]}},{"type":"Feature","id":"DESNATP1Se0000mU","properties":{"id":"DESNATP1Se0000mU","height_m":3.108,"ground_m":303.337,"height_source":"LoD1 solid top minus bottom","production":"2023","laser":"2017","footprints":"2023"},"geometry":{"type":"Polygon","coordinates":[[[13.936631851706242,51.05834783096725],[13.93651115940505,51.05832603156008],[13.936486215969364,51.05837648764039],[13.936608522058501,51.058396988816426],[13.936631851706242,51.05834783096725]]]}},{"type":"Feature","id":"DESNATPU1000B30K","properties":{"id":"DESNATPU1000B30K","height_m":2.849,"ground_m":303.924,"height_source":"LoD1 solid top minus bottom","production":"2023","laser":"2017","footprints":"2023"},"geometry":{"type":"Polygon","coordinates":[[[13.936218990365555,51.05861614913562],[13.936209644536794,51.05864600088253],[13.93625743262956,51.058651031112554],[13.936244205651592,51.05869893192516],[13.93629347506693,51.05870657452221],[13.936319420222214,51.058627989338426],[13.93627619625798,51.058623054628924],[13.936218990365555,51.05861614913562]]]}},{"type":"Feature","id":"DESNATPU1000E8QK","properties":{"id":"DESNATPU1000E8QK","height_m":3.515,"ground_m":284.614,"height_source":"LoD1 solid top minus bottom","production":"2023","laser":"2017","footprints":"2023"},"geometry":{"type":"Polygon","coordinates":[[[13.94265009539147,51.06079859696924],[13.942649719232943,51.06086209120613],[13.942818685279248,51.0608625045267],[13.942819075474057,51.06079901041695],[13.94265009539147,51.06079859696924]]]}},{"type":"Feature","id":"DESNATPU1000CvR9","properties":{"id":"DESNATPU1000CvR9","height_m":3.209,"ground_m":277.973,"height_source":"LoD1 solid top minus bottom","production":"2023","laser":"2017","footprints":"2023"},"geometry":{"type":"Polygon","coordinates":[[[13.9321533726024,51.06155802563658],[13.932286867629445,51.06156760843968],[13.932294038872298,51.06152882534945],[13.932160688699462,51.0615191539502],[13.9321533726024,51.06155802563658]]]}},{"type":"Feature","id":"UUID_32d27eb8-2d85-44dc-928f-007b0a169d01","properties":{"id":"UUID_32d27eb8-2d85-44dc-928f-007b0a169d01","height_m":6.296,"ground_m":286.157,"height_source":"LoD1 solid top minus bottom","production":"2023","laser":"2017","footprints":"2023"},"geometry":{"type":"Polygon","coordinates":[[[13.934544723786065,51.06329680378214],[13.934537192075815,51.06332151908245],[13.934521252411674,51.063319602212985],[13.934510419011348,51.0633557261631],[13.934527583478676,51.06335775311903],[13.934514029806168,51.06340358240283],[13.93453738587968,51.063406322268115],[13.934638339080964,51.0634181776383],[13.934655019903794,51.06342013721797],[13.93466798605443,51.063376271970625],[13.934686398470511,51.06331398529933],[13.93466932065284,51.06331191419283],[13.934594363305427,51.06330282276531],[13.934568461951674,51.06329968201536],[13.934544723786065,51.06329680378214]]]}},{"type":"Feature","id":"UUID_4ad2657b-2a80-4f8b-b426-aa7d63a805a9","properties":{"id":"UUID_4ad2657b-2a80-4f8b-b426-aa7d63a805a9","height_m":5.324,"ground_m":286.157,"height_source":"LoD1 solid top minus bottom","production":"2023","laser":"2017","footprints":"2023"},"geometry":{"type":"Polygon","coordinates":[[[13.934707375856398,51.06331652359589],[13.934686398470511,51.06331398529933],[13.93466798605443,51.063376271970625],[13.93468906499556,51.063378739254176],[13.934707375856398,51.06331652359589]]]}},{"type":"Feature","id":"UUID_12300060-195c-4826-8dbd-e1f8b834ad6f","properties":{"id":"UUID_12300060-195c-4826-8dbd-e1f8b834ad6f","height_m":6.282,"ground_m":286.157,"height_source":"LoD1 solid top minus bottom","production":"2023","laser":"2017","footprints":"2023"},"geometry":{"type":"Polygon","coordinates":[[[13.934594363305427,51.06330282276531],[13.934707375856398,51.06331652359589],[13.934710099615135,51.063307285911684],[13.934609348453291,51.06329534251689],[13.93459685239727,51.06329386171916],[13.934594363305427,51.06330282276531]]]}},{"type":"Feature","id":"UUID_705f40e7-8ebf-4c9b-a1ad-3a2632df8bcb","properties":{"id":"UUID_705f40e7-8ebf-4c9b-a1ad-3a2632df8bcb","height_m":3.24,"ground_m":292.448,"height_source":"LoD1 solid top minus bottom","production":"2023","laser":"2017","footprints":"2023"},"geometry":{"type":"Polygon","coordinates":[[[13.91827564155291,51.05785957322089],[13.91822979329822,51.057836936793734],[13.91817119131208,51.05788396600515],[13.918218208819399,51.057907251762266],[13.918269355693402,51.05786478479251],[13.91826924281934,51.05786472979134],[13.91827564155291,51.05785957322089]]]}},{"type":"Feature","id":"UUID_3de775f2-2b3f-4e5c-a9c7-987384a15efa","properties":{"id":"UUID_3de775f2-2b3f-4e5c-a9c7-987384a15efa","height_m":3.531,"ground_m":292.448,"height_source":"LoD1 solid top minus bottom","production":"2023","laser":"2017","footprints":"2023"},"geometry":{"type":"Polygon","coordinates":[[[13.918284900431734,51.05787251853979],[13.918269355693402,51.05786478479251],[13.918218208819399,51.057907251762266],[13.918219294970763,51.05790779238738],[13.918167672775374,51.057949220769835],[13.918225089674406,51.05797753979889],[13.918273076105681,51.05793904534745],[13.918279989130054,51.05794243664487],[13.918335597311705,51.057897735771995],[13.918284900431734,51.05787251853979]]]}},{"type":"Feature","id":"UUID_f6315919-e7ef-47b4-9aea-c0652790cda7","properties":{"id":"UUID_f6315919-e7ef-47b4-9aea-c0652790cda7","height_m":3.348,"ground_m":292.448,"height_source":"LoD1 solid top minus bottom","production":"2023","laser":"2017","footprints":"2023"},"geometry":{"type":"Polygon","coordinates":[[[13.918297116764762,51.05786264965568],[13.918284900431734,51.05787251853979],[13.918335597311705,51.057897735771995],[13.918347899658178,51.05788784969316],[13.918297116764762,51.05786264965568]]]}},{"type":"Feature","id":"UUID_8fcc6880-56fd-40bb-a7b5-6b18c6495b9d","properties":{"id":"UUID_8fcc6880-56fd-40bb-a7b5-6b18c6495b9d","height_m":6.305,"ground_m":285.522,"height_source":"LoD1 solid top minus bottom","production":"2023","laser":"2017","footprints":"2023"},"geometry":{"type":"Polygon","coordinates":[[[13.933976253140768,51.06269762375243],[13.933982526291114,51.062738894642216],[13.93400776687959,51.062904995722796],[13.934125523256592,51.06289788624845],[13.934101026618189,51.06273665704501],[13.934096290703238,51.062705499014974],[13.934089758300662,51.06266246319227],[13.933971988042142,51.06266958149513],[13.933976253140768,51.06269762375243]]]}},{"type":"Feature","id":"UUID_64f25eba-0354-43d9-9e6a-606a2c36f95e","properties":{"id":"UUID_64f25eba-0354-43d9-9e6a-606a2c36f95e","height_m":3.918,"ground_m":285.522,"height_source":"LoD1 solid top minus bottom","production":"2023","laser":"2017","footprints":"2023"},"geometry":{"type":"Polygon","coordinates":[[[13.93412648721486,51.0627036700899],[13.934096290703238,51.062705499014974],[13.934101026618189,51.06273665704501],[13.934131208675485,51.06273483697956],[13.93412648721486,51.0627036700899]]]}},{"type":"Feature","id":"DESNATPU1000FySY","properties":{"id":"DESNATPU1000FySY","height_m":6.098,"ground_m":286.07,"height_source":"LoD1 solid top minus bottom","production":"2023","laser":"2017","footprints":"2023"},"geometry":{"type":"Polygon","coordinates":[[[13.943557249968382,51.059170861069916],[13.943557510714164,51.059223983471654],[13.943728128708472,51.059223655038444],[13.94372786776741,51.05917053263593],[13.943557249968382,51.059170861069916]]]}},{"type":"Feature","id":"DESNATPU1000H2b4","properties":{"id":"DESNATPU1000H2b4","height_m":4.094,"ground_m":305.138,"height_source":"LoD1 solid top minus bottom","production":"2023","laser":"2017","footprints":"2023"},"geometry":{"type":"Polygon","coordinates":[[[13.937394101306953,51.05478173376398],[13.937458015172057,51.054781505494304],[13.937457859349216,51.05475714274928],[13.937573547182545,51.05475594625911],[13.937572796272642,51.054701470416525],[13.937570741215602,51.05470148770635],[13.937392053577437,51.05470288480063],[13.937394101306953,51.05478173376398]]]}},{"type":"Feature","id":"DESNATPU1000CVNk","properties":{"id":"DESNATPU1000CVNk","height_m":3.499,"ground_m":285.069,"height_source":"LoD1 solid top minus bottom","production":"2023","laser":"2017","footprints":"2023"},"geometry":{"type":"Polygon","coordinates":[[[13.943719755332898,51.06064759565574],[13.943719470130727,51.060601811110864],[13.94345593697583,51.060601974126776],[13.94345532547091,51.06064827214537],[13.943719755332898,51.06064759565574]]]}},{"type":"Feature","id":"DESNATPU1000CapM","properties":{"id":"DESNATPU1000CapM","height_m":4.719,"ground_m":303.901,"height_source":"LoD1 solid top minus bottom","production":"2023","laser":"2017","footprints":"2023"},"geometry":{"type":"Polygon","coordinates":[[[13.936616315062139,51.05772542838663],[13.936617132128806,51.05767356572762],[13.93655821870899,51.05767397393891],[13.936558370859567,51.05772339039988],[13.93648006722777,51.05772371207036],[13.936482373469646,51.05778934404719],[13.93656327870517,51.057789450719184],[13.936660309159294,51.05778952418732],[13.936663320150696,51.057726602439914],[13.936616315062139,51.05772542838663]]]}},{"type":"Feature","id":"DESNATPU1000IFqk","properties":{"id":"DESNATPU1000IFqk","height_m":2.364,"ground_m":305.737,"height_source":"LoD1 solid top minus bottom","production":"2023","laser":"2017","footprints":"2023"},"geometry":{"type":"Polygon","coordinates":[[[13.9365571388835,51.05529936911711],[13.936558620216267,51.05535305125689],[13.936644659221992,51.055351855687],[13.936642464505079,51.05529816705809],[13.9365571388835,51.05529936911711]]]}},{"type":"Feature","id":"DESNATPU1000Frye","properties":{"id":"DESNATPU1000Frye","height_m":3.677,"ground_m":290.24,"height_source":"LoD1 solid top minus bottom","production":"2023","laser":"2017","footprints":"2023"},"geometry":{"type":"Polygon","coordinates":[[[13.942614743477645,51.057325276269665],[13.943002025629438,51.057629855996],[13.943135848986582,51.057562568540156],[13.942748400223554,51.05725777192223],[13.942661773699148,51.05730152927951],[13.942614743477645,51.057325276269665]]]}},{"type":"Feature","id":"DESNATPU1000FdzF","properties":{"id":"DESNATPU1000FdzF","height_m":7.374,"ground_m":321.762,"height_source":"LoD1 solid top minus bottom","production":"2023","laser":"2017","footprints":"2023"},"geometry":{"type":"Polygon","coordinates":[[[13.931862168115979,51.05649845284968],[13.931724129120305,51.05659643509226],[13.931826487564214,51.05665444754237],[13.931894102197385,51.05660698130115],[13.931969577352696,51.056554002360684],[13.931862168115979,51.05649845284968]]]}},{"type":"Feature","id":"DESNATPU1000Bp8w","properties":{"id":"DESNATPU1000Bp8w","height_m":4.522,"ground_m":290.436,"height_source":"LoD1 solid top minus bottom","production":"2023","laser":"2017","footprints":"2023"},"geometry":{"type":"Polygon","coordinates":[[[13.943088884314905,51.05731457396755],[13.943095759933748,51.057346632280556],[13.94311290106631,51.05740287494807],[13.94332437556963,51.05737890598],[13.943313575649176,51.05734120973017],[13.94329870400165,51.05728994260578],[13.943293982807518,51.05729048444829],[13.943088884314905,51.05731457396755]]]}},{"type":"Feature","id":"DESNATGMrL0000Ap","properties":{"id":"DESNATGMrL0000Ap","height_m":3.209,"ground_m":272.896,"height_source":"LoD1 solid top minus bottom","production":"2023","laser":"2017","footprints":"2023"},"geometry":{"type":"Polygon","coordinates":[[[13.923124321428505,51.06022887286793],[13.923167888376955,51.06019319539813],[13.92311580623841,51.06016657365045],[13.923111461518152,51.060169932875006],[13.923070555254156,51.0602016420635],[13.923124321428505,51.06022887286793]]]}},{"type":"Feature","id":"DESNATPU1000DHA0","properties":{"id":"DESNATPU1000DHA0","height_m":5.968,"ground_m":283.511,"height_source":"LoD1 solid top minus bottom","production":"2023","laser":"2017","footprints":"2023"},"geometry":{"type":"Polygon","coordinates":[[[13.934984594022795,51.062959493678164],[13.935492455899784,51.0630074471154],[13.935513494029571,51.062918979420004],[13.935005633096196,51.06287102607912],[13.934984594022795,51.062959493678164]]]}},{"type":"Feature","id":"UUID_203926ea-9a4b-473d-877a-43bf15aadba0","properties":{"id":"UUID_203926ea-9a4b-473d-877a-43bf15aadba0","height_m":12.922,"ground_m":319.458,"height_source":"LoD1 solid top minus bottom","production":"2023","laser":"2017","footprints":"2023"},"geometry":{"type":"Polygon","coordinates":[[[13.933019770871589,51.05686231522933],[13.933016003965133,51.056860446322155],[13.933011785095376,51.05685899594748],[13.933007241417718,51.05685801922252],[13.933002515180274,51.056857535431334],[13.932997706039334,51.05685755447644],[13.932992985188609,51.05685807792071],[13.932988466963847,51.056859097815234],[13.932984280380303,51.05686058835965],[13.932980555279924,51.05686248779022],[13.932977392352408,51.05686476105529],[13.93297486458185,51.0568673368793],[13.932973073484716,51.05687014424718],[13.932972049660059,51.05687309351095],[13.932971823293638,51.05687611300431],[13.932972410511736,51.05687912193982],[13.932973785262131,51.0568820121668],[13.93297590598644,51.05688472934936],[13.932978717893391,51.05688717406716],[13.932982150892187,51.0568892917238],[13.933019770871589,51.05686231522933]]]}},{"type":"Feature","id":"UUID_55de84f6-445c-4608-aea3-a7d3e621cf23","properties":{"id":"UUID_55de84f6-445c-4608-aea3-a7d3e621cf23","height_m":9.34,"ground_m":319.458,"height_source":"LoD1 solid top minus bottom","production":"2023","laser":"2017","footprints":"2023"},"geometry":{"type":"Polygon","coordinates":[[[13.933137353697479,51.056931634486325],[13.933135232961575,51.056928917306635],[13.933132421043828,51.056926472592565],[13.933128988035389,51.05692435494029],[13.93309135380192,51.05695133133949],[13.933095120718766,51.05695320024427],[13.93309933959969,51.05695465061597],[13.93310388328877,51.056955627337416],[13.933108623596851,51.05695612024563],[13.933113418481838,51.05695610106579],[13.9331181395479,51.05695556862588],[13.933122657779313,51.056954548726395],[13.93312684416037,51.05695306716792],[13.933130569468794,51.05695115874186],[13.933133746454374,51.05694889459375],[13.933136259954493,51.0569463186361],[13.933138065310986,51.056943511395936],[13.933139089333366,51.05694055313984],[13.933139315689289,51.05693753364613],[13.933138728253049,51.056934533702254],[13.933137353697479,51.056931634486325]]]}},{"type":"Feature","id":"UUID_c5c0ffd3-9d7e-44a4-bb3b-76e371b65857","properties":{"id":"UUID_c5c0ffd3-9d7e-44a4-bb3b-76e371b65857","height_m":10.156,"ground_m":319.458,"height_source":"LoD1 solid top minus bottom","production":"2023","laser":"2017","footprints":"2023"},"geometry":{"type":"Polygon","coordinates":[[[13.933100030265221,51.05680477495768],[13.933019770871589,51.05686231522933],[13.932982150892187,51.0568892917238],[13.932905489155218,51.056944256867624],[13.93301591070271,51.05700542639112],[13.93309135380192,51.05695133133949],[13.933128988035389,51.05692435494029],[13.933210451742806,51.056865944298366],[13.933100030265221,51.05680477495768]]]}},{"type":"Feature","id":"DESNATPU1000C2qX","properties":{"id":"DESNATPU1000C2qX","height_m":2.354,"ground_m":303.655,"height_source":"LoD1 solid top minus bottom","production":"2023","laser":"2017","footprints":"2023"},"geometry":{"type":"Polygon","coordinates":[[[13.936660309159294,51.05778952418732],[13.93665817157282,51.057839234560745],[13.936715553690593,51.05783840769447],[13.936724930575433,51.05772806222165],[13.936663320150696,51.057726602439914],[13.936660309159294,51.05778952418732]]]}},{"type":"Feature","id":"DESNATPU1000DxAe","properties":{"id":"DESNATPU1000DxAe","height_m":3.468,"ground_m":320.947,"height_source":"LoD1 solid top minus bottom","production":"2023","laser":"2017","footprints":"2023"},"geometry":{"type":"Polygon","coordinates":[[[13.932731956944513,51.05638588697015],[13.932686708781393,51.05636173294147],[13.932607435461344,51.05642108048597],[13.93265268364014,51.05644523454518],[13.932731956944513,51.05638588697015]]]}},{"type":"Feature","id":"DESNATPU1000FxEo","properties":{"id":"DESNATPU1000FxEo","height_m":3.048,"ground_m":306.154,"height_source":"LoD1 solid top minus bottom","production":"2023","laser":"2017","footprints":"2023"},"geometry":{"type":"Polygon","coordinates":[[[13.93625542211034,51.05462273454564],[13.936270471844516,51.05473186352129],[13.936270699472594,51.054734383560024],[13.936334267547394,51.05473118515405],[13.936319426237477,51.05461918040736],[13.93625542211034,51.05462273454564]]]}},{"type":"Feature","id":"UUID_cf99b647-3258-4afe-93e7-b87f3eb73993","properties":{"id":"UUID_cf99b647-3258-4afe-93e7-b87f3eb73993","height_m":3.108,"ground_m":297.31,"height_source":"LoD1 solid top minus bottom","production":"2023","laser":"2017","footprints":"2023"},"geometry":{"type":"Polygon","coordinates":[[[13.936159752430473,51.053211136589184],[13.936208887148045,51.05320260907191],[13.93618829434008,51.053155461536086],[13.936139145403851,51.053163988915195],[13.936159752430473,51.053211136589184]]]}},{"type":"Feature","id":"UUID_bcb1957d-e420-4043-bd8f-e4ed5bdef3c4","properties":{"id":"UUID_bcb1957d-e420-4043-bd8f-e4ed5bdef3c4","height_m":4.858,"ground_m":297.31,"height_source":"LoD1 solid top minus bottom","production":"2023","laser":"2017","footprints":"2023"},"geometry":{"type":"Polygon","coordinates":[[[13.93596105677811,51.053194912426825],[13.935987507125851,51.05325541359494],[13.93616559555523,51.05322450802631],[13.936159752430473,51.053211136589184],[13.936139145403851,51.053163988915195],[13.93596105677811,51.053194912426825]]]}},{"type":"Feature","id":"DESNATPU1000DuAF","properties":{"id":"DESNATPU1000DuAF","height_m":2.371,"ground_m":321.903,"height_source":"LoD1 solid top minus bottom","production":"2023","laser":"2017","footprints":"2023"},"geometry":{"type":"Polygon","coordinates":[[[13.93206412878696,51.056607761637],[13.932122857379762,51.05656570863259],[13.932028859021852,51.05651271883998],[13.931969577352696,51.056554002360684],[13.93206412878696,51.056607761637]]]}},{"type":"Feature","id":"UUID_20b82336-d896-46f7-97a2-05f658631abc","properties":{"id":"UUID_20b82336-d896-46f7-97a2-05f658631abc","height_m":5.353,"ground_m":304.128,"height_source":"LoD1 solid top minus bottom","production":"2023","laser":"2017","footprints":"2023"},"geometry":{"type":"Polygon","coordinates":[[[13.936031958519278,51.05422948929822],[13.936164238044883,51.05420903891595],[13.936132114413377,51.05412647192999],[13.93599984937531,51.05414692240737],[13.936031958519278,51.05422948929822]]]}},{"type":"Feature","id":"UUID_6de68224-e1fd-422a-bfba-0ce316ba2c6a","properties":{"id":"UUID_6de68224-e1fd-422a-bfba-0ce316ba2c6a","height_m":6.733,"ground_m":304.128,"height_source":"LoD1 solid top minus bottom","production":"2023","laser":"2017","footprints":"2023"},"geometry":{"type":"Polygon","coordinates":[[[13.935964396545556,51.05421274125041],[13.936021987546766,51.054203850152064],[13.93599984937531,51.05414692240737],[13.935942243763332,51.054155831347146],[13.935964396545556,51.05421274125041]]]}},{"type":"Feature","id":"DESNATPU1000FTSC","properties":{"id":"DESNATPU1000FTSC","height_m":12.701,"ground_m":285.357,"height_source":"LoD1 solid top minus bottom","production":"2023","laser":"2017","footprints":"2023"},"geometry":{"type":"Polygon","coordinates":[[[13.94339117069915,51.06027696705469],[13.943390890420215,51.06020841296573],[13.943320250363776,51.06020915922831],[13.94331971777484,51.06027705849251],[13.94339117069915,51.06027696705469]]]}},{"type":"Feature","id":"DESNATP1Se0000ij","properties":{"id":"DESNATP1Se0000ij","height_m":5.465,"ground_m":294.81,"height_source":"LoD1 solid top minus bottom","production":"2023","laser":"2017","footprints":"2023"},"geometry":{"type":"Polygon","coordinates":[[[13.940800583618156,51.056544449212524],[13.940983161702928,51.05655045617773],[13.94098948330124,51.056479758629024],[13.940997816602309,51.056386552508776],[13.940935079633196,51.05638450923126],[13.940820813080409,51.05638077593802],[13.9408141543248,51.05638056271705],[13.940800583618156,51.056544449212524]]]}},{"type":"Feature","id":"DESNATPU1000IBX6","properties":{"id":"DESNATPU1000IBX6","height_m":7.396,"ground_m":320.715,"height_source":"LoD1 solid top minus bottom","production":"2023","laser":"2017","footprints":"2023"},"geometry":{"type":"Polygon","coordinates":[[[13.932485764517716,51.05658733310314],[13.932809428788913,51.056767994415644],[13.932908231620742,51.05669770102703],[13.932584553180853,51.05651703985635],[13.932485764517716,51.05658733310314]]]}},{"type":"Feature","id":"DESNATPU1000BUO2","properties":{"id":"DESNATPU1000BUO2","height_m":5.466,"ground_m":293.703,"height_source":"LoD1 solid top minus bottom","production":"2023","laser":"2017","footprints":"2023"},"geometry":{"type":"Polygon","coordinates":[[[13.93639831851112,51.052469158498745],[13.93638975002184,51.05241967439321],[13.93617933178108,51.052433865275155],[13.936193392803727,51.05252633074439],[13.936351778908426,51.05251640548305],[13.93634467933276,51.05247193470776],[13.93639831851112,51.052469158498745]]]}},{"type":"Feature","id":"DESNATPU1000IYsD","properties":{"id":"DESNATPU1000IYsD","height_m":6.027,"ground_m":316.622,"height_source":"LoD1 solid top minus bottom","production":"2023","laser":"2017","footprints":"2023"},"geometry":{"type":"Polygon","coordinates":[[[13.93287439957892,51.05744380735353],[13.932550236861895,51.0576507196937],[13.93268994245369,51.05773724670021],[13.933013962500246,51.05753033267307],[13.93287439957892,51.05744380735353]]]}},{"type":"Feature","id":"DESNATPU1000IvMk","properties":{"id":"DESNATPU1000IvMk","height_m":2.493,"ground_m":303.9,"height_source":"LoD1 solid top minus bottom","production":"2023","laser":"2017","footprints":"2023"},"geometry":{"type":"Polygon","coordinates":[[[13.93656327870517,51.057789450719184],[13.936562127309488,51.057839709628325],[13.93665817157282,51.057839234560745],[13.936660309159294,51.05778952418732],[13.93656327870517,51.057789450719184]]]}},{"type":"Feature","id":"DESNATPU1000FipS","properties":{"id":"DESNATPU1000FipS","height_m":2.635,"ground_m":283.639,"height_source":"LoD1 solid top minus bottom","production":"2023","laser":"2017","footprints":"2023"},"geometry":{"type":"Polygon","coordinates":[[[13.935366778187419,51.063052543037244],[13.935362178881764,51.06305209647113],[13.93535103678179,51.06309051083213],[13.9354358661055,51.063097884151645],[13.935449967658165,51.06303994654814],[13.935372599810398,51.063032677172956],[13.935366778187419,51.063052543037244]]]}},{"type":"Feature","id":"DESNATPU1000Ayyd","properties":{"id":"DESNATPU1000Ayyd","height_m":3.247,"ground_m":300.562,"height_source":"LoD1 solid top minus bottom","production":"2023","laser":"2017","footprints":"2023"},"geometry":{"type":"Polygon","coordinates":[[[13.938894020560415,51.05575933757382],[13.938887565403986,51.055823882783336],[13.939004171823463,51.055828808269055],[13.939015690621101,51.05572063130207],[13.938898608356173,51.0557159353179],[13.938894020560415,51.05575933757382]]]}},{"type":"Feature","id":"DESNATP130001Gdu","properties":{"id":"DESNATP130001Gdu","height_m":6.963,"ground_m":286.086,"height_source":"LoD1 solid top minus bottom","production":"2023","laser":"2017","footprints":"2023"},"geometry":{"type":"Polygon","coordinates":[[[13.941343333779495,51.05976862946373],[13.941017710652572,51.05975653401065],[13.941007103223319,51.05986995311652],[13.94133272714228,51.059882048603626],[13.941343333779495,51.05976862946373]]]}},{"type":"Feature","id":"DESNATPU1000Hj7Y","properties":{"id":"DESNATPU1000Hj7Y","height_m":7.778,"ground_m":285.547,"height_source":"LoD1 solid top minus bottom","production":"2023","laser":"2017","footprints":"2023"},"geometry":{"type":"Polygon","coordinates":[[[13.928813266077135,51.05853195468035],[13.929278929396094,51.05860737210187],[13.92931019320412,51.05853070764934],[13.928844530599706,51.058455290355724],[13.928813266077135,51.05853195468035]]]}},{"type":"Feature","id":"UUID_9db32890-02da-4790-98cb-80ac9d61c4a4","properties":{"id":"UUID_9db32890-02da-4790-98cb-80ac9d61c4a4","height_m":3.736,"ground_m":304.254,"height_source":"LoD1 solid top minus bottom","production":"2023","laser":"2017","footprints":"2023"},"geometry":{"type":"Polygon","coordinates":[[[13.936453366452625,51.057660304136576],[13.936451802218462,51.05762270027129],[13.93640729278334,51.05762346429576],[13.936408911987096,51.0576611585893],[13.936453366452625,51.057660304136576]]]}},{"type":"Feature","id":"UUID_44e94129-3a46-4aee-af48-e2eb862dac44","properties":{"id":"UUID_44e94129-3a46-4aee-af48-e2eb862dac44","height_m":7.976,"ground_m":304.254,"height_source":"LoD1 solid top minus bottom","production":"2023","laser":"2017","footprints":"2023"},"geometry":{"type":"Polygon","coordinates":[[[13.936408826388586,51.05766115781036],[13.936408911987096,51.0576611585893],[13.93640729278334,51.05762346429576],[13.936407264250526,51.057623464036105],[13.936406903717266,51.05761428816571],[13.936345339550957,51.05761517574055],[13.936284860041509,51.05761605516911],[13.936288623778466,51.05770089091263],[13.936349033920413,51.057699929915906],[13.936383535658061,51.05769938059397],[13.936410531193022,51.05769885288261],[13.936408826388586,51.05766115781036]]]}},{"type":"Feature","id":"DESNATPU1000GWLq","properties":{"id":"DESNATPU1000GWLq","height_m":2.665,"ground_m":304.123,"height_source":"LoD1 solid top minus bottom","production":"2023","laser":"2017","footprints":"2023"},"geometry":{"type":"Polygon","coordinates":[[[13.936221150719257,51.058534334923586],[13.93619652726223,51.058612527444],[13.936218990365555,51.05861614913562],[13.93627619625798,51.058623054628924],[13.936319420222214,51.058627989338426],[13.936344788232157,51.05855216865769],[13.936221150719257,51.058534334923586]]]}},{"type":"Feature","id":"DESNATGMrL0000BR","properties":{"id":"DESNATGMrL0000BR","height_m":2.281,"ground_m":285.593,"height_source":"LoD1 solid top minus bottom","production":"2023","laser":"2017","footprints":"2023"},"geometry":{"type":"Polygon","coordinates":[[[13.934530617213863,51.06314044453472],[13.934571551554788,51.06314582662451],[13.93458728534443,51.06309827261571],[13.934546350837056,51.06309289952249],[13.934530617213863,51.06314044453472]]]}},{"type":"Feature","id":"DESNATP1Se0000iz","properties":{"id":"DESNATP1Se0000iz","height_m":3.408,"ground_m":296.687,"height_source":"LoD1 solid top minus bottom","production":"2023","laser":"2017","footprints":"2023"},"geometry":{"type":"Polygon","coordinates":[[[13.935980628804018,51.05295663007732],[13.935986935682605,51.052898711287206],[13.935850637518678,51.052913504407556],[13.935868638877103,51.052969738058756],[13.935980628804018,51.05295663007732]]]}},{"type":"Feature","id":"DESNATPU1000Fx4b","properties":{"id":"DESNATPU1000Fx4b","height_m":6.991,"ground_m":285.497,"height_source":"LoD1 solid top minus bottom","production":"2023","laser":"2017","footprints":"2023"},"geometry":{"type":"Polygon","coordinates":[[[13.934583885981892,51.063202836044844],[13.934634652201957,51.06320950376516],[13.934696687004141,51.063217659049556],[13.934714260194923,51.06316457327658],[13.934571551554788,51.06314582662451],[13.934530617213863,51.06314044453472],[13.934513058091097,51.06319353040919],[13.934583885981892,51.063202836044844]]]}},{"type":"Feature","id":"DESNATP1Se0000iV","properties":{"id":"DESNATP1Se0000iV","height_m":7.024,"ground_m":286.086,"height_source":"LoD1 solid top minus bottom","production":"2023","laser":"2017","footprints":"2023"},"geometry":{"type":"Polygon","coordinates":[[[13.941343333779495,51.05976862946373],[13.94133272714228,51.059882048603626],[13.941336434338632,51.05988218110253],[13.94159355163464,51.05989160498483],[13.941596474345625,51.05989172137879],[13.941597323430823,51.059882646412156],[13.941607049346946,51.05977840984343],[13.941343333779495,51.05976862946373]]]}},{"type":"Feature","id":"DESNATPU1000CISu","properties":{"id":"DESNATPU1000CISu","height_m":2.727,"ground_m":283.785,"height_source":"LoD1 solid top minus bottom","production":"2023","laser":"2017","footprints":"2023"},"geometry":{"type":"Polygon","coordinates":[[[13.934918089629361,51.0628967479297],[13.934637385352657,51.06287035895634],[13.934624979872105,51.06292275442023],[13.93490568445777,51.062949143424966],[13.934918089629361,51.0628967479297]]]}},{"type":"Feature","id":"UUID_5ee73acf-8365-49d0-9495-316713834a6d","properties":{"id":"UUID_5ee73acf-8365-49d0-9495-316713834a6d","height_m":9.615,"ground_m":285.916,"height_source":"LoD1 solid top minus bottom","production":"2023","laser":"2017","footprints":"2023"},"geometry":{"type":"Polygon","coordinates":[[[13.94121695244828,51.060091690517424],[13.941199499665855,51.060091082779294],[13.94119209616576,51.060176041956026],[13.94130898434041,51.06018036514297],[13.941309346410417,51.060169496214414],[13.941316350567867,51.06009515382556],[13.94121695244828,51.060091690517424]]]}},{"type":"Feature","id":"UUID_7562aa71-75fd-4359-8b79-458bc343eb28","properties":{"id":"UUID_7562aa71-75fd-4359-8b79-458bc343eb28","height_m":9.891,"ground_m":285.916,"height_source":"LoD1 solid top minus bottom","production":"2023","laser":"2017","footprints":"2023"},"geometry":{"type":"Polygon","coordinates":[[[13.941218343719035,51.060075741028044],[13.94121695244828,51.060091690517424],[13.941316350567867,51.06009515382556],[13.941317836753216,51.06007942102031],[13.941218343719035,51.060075741028044]]]}},{"type":"Feature","id":"DESNATPU1000HpIT","properties":{"id":"DESNATPU1000HpIT","height_m":4.103,"ground_m":296.007,"height_source":"LoD1 solid top minus bottom","production":"2023","laser":"2017","footprints":"2023"},"geometry":{"type":"Polygon","coordinates":[[[13.93597913605916,51.05213708986472],[13.93597289043708,51.05219171787513],[13.935986106429368,51.052192161933874],[13.936163456639097,51.0521995227696],[13.936165492197073,51.05214368737101],[13.93602150525524,51.05213859069173],[13.93597913605916,51.05213708986472]]]}},{"type":"Feature","id":"DESNATGMrL0000BX","properties":{"id":"DESNATGMrL0000BX","height_m":3.389,"ground_m":297.75,"height_source":"LoD1 solid top minus bottom","production":"2023","laser":"2017","footprints":"2023"},"geometry":{"type":"Polygon","coordinates":[[[13.936201638179433,51.05328857664853],[13.936231530735606,51.05335703169577],[13.93624070903984,51.053378032351425],[13.936306117049602,51.05336668530357],[13.936267017747916,51.053277220371115],[13.936201638179433,51.05328857664853]]]}},{"type":"Feature","id":"DESNATGMrL0000BP","properties":{"id":"DESNATGMrL0000BP","height_m":3.053,"ground_m":285.809,"height_source":"LoD1 solid top minus bottom","production":"2023","laser":"2017","footprints":"2023"},"geometry":{"type":"Polygon","coordinates":[[[13.934628886171621,51.063226933070716],[13.934634652201957,51.06320950376516],[13.934583885981892,51.063202836044844],[13.934578119933395,51.063220265347816],[13.934628886171621,51.063226933070716]]]}},{"type":"Feature","id":"DESNATPU1000Hm1o","properties":{"id":"DESNATPU1000Hm1o","height_m":3.356,"ground_m":322.039,"height_source":"LoD1 solid top minus bottom","production":"2023","laser":"2017","footprints":"2023"},"geometry":{"type":"Polygon","coordinates":[[[13.932056479679797,51.05636218097279],[13.931997095015717,51.0563285630405],[13.931932786272622,51.0563756279012],[13.93199136110934,51.05640785358384],[13.932056479679797,51.05636218097279]]]}},{"type":"Feature","id":"UUID_c0ae7c9f-3450-4398-ba5d-9e6e32d85136","properties":{"id":"UUID_c0ae7c9f-3450-4398-ba5d-9e6e32d85136","height_m":3.0,"ground_m":285.931,"height_source":"LoD1 solid top minus bottom","production":"2023","laser":"2017","footprints":"2023"},"geometry":{"type":"Polygon","coordinates":[[[13.941571072835556,51.05972779671729],[13.941604682705334,51.059728874449554],[13.94160896071583,51.05967581112687],[13.94157533641226,51.05967474225771],[13.941571072835556,51.05972779671729]]]}},{"type":"Feature","id":"UUID_549bb746-4b00-483d-9f9d-65f864bd56df","properties":{"id":"UUID_549bb746-4b00-483d-9f9d-65f864bd56df","height_m":3.896,"ground_m":285.931,"height_source":"LoD1 solid top minus bottom","production":"2023","laser":"2017","footprints":"2023"},"geometry":{"type":"Polygon","coordinates":[[[13.941360983588034,51.05964797201926],[13.941355110544409,51.05972090380992],[13.941571072835556,51.05972779671729],[13.94157533641226,51.05967474225771],[13.941576931068967,51.0596548737755],[13.941360983588034,51.05964797201926]]]}},{"type":"Feature","id":"DESNATGMrL0000Al","properties":{"id":"DESNATGMrL0000Al","height_m":2.386,"ground_m":272.944,"height_source":"LoD1 solid top minus bottom","production":"2023","laser":"2017","footprints":"2023"},"geometry":{"type":"Polygon","coordinates":[[[13.922739912526824,51.06021035754414],[13.922817787471432,51.06025083218132],[13.922911180699039,51.060179723982614],[13.922833305999058,51.06013924041659],[13.922739912526824,51.06021035754414]]]}},{"type":"Feature","id":"UUID_fce566a8-e9f2-4a59-b5b5-72a1ea3e2fa1","properties":{"id":"UUID_fce566a8-e9f2-4a59-b5b5-72a1ea3e2fa1","height_m":3.0,"ground_m":288.723,"height_source":"LoD1 solid top minus bottom","production":"2023","laser":"2017","footprints":"2023"},"geometry":{"type":"Polygon","coordinates":[[[13.940789762756182,51.05956948803364],[13.94088107831776,51.059572527751456],[13.940882957750818,51.05955019785022],[13.940791642438171,51.05954714914324],[13.940789762756182,51.05956948803364]]]}},{"type":"Feature","id":"UUID_79b81462-2400-488e-99cc-1f974b05809a","properties":{"id":"UUID_79b81462-2400-488e-99cc-1f974b05809a","height_m":3.029,"ground_m":288.723,"height_source":"LoD1 solid top minus bottom","production":"2023","laser":"2017","footprints":"2023"},"geometry":{"type":"Polygon","coordinates":[[[13.940791642438171,51.05954714914324],[13.940882957750818,51.05955019785022],[13.940963293624725,51.059552877220185],[13.940969425090135,51.059479902823206],[13.940797759700263,51.059474183618356],[13.940791642438171,51.05954714914324]]]}},{"type":"Feature","id":"DESNATPU1000H5WE","properties":{"id":"DESNATPU1000H5WE","height_m":9.626,"ground_m":285.228,"height_source":"LoD1 solid top minus bottom","production":"2023","laser":"2017","footprints":"2023"},"geometry":{"type":"Polygon","coordinates":[[[13.942896515812588,51.06076413561398],[13.943277689297974,51.060762951198015],[13.943277115269005,51.06069038370219],[13.94289594237962,51.060691568119815],[13.942896515812588,51.06076413561398]]]}}]}